name,latitude,longitude,phone,address
SURYA PUTHRA PETRO STATION,12.944137,77.529144,8028601770,INDIAN OIL DEALERS SY No 16 PANTHARPALYA RING ROAD KENGERI HOBLI BANGALORE 39
ABHIMAANI FUEL STATION,13.023345,77.51020333,9880601023,PLOT No. 460B IVTH PHASE PEENYA INDL. AREA NALAKADARANAHALLI VILLAGE
SRI VEERABHADRASWAMY PETROLEUM,12.581781,77.431064,9980774326,AGRAHARA VILLAGE CHATRA NH-209 KANAKAPURA RD RAMNAGARAM DIST. RAMANAGARAM DISTRICT
NISARGA SERVICE STATION,14.34139861,74.88517194,9481869832,IOC DEALERS SY NO116 1 YLHALLI TAVAREKERE PO NANDHAGUDI HOBLI hobli
SRI LAKSHMIVENKATESHWARA FUELS,13.04158,77.761002,9845625936,INDIANOIL DEALERS GORAVIGERE GATE BANGALORE RURAL DISTRICT
FUEL ZONE,13.14052,77.61795528,9845356717,SY NO.7/1 HUNSAMARANEHALLI VILLAGE JALA HOBLI
DVR AND SONS,12.9045,77.74655,9611999975,IOC PETROL PUMP SY NO 73 4 VARTHUR SARJAPUR ROAD VILL. HEGGONDANAHALLI
SAINATH SERVICE STATION,17.33915,78.5678,9392695999,IOC DEALERS PLOT NO. 2 & 3 NH 9 VANASTHALIPURAM TELANGANA
SRI SAINARSIMHA FUELS,17.3259,78.4773,9849553344,INDIAN OIL DEALERS SRISAILAM ROAD HYDERABAD TELANGANA
NACHARAM FILLING STATION,17.440968,78.565083,9000725580,SY. NO.51 NACHARAM IDA NACHARAM RANGA REDDY DIST. TELANGANA
EXPRESS WAY FUEL STATION,17.597209,78.056173,8688001833,INDIAN OIL DEALER SY NO. 210(PART)MALKAPUR(V) TELANGANA
SUPERINTENDENT DIST JAILSANGAREDDY,17.552233,78.117443,9494632158,INDIAN OIL DEALER KASIPUR (V) SY NO.114/14DIST JAIL KASIPUR KANDI MANDALSANGA REDDY DIST.
BAGGA HIGHWAY SERVICES,23.1768,72.5738,9979151107,ADALAJ AHMEDABAD SH 41 AT ADALAJ DIST. GANDHINAGAR
GUJARAT STATE CIVIL SUPPLIES(GSCS),23.2331,72.6695,6359945727,KALPATARU FILLING STATION SECTOR 21 GANDHINAGAR 382021 DIST. GANDHINAGAR
ISHWAR PETROLEUM,23.0293,72.475,9824049620,BLOCK NO.303 AMLI-BOPAL ROAD AHMEDABAD.
JAYVIR CIVIL PETROL PUMP,23.0489,72.6048,9747640999,INDIAN OIL DEALER 39 KM OPP.NEW CIVIL HOSPITAL AHMEDA DIST.AHMEDABAD. TEL:375078
MANSA PETROLEUM SALES & SERVIC,23.4246,72.6494,9925226588,INDIAN OIL DEALER OPP. MANSA MARKETING YARD DIST. GANDHINAGAR
MANIAR AUTO CENTRE,22.981,72.5856,9824265935,INDIAN OIL DEALER AHMEDABAD-BOMBAY NH8 DHANILIM AHMEDABAD DIST.AHMEDABAD.
PRINCE GASOLINE,23.167,72.6371,9925126548,AIRPORT ROAD KUDASAN GANDHINAGAR
SIDDHACHAKRA PETROLEUM,23.1618,72.5881,9429128489,INDIAN OIL DEALER ADALAJ - AHMEDABAD SH 41 GANDHINAGAR
SHARDA PETROLEUM SERVICE,23.1141,72.5838,9824387777,INDIAN OIL DEALER CHANDKHEDA DIST.AHMEDABAD PIN 382 424 TEL: 2329137723296777 23298877
VISAT AUTOMOBILES MOTERA,23.0973,72.5891,9825036651,INDIAN OIL DEALER MOTERA DISTT. AHMEDABAD
AMBICA SERVICE STATION,22.7156,72.4648,9726635999,IOC DEALER DHOLKA KHEDA ROAD DIST. AHMEDABAD (185)
SUN PETROGAS,23.0305,72.6142,8128177516,SARASPUR AHMEDABAD AHMEDABAD
RUPAM PETROLEUM,23.0397,72.5956,9327008803,"""OPP.DARIAPUR GATENR IDGAH CHO"" "" DARIAPUR AHMEDABAD"""
BHAKTI PETROLEUM,23.0251,72.6763,9825069252,E-358/359 GVMMLIMITED ODHAV ROAD NH 59 ODHAV AHMEDABAD
KALASHREE AUTOMOBILES,22.8672,72.4577,9979096655,S.NO. 493 VILLAGE BHATH TALUKA DASCROI DISTRICT AHMEDABAD
PUNJAB SERVICE STATION,23.0462,72.6017,9726933777,IBP DEALERBALIA LIMDI NEW CIVIL ROAD DIST:AHMEDABAD
SACHA SAUDA SERVICE STN PVT.LTD,23.022,72.6506,9898010062,PLOT NO 467 GIDC ESTATE ODHAV ROAD AHMEDABAD
UNIQUE RETREADS PVT. LIMITED,22.9746,72.639,9870389494,PLOT NO. 635/B GIDC PHASE 4 VATVA AHMEDABAD
ACCURATE FILLING STATION,23.1251,72.5828,9879526230,SURVEY NO.202/1&23 PARTY CHANDKHEDA S H NO 41 TAL DIST GANDHINAGAR
SHREE LAXMINARAYAN AUTOMOBILES,22.938,72.4558,9979864104,SARKHEJ-BAVLA ROAD NH 8A CHANGODAR DISTT. AHMEDABAD
SHRI SAHAJANAND PETROLEUM,23.3497,72.6435,9859881281,IBP DEALER MANSA GANDHINAGAR ROAD SH 71 DIST.GANDHI NAGARBALWA
ASHIRWAD ENTERPRISE,22.8031,73.0502,9879516635,INDIAN OIL PUMP AT&POST. ALINA TAL. MAHUDHA DIST. KHEDA DIST. KHEDA
RATHWA PETROLEUM,23.0785,72.6886,9898257332,SURVEY No. 31 VILLAGE : BILASIYA TALUKA : DASCROI
RAJ PETROLEUM SERVICES,23.4394,72.3944,9824063527,STATE HIGHWAY NR. NIRMA FACTORY AT & POST : MANDALI DIST. MEHSANA
KAMESHWAR PETROLEUM,23.0575,72.5563,9998844823,NR. KAMESHWAR TEMPLE ANKUR CHAR RASTA AHMEDABAD -
DEV PETROLEUM,22.3,73.4006,9825122539,NEAR BOPAL JUNCTION S. P. RING ROAD AMBLI AHMEDABAD
ASHATVINAYAK PETROLEUM,22.9104,72.7054,8735007474,VILL. HIRAPUR TAL. DASCROI HIRAPUR TO HATHIJAN CIRCLE Ahmedabad
KRUSHN PETROLEUM,22.8894,72.9908,9879232793,SURVEY NO. 832+836 PAIKI MOUJE & TAL. KATHLAL Dist. Kheda
CHENPUR PETROLEUM,23.0962,72.5601,9824631680,GST-CHENPUR ROAD AT. CHENPUR NEW RANIP AHMEDABAD
AADIT PETROLEUM,23.0475,72.5551,9978788808,NEAR DARPAN SIX CROSS RAOD NARANPURA AHMEDABAD CITY
VIDITA PETROLEUM,23.0083,72.6149,9909708809,OPP. ASHIMA MILLS BEHIND ANUPAM CINEMA KHOKHRA AHMEDABAD
DEV GANESH PETROLEUM,23.1615,72.6974,9824098339,SURVEY NO. 2 SHRAM MARG VILLAGE : PHIROZPUR GIFT CITY GANDHINAGAR
GUJARAT AUTO SHAHWADI,22.9744,72.5624,7925714692,INDIAN OIL DEALER OPP.PIRANA OCTROI NAKA SHAHWADI AHMEDABAD.
AKMDS FILLING STATION,26.62113,81.004762,9415022719,VILLAGE KANKAHA MOHANLAL GANJ RAEBAREILLY ROAD DISTT. LUCKNOW
211785 SULUR LORRY URIMAIYALARGAL S,11.027596,77.137525,9865233636,SANGAM IOC DLR KANGEYAMPALAYAM SF NO 504/2B1 TRICHY RD CBE 641402 TIN 33396241730 KANGAYMPALAM
24 HOUR FILLING STATION,28.430176,77.036119,7506448629,BETWEEN RAJIV CHOWK & SADAR THANA CHOWK ON SOHNA ROAD Islampur Distt Gurgaon
3-STAR FUEL STATION,19.066569,72.866872,9820465458,"3-STAR FUEL STATION ""PLOT NO C-50 G BLOCK BANDRA-"" ""COMPLEXBANDRA EAST MUMBAI"""
A N G AGENCY,10.958024,76.977917,0422-2672246,NEW SURVEY NO233A/1A2PODHANUR ROAD SUNDARAPURAM SENKOTTAIAN COLONY KURUCHI VILLAGE COIMBATORE
A.V.RANGASAMY & CO,11.7694,79.6893,9443231513,LK NO 05468 NELLIKUPPAM MAIN ROAD KARAMANIKUPPAM CUDDALORE DIST
AAGMAN FUELS & SERVICES,25.34913446,86.51095381,7870627977,INDIAN OIL RETAIL OUTLET TELIA TALAB DIST MUNGER
AARTHI AGENCIES,11.575289,78.040566,9487545968,INDIAN OIL DEALER SF.NO.9/3A1 KADATHUR AGRAHARAM VILLAGE
AASHTHA HIGHWAY FUEL CENTER,24.845,77.4516,7869287877,VILLAGE MYANA TEHSIL GUNA NH-3
AASTHA ENERGY,21.1133,73.4049,9825077737,BLOCK NO. 20/1/2VILL: KANPURA VYARA TAL: VYARA DIST: TAPI
ABADH OIL CORPORATION,25.97707,85.797264,9431415183,INDIAN OIL RETAIL OUTLET KALYANPUR SAMASTIPUR
ABC INDIA LTD,18.71864,73.669727,8805980037,TALEGAON(DABHADE)PUNE MUMBAI ROAD TALUKA MAWAL DIST PUNE
GAYATRI AGENCIES,17.393765,82.664275,9866176119,NH-5 NAKKAPALLI MANDAL-LOCK NO.T1 VEMPADU VISAKHA DIST ANDHRA PRADESH
ABIGA PETRO FILLS,11.314214,77.00419,9994395953,S.F.NO.754/C BALLEPALAYAM VIL METTUPALAYAM TK METTUPALAYAM
ADHITHI AGENCIES,10.858316,76.958902,9791903388,INDIAN OIL RETAIL OUTLET NACHIPALAYAM VILLAGE MADUKARAI TALUK
ADITYA FUELS,23.47613714,86.20166159,8986820119,DEALER INDIAN OIL CORPORATION LTD MOUZA: CHARGOI THANA NO: 145 PS: Pindrajora PO:Sardah
ADITYA TRADERS IOC DEALERS NH-7,11.628011,78.136253,9443348029,PROPX:U.KANAGAVALLI SFNO.44/4A AMANIKONDALAMPATTI BYPASS ROAD SALEM
AJAY SERVICE STATION,28.67678333,77.32173333,9810300247,SHAHDARA NEW SHAHDARA BORDER G.T. ROAD SHAHDARA DELHI-32
AJIT MOTORS,28.59705,77.1356,9837015258,GOPINATH BAZAR DELHI CANTT. NEW DELHI
AKAASH AUTO CENTRE,28.640207,77.285149,9910783500,INDIAN OIL PUMP LAXMI NAGAR NEW DELHI
AKM AGENCY (KANGALANCHERY),10.800643,79.638864,9363399944,KEEZHAKAVALAGUDIKANGALANCHERY TIRUVARUR DISTRICT MYLADUTHURAI ROAD LHS
ALAPUR PETROLEUM,26.178867,78.214052,9826314555,KHASRA NO. 95 VILL ALAPUR Tehsil Gwalior Distt Gwalior
ALFA PETROLEUM,22.2776,73.1614,9824147796,IOC DEALER R.S. No: 632 Near Kalali Phatak Atladra
ALLIED INDUS. AG.A-SITE,22.4255,71.0853,9627401197,NH 8A BHALGAM Indian Oil Dealer District Rajkot
AMAR SHAHID SUDISH FILLING STATION,28.820292,77.101286,9.1972E+11,NEAR FIRE STATION NARELA-ALIPUR ROAD DELHI
AMARDEEP(*),26.172401,85.338195,9525308625,NH 28 MOTIHARI RDPAHARPUR MUZAFF BIHAR MUZAFFarpur
AMARNATH FILLING STATION,29.617342,76.932767,9813011845,KHEMASULI MEDINIPUR(W) WEST BENGAL
AMBEJOGAI PETROLEUM,18.71898,76.370085,9892411943,INDIAN OIL DEALER GUT NO. 552 & 552/5 TAL: AMBEJOGAI DIST. BEED
AMBICA FILLING STATION,22.2912,73.2105,8690902525,"""PRATAPNAGAR NR GEETA MANDIR"" ""WADI BARODA CITY"" Vadodara City"
AMBIKA AUTOMOBILES (LOCK NO.13013),19.295024,72.906226,9702905404,G.N.MOTEL COMPLEX N H 8 NEAR GODHBUNDER BRIDGE VASAI DIST PALGHAR.
AMISH ENTERPRISES,28.756114,77.147799,9811159609,LIBASPUR KHASRA NO.21-25 G.T. KARNAL ROAD LIBASPUR DELHI-42
AMRITA FUELS,10.050234,76.294605,4842430969,INDIAN OIL DEALER CHERANALOOR ERNAKULAM DISTRICT
ANAND FUEL CENTRE,28.638787,77.458025,9810866632,B-34/1 SITE-1 INDUSTRIAL AREA
ANAND PETROLEUM,21.5816,70.0375,9731190977,INDIAN OIL DEALER SURVEY NO.119/A+119/B Vill: Utran Dist: Surat
ANIL AUTOMOBILES,27.575377,77.842624,7351951000,SHIVLI RAYA; DISTT. Mathura UP
SRI SATYAMAMBA FILLING STATION,17.681131,82.982275,9394431313,INDIAN OIL DEALERS -LOCK NO.T1 21 ANAKAPALLI ANDHRA PRADESH
ANKIT FILLING STATION,29.389542,76.945674,9992500007,ASSANDH POLICE NAKA JATTAL BYPASS OLD DELHI BRANCH
ANKIT PETROLEUM,20.7811,73.0849,9925140316,SURVEY NO. 16451646 & 1647 VILL: ALIPORE ON SH-15 Dist: Navsari Tal: Chikhli
ANKUR FILLING STATION.,26.664654,80.807365,9045714710,BANTHARA DISTRICT : LUCKNOW
ANNAI PETRO TRADERS IOC DEALE,11.659301,78.156937,9442227843,TSNO. 9 WARD - B BLOCK 18 BRETTSROADSALEM TOWN
ANJANEYA AGENCY,15.489176,80.048139,6303445044,BESIDE RIMS HOSPITAL 37-1-410/A RAM NAGAR 3RD LANE TRUNK ROAD ONG PRAKASAM DISTRICT
ANURAG ENTERPRISES,13.05262889,74.79674556,9343274793,INDIANOIL DEALER HALEYANGADI MANGALORE TALUK DAKSHINA KANNADA DISTRICT
ANURAG PETROLEUM,28.717334,77.462471,9810318665,DHARGAL BETWEEN KM STONE 20-24 GHAZIABAD
ANUSHREE PETROLEUMS,15.814641,74.491113,9008962621,UDYAMBAG INDIANOIL DEALERS KHANAPUR ROAD NH4A
ARIHANT PETROLEUM,18.815686,75.15654,9423471495,INDIANOIL DEALERS MAIN ROAD ASHTITALUKA ASHTI DISTRICT BEED
ARIHANT SERVICE CENTRE,28.683255,77.509706,9313116481,DASNA NH-24 ADHYATMIK NAGAR GHAZIABAD
ARUNA AGENCIES,16.177892,80.33029,9.19014E+11,PRATHIPADU V &M lock T1-313/4 DNO:116 ANDHRA PRADESH
ASHISH FUEL & LUBE,25.82654,86.848183,9431440375,JIRWA(PASTPAR) NH 106 MADHEPURA-GWALPARA ROAD DIST.SAHARSA
ASHOKA GAYATRI FUEL STATION,26.11725,85.256417,9999026955,MAUZA - MARWAN BHOJ PS - KARJA Dist. Muzaffarpur
ASHUTOSH PETROLEUM,26.038172,85.345749,9801169228,PO+PS. TURKI NH-77 MUZAFFARPUR BIHAR DIST MUZAFFARPUR
ASHWINI PETROLEUM A-SITE,21.7425,72.0693,8128921919,SH 25 Village VARTEJ Indian Oil Dealer VARTEJ District Bhavnagar
ASR HI-TECH FUEL,11.462413,77.847681,9842714447,INDIAN OIL DEALER SF.NO.13/2B3 SANKARI TALUK
ASSOCIATED TRADING CO,28.652585,77.155946,9999999090,PATEL NAGAR OPP.SHADIPUR DEPOT NEW DELHI NEW DELHI
AUTO CARE CENTRE,25.606622,85.070943,9334596414,RUKANPURA (BAILEY ROAD) PATNA-14 PATNA BIHAR
AUTO YARD,28.53755,77.28466667,9811043394,8/1 MILE STONE ( LOCK 91) MATHURA ROAD DELHI
AUTOFUEL,28.68852,77.112965,9811156457,ROAD NO.43 GURU HARKISHAN MARG NEAR SARASWATI VIHAR TELEPHONE EXCH PITAMPURA DELHI-34
AZHAN FILLING STATION,29.043419,78.827934,9917342410,INDIAN OIL RETAIL OUTLET VILL: JALALPUR KHALSA TEHSIL: THAKURDWARA
BABA PETROLEUM,25.7182253,85.1382923,6205274871,BAKARPUR (SONEPUR) DIST.SARAN Saran
BABA SAI FUEL STATION,20.232296,85.742218,9439978950,AT- TAMANDO DIST- KHURDA STATE- ODISHA
BADUS PETRO,28.54315,77.066567,9312272457,VILLAGE BHARTHAL F-28 PUSHPANJALI DWARKA LINK ROAD NEW DELHI.
BALU MANIYAKAR FUELS,10.989196,76.999901,9.19932E+11,627/2A UPPILIPALAYAM VILLAGE NANJUNDAPURAM ROAD CBE SOUTH TK
BANSAL SERVICE STATION,27.1962667,77.523425,9414225743,JATOLI GHANA VILLAGE JATOLI GHANA DISTT. BHARATPUR RAJASTHAN
BEE GEE MOTORS,28.836615,77.097169,9818443807,DSIDC Complex NARELADELHI-40 TEL.5693307 DELHI
BEENA AUTOMOBILES,25.4524911,81.8409187,9415216823,ELGIN ROAD CIVIL LINESELGIN ROAD ALLAHABAD
BETTEGOWDA SERVICE STATION,13.2152,77.553,6363383591,INDIAN OIL DEALERS SY.NO.91KADATHANAMALE VILLAGE HESSARGHATTA HOBLI BANGALORE
BHACKYA SINGAR PETROLEUMS,8.270859,77.283304,9486011844,SY.NO.551/3 KALLUVILAI MULAGUMOODU KANNIYAKUMARI DIST.
BHADAURIA FILLING STATION,24.4634,77.1698,9811943670,(EARLIER MUNDI ENTERPRISES) A B ROAD KHERIA DISTT. GUNA LOCK NO. 1173/219
BHAGWAN FILLING STATION,27.231339,78.167616,9219610576,NH-2 AGRA FIROZABAD ROAD ETMADPUR AGRA AGRA
BHAGWATI FILLING STATION,27.183497,77.988943,9412255100,GAJANAN NAGAR LOHAMANDI AGRA SHAHGANJ LOHAMANDI ROAD
BHARAT SERVICE STATION,28.854299,77.124594,9312832339,SINGHU BORDER G.T. KARNAL ROAD DELHI-110040 DELHI
BHARAT TRADERS JHANSI,25.450516,78.599828,9415030048,KANPUR ROAD JHANSI DISTT. JHANSI LOCK NO 12018
BHASKARA AGENCIES,16.997034,81.800637,9848228320,INDIAN OIL DEALERSMORAMPUDI lock no.22012/ 544 & 11027 / 256 ANDHRA PRADESH
BHOLA RAY SHANTI DEVI & SONS,25.7277786,85.83488501,7635088951,(INDIAN OIL RETAIL OUTLET) VILL.-MAHISARI PS-Ujiyarpur
BHUMIKA FILLING STATION,26.249396,78.16309,9425115488,KHASRA NO. 558559560/MIN1560/MIN VILL MANPUR Tehsil Gwalior Distt Gwalior
BHUSHAN PETROLEUM SERVICES,18.727541,75.698091,9860019400,INDIAN OIL DEALER SURVEY NO 132NH 211 Dhotra Chausala Taluka Beed
BINDESHWAR OIL CENTRE,26.16101602,85.42561423,9709423761,INDIANOIL RETAIL OUTLET BAKHRI CROSSING MUZAFFARPUR
BISMEE AGENCIES,11.317476,76.922257,9.19844E+11,Indian Oil DealerNo.2K.U.R. Nagar IInd Bridge Ooty Main Road Mettupalayam
BOKARO AUTOMOBILES ( * ),23.62342099,86.18420146,9431127475,JODIDIH MORE CHAS PURULIA ROAD DIST.BOKARO.
BON BON SERVICE CENTRE,19.104917,72.8864,9821165625,SAKINAKA ANDHERI (EAST) MUMBAI.
BRASS CITY INDIANOIL,28.886767,78.734411,9045191119,KANTH ROAD MORADABAD CITY MORADABAD
BUDDHESHWAR FILLING STATION,26.837517,80.844369,9335281700,NEAR RING CROSSING MOHAN ROAD LUCKNOW
BULLEYYA REDDY'S FILLING STATION,16.958649,82.008733,9581871199,INDIAN OIL DEALERS BALABHADRAPURAM lock 11011 / 37 ANDHRA PRADESH
CAPT AMIT SERVICE STATION,28.62257,77.110507,9310166066,HARI NAGAR Ghantaghar Road DELHI
CAR CARE,28.57078333,77.16345,9.19212E+11,SECTOR 8 R.K. PURAM NEW DELHI-22 R.K. PURAM New Delhi
CENTRAL AUTO FILLING STN,20.7801,73.3563,9426801455,INDIANOIL DEALER AT HANUMANBARI TAL HQ.BANSDA NH56 DIST-NAVSARI GUJARAT
CH. KESHRAM SHYAMO AUTO FUELS,28.528689,77.456519,9810232544,INDIAN OIL PETROL PUMP HABIBPUR TEHSIL DADRI
CH. RAMCHANDRA SINGH BHATI & SONS,28.543677,77.563518,9971596889,IBP PETROL PUMP GAUTAM BUDH NAGAR
CHAMPIAN HUB,22.57763872,88.46206695,8820818377,PLOT NO.CF-19 PREMISES NO.05-240 AA-I New Town Kolkata
CHAMUNDI PETROLEUM,19.215787,72.851158,9821140807,SWAMI VIVEKANAND ROAD OPP.POISAR BUS DEPOT BORIVALI MUMBAI 400 092
CHANAKYAPURI SERVICE STATION,28.666963,77.09199,9899123771,OUTER RING ROAD ROAD NO.26 PACHIM VIHAR DELHI
CHANDAN TRANSPORT CO.,25.2676,74.63,9414372375,GHATILA KA KHEDA NH-48 BHILWARA BY PASS DISTT: BHILWARA ( RAJASTHAN)
CHANDRA PRAKASH & SONS,28.353783,77.556587,9719062622,IBP PETROL PUMP NOIDA GAUTAM BHUD NAGAR
CHAUDHARY SERVICE STATION,28.730016,77.183393,9911150814,DHEERPUR NEAR MUKUDPUR CHOWK NORTH OF RING ROAD
CHENNIMALAIAPPAN & CO,10.744626,77.023062,9578809081,PROP:K.R.PONNARASI IOC DEALERS SF.NO.265/2A1BMETTUPALAYAM VI KOVILPALAYAMKINATHUKADAVU TK
CHETAK FUEL CENTRE,28.631752,77.661633,9313333038,INDIAN OIL PETROL PUMP VILLAGE- DHAULANA MASURI- GULAOTHI ROAD
CITI FUELS,28.622736,77.095593,9811044233,JANAKPURI OPP.-VIRENDER NAGAR NEAR BHARATI COLLEGE NEW DELHI
CITY AUTO,28.71625,77.117604,9810218885,PLOT NO. 1-A-3 DISTT CENTRE-I SECTOR-10 ROHINI DELHI - 110085
CITY FUELS,25.57296026,85.23794754,7367026601,NEW BYPASS ROAD KARMALICHAK MAUZA- SIMLIMURARPUR NH 30 Patna
JANATHA FILLING STN (C'PET),16.101259,80.169035,9440264771,CHILAKALURIPET lock T2- 231/2 DNO:189 ANDHRA PRADESH
COCO GOMTINAGAR,26.866389,80.996389,7088204332,VIBHUTI KHAND GOMTI NAGAR LUCKNOW
GVK Fuel Station,17.636652,82.89715,8857242701,285/1 285/2 285/5 UGGINIPALEM (V KASIMKOTA (M) TALLAPALEM 531048 ANDHRA PRADESH
COCO NEW TOWN - PUJA KUMARI,22.5552255,88.5008211,7739161398,COCO NEW TOWN - PUJA KUMARI Plot AAIIIC/1 Street no. 3333 Action Area III New Town Dist.N.2
COCO-II,28.6076507,77.441432,9810447700,PLOT NO. PP-01SECTOR-16B GREATER NOIDA(WEST) GAUTAM BUDH NAGAR
COCO-III,28.466044,77.5334885,9560237222,PLOT NO. PP-01SECTOR-PI GREATER NOIDA GAUTAM BUDH NAGAR
COSMOS INC.,26.366795,79.867821,8756992214,KUMBHILOCK NO 21008/21023 ON NH-2 KANPUR DEHAT ON NH-2 KANPUR DEHAT
D S HIGHWAY SERVICE,26.261925,87.26949,9334293678,INDIAN OIL RETAIL OUTLET DHOLBAJJA ARARIA
DADA FUEL CENTRE MUDIAKHERA,26.5151,78.026,9827541017,SURVEY NOS. 630 641 PH NO.45 AT VILL.MUDIAKHERA Distt. Morena LOCK NO. 1095/219
DAMODAR FUEL SERVICE STATION,23.770859,85.92762,9771408871,JARIDIH P.S. GHANDINAGAR (BERMO) DISTT BOKARO JHARKAND
DAMODAR SERVICE STATION,26.121762,85.36273,9431238702,MARIPUR MUZAFFARPUR BIHAR MUZAFFARPUR
DAS & SONS,26.527411,80.234928,9336107533,NARAMAU LOCK NO 23016 KANPUR NAGAR NH 34
DAUJI SERVICE STATION,28.678657,77.485326,9958033002,VILL HARSAON PARGANA DASNA GHAZIABAD
DEEPKIRAN PETROLEUM,19.692903,73.545486,8600620085,GAT NO.383 AT. TALEGAON IGATPURI DISTT. NASIK
DELHI DIESELS,28.702695,77.266047,9212582106,B-3 yamuna vihar main wazirabad ro Delhi DELHI-110053
RAVI HIGHWAY CENTRE,17.803185,83.140608,9866106925,INDIAN OIL DEALERS -LOCK NO.T1 28 ADIREDDYPALEM ANDHRA PRADESH
DEV FUEL CENTRE,28.714,77.6805,9927062255,INDIAN OIL RETAIL OUTLET VILLAGE DOOHRI PILKHUWA TESHIL HAPU UTTAR PRADESH
DEVANG PETROLEUM,22.4458,70.1183,9909100097,KALAWAD-JAMNAGAR HIGHWAY ROAD Indian Oil Dealer THEBA JAMNAGAR
DEVENDRA MEMORIAL PETROLEUM,25.77701,84.77951,9470062126,ROUZA CHAPPRA SARAN
DHANSUKHLAL C.SHAH,21.2579,73.3102,9925155000,At & Post Mandvi Mandvi MANDVI DIST.SURAT
DOABA AUTOMOBILES,25.450433,81.726179,9450581348,BAMRAULI KANPUR ROADBAMRAULLI DISTT.:ALLAHABAD
DOLLY FUEL CENTRE,26.05423494,87.48816358,9470238484,INDIAN OIL RETAIL OUTLET AZAMNAGAR ARARIA
DRIVEWELL SERVICE STATION,28.676517,77.31425,9811027361,G.T ROAD SHAHDARA DELHI-95
DRONA FILLING STATION,28.394109,77.860945,8958961111,IOC PETROL PUMP SHIKARPUR BYE PASS ROAD BULANDSHAHR
DRONAGIRI SERVICE CENTRE,18.892375,72.975831,9819211502,DRONAGIRI NOD URAN DIST. RAIGAD
DUBEY AND SONS FILLING STATION,24.4014,77.4062,9425759024,INDIAN OIL DEALER ARONGUNA ROAD DISTT. GUNA LOCK NO. 1240/219
DUDHANE PETROLEUM,18.468675,73.785349,9764210100,GAT NO 93 VILLAGE SHIVANE TALUKA HAVELI DIST PUNE
DURGA FILLING STAION,16.343069,80.627474,9.19442E+11,DUGGIRALA lock T1-327/8 DNO:122 ANDHRA PRADESH
DURGA FILLING STATION,28.103608,77.456741,9212040903,CHANDHUT ON PALWAL-ALIGARH ROAD CHANDHUT ON PALWAL-ALIGARH ROAD DISTT PALWAL
KDLOMACS (NDMNR),16.51661,80.641551,8106352502,INDIAN OIL DELEARS NIDAMANUR lock T1-50/1/2/3/4 D.NO:18 ANDHRA PRADESH
EHSAAS FILLING STATION,28.960171,77.1019,9910401222,VILLAGE-BAHALGARH ON KHEWRA ROAD SONEPAT
ELVEE AUTO ENTERPRISES,10.998311,77.021037,9.19895E+11,S F NO 414/2 SINGANALLUR TRICHY COIMBATORE COMBATORE 641 005
ENGINEER SERVICE STATION,28.586921,77.212117,9654262692,NEAR SAFDARJUNG AIRPORT AURBINDO MARG NEW DELHI
ESS ESS FILLING STATION,31.06492,76.270817,9041435435,INDIAN OIL PETROL PUMP BALACHAUR TO NAWANSHEHAR ROAD TEHSIL - BALACHAUR
SRI GANAPATHY AGENCY,17.687486,83.255574,9866377272,INDIAN OIL DEALERS- LOCK NO.T1 31 MALKAPURAM VIZAG CITY ANDHRA PRADESH
F PATEL & CO.,22.2465,73.0838,9824010955,IOC DEALER PADRA DISTT. BARODA
FALCON INFRASTRUCTURES LTD.,10.06838,76.32124,9496016555,INDIAN OIL DEALER KALAMASSERY TRUCK TERMINAL ERNAKULAM DIST.
FARIDABAD SERVICE STATION,28.389194,77.312431,9899912291,18/4 Mathura Road Faridabad 18/4 Mathura Road Faridabad DISTT FARIDABAD
FIRST CHOICE(IOCL PETROL PUMP),22.7055,72.8593,9898851111,CITY SURVEY NO 1245 NUTAN TILE NADIAD -KAPDWANJ ROAD NADIAD DIST. KHEDA
FORT MOTOR EQUIPMENT CO,19.160061,72.858471,022-22661814,INDIAN OIL DEALERS SURVEY NO: 589(A) VILLAGE PAHADI GOREGAON(W)
FORTUNE SERVICE STATION - ROHINI,28.727378,77.142789,9811314040,SEC 19 ROHINI NEW DELHI. LOCK CODE - I - 374
FRIENDS FILLING STATION,28.207694,76.880465,9813440928,OCTROI CHECK POST BARSAT ROAD PANIPAT DISTT - PANIPAT
RAVI RAYS [STEEL PLANT],17.660633,83.167729,9248045678,INDIAN OIL DEALERS-LOCK NO.T1 22 VIZAG ANDHRA PRADESH
G.M.R.FILLING STATION,17.314849,78.459056,9.19391E+11,SY. NO.83 MYLARDEVPALLY VILLAGE RAJENDRANAGAR MANDAL RR DIST. TELANGANA
G.S.R.FILLING STATION,16.797456,81.595662,9441554665,INDIAN OIL DEALERS ALAMPURAM LOCK NO. 22031 / 544 ANDHRA PRADESH
GANAPATI SERVICE(*),24.36302719,85.30570066,9608170230,GANPATI SERVICES CHAUPARN NH-02 HAZARIBAGH
GANDEVI TALUKA K.S.SANGH LTD,20.8182,72.996,9879758003,IOC DEALERS GANDEVI GANDEVI DIST. NAVSARI
GANGA FUEL STATION,25.221557,85.163585,9631908074,MAUJA- BARKI AKAUNA PS- GHOSI Jehanabad
GANGA PETRO,28.57917,77.055404,9810440007,SECTOR 10 DWARKA NEW DELHI DELHI
GARIB NAWAZ KISAN SEWA KENDRA,28.709607,78.70238,9639684546,NASEERPUR KUNDARKI DINGARPUR SAMBHAL ROAD TEHSIL BILARI
GARUDA AUTO SERVICE,19.205426,72.828019,9820046930,IOC DEALERS CHARKOP KANDIVALI (W) MUMBAI 400 067.
GAURAV PRATAP SINGH PETROLEUM,23.327508,76.173097,8719922445,VILLAGE - ROJAWAS SURVEY NO.182/2 PH NO. 78 TEHSIL - TARANA DIST-UJJAIN
GAY SERVICE STATION,28.703433,77.181085,9810154076,GT KARNAL ROAD INDL.AREA AZADPURDELHI TELE.7139349 Opp. Hans Cinema
GAYATHRI FUELS,12.708649,77.81688,9443222224,Indian Oil Dealers 714/3A Rudrappa Colony. Hosur-Denkanikottai Road NO:13018
PALURI VENKATARAMANA,17.358621,82.540871,9848190362,INDIAN OIL DEALERS VELAMKOTHURU ANDHRA PRADESH
GHAGHRA SERVICE STATION,25.810394,84.609711,8651412628,INDIAN OIL PETROL PUMP PO MANJHI-841313 DIST SARAN BIHAR
GHANSHYAM & CO.-A-SITE,22.0123,71.146,9979875757,Vill Atkot SH 25 Indian Oil Dealer District Rajkot
GIRDHARILAL RAMSARUP,28.267987,76.140848,9416063648,NARNAUAL ROAD MAHENDERGARH MAHENDERGARH
GLOBAL PETRO,28.570168,77.186387,9810930007,BHIKAJI CAMA PLACE RING ROAD NEW DELHI
GNAN SHAURYA FILLING STATION,16.239856,80.600044,9.19001E+11,D.NO.229/2A1 MAIN ROAD ANGALAKUDURU VILLAGE & TENALI MANDA GUNTUR DISTRICT
GOLDER SERVICE STATION,22.676529,88.790611,8250532691,MATIAHAT MOUZA - JOYPUR GOPEMAHAL Dist. 24 Paraganas(North)
GOMATI FILLING CENTRE,25.70970377,85.49070807,9431667883,ASHARFI CHOWK SILAUTHAR JANDAHA VAISHALI BIHAR
GOPINATH & BROTHERS(CHAKARPUR),26.436716,80.179337,9415201657,INDIAN OIL PETROL PUMP KANPUR NAGAR LOCK NO 13027/23011
GOPINATH & BROTHERS(KANPUR),26.421339,80.374199,9161091610,KRISHNA NAGAR GT ROAD LK NO 23004 NH-91 KANPUR NAGAR KANPUR NAGAR
GOREGAON AUTO CENTRE,19.156906,72.856613,9821087119,IOC DEALERS GOREGAON MUMBAI.
GSN FUELS,12.747125,77.83356,9443141688,GSN FUELS KRISHNAGIRI DISTRICT NGO COLONY BAGALUR ROAD HOSUR
GUJARAT SERVICE CENTRE,18.985243,72.830836,9322505410,IOC DEALERSNEXT TO KASTURBA HOSP. ARTHUR ROADSANE GURUJI MARG MUMBAI 400 011.
GUPTA SALUJA & COMPANY,26.40617,80.354442,9.19415E+11,KM-15NH-2 BY PASS KANPUR NAGAR DISTT. KANPUR NAGAR LOCK NO 12056
GUPTA SALUJA & COMPANY(KANPUR),26.441509,80.322759,9415127108,INDIAN OIL DEALER LOCK NO 12055 127/435 RAKHI MANDI VINOBA NAGAR NEAR BARA DEVI KANPUR NAGAR
GUPTA SERVICE STATION-MOTI BAGH,28.57766667,77.1749,9.1991E+11,Moti Bagh South MOTI BAGH NEW PALAM ROAD lok no 329
GURGAON FUEL CENTRE,28.4648,77.037383,7838222319,BETWEEN MAHAVIR CHOWK & MAHARANA PR CHOWK ON MG ROAD GURGAON(LHS) District Gurgaon
GURJEET AUTO FUELS,26.2647,78.2172,9826086875,VILLAGE MAHARAJPURA RAMANNA DISTT. GWALIOR Gwalior
GURU GOBIND SINGH SERVICE STN,29.2362337,77.7236943,9761582200,KHASRA NO 142 VILLAGE BHAYANGI Block Khatauli
GURU SERVICE STATION,28.591123,77.037605,9811057170,SECTOR 12 DWARKA NEW DELHI NEW DELHI
GURUASHISH PETROLEUM,21.2708,72.8465,9879382228,INDIAN OIL DEALER SURVEY NO.978-979B. NO 926 Variav- Surat City
GURUPRASAD SERVICES,19.182011,72.846715,9833331777,S V ROAD MALAD EAST MUMBAI
SRI SIVARAMA AGENCIES,17.688787,83.027465,9.19247E+11,INDIAN OIL DEALERS -LOCK NO.T1 33 1627/3 Part ANAKAPALLI ANDHRA PRADESH
H.F. BHURANI & CO.A-SITE,21.354,72.0292,9825206611,NEAR PATHIKASHRAM Talaja Indian Oil Dealer District Bhavnagar
HANSIKAA SERVICE STATION,23.57791,86.35416,9.19163E+11,PLOT NO 1262 1346 VILL- CHANDANKYARI PO+PS Chandankyari
HANUMAN PETROLEUMS,17.68395585,83.19008374,9989881731,NH.5 CHINNAGANTYADA-LOCK NO.T1 78 GAJUWAKA ANDHRA PRADESH
HARI JANANI & CO,11.204316,76.966349,9.19843E+11,SF.No.379/B ESTATE THOTTAM METTUPALAYAM ROAD BILICH PO
HARI OM FUEL,23.71866481,85.49817416,9153219875,TOPA NAYA MORE TO TOPA BLOCK RAMGARH
HARIHAR SERVICES,25.456451,85.498753,7783863510,MAUZA-GHOSWARITALUKA-BAKHTIARPUR DIST-PATNA Bihar
HARSH INDIAN OIL,27.435902,77.700829,9639862631,AURANGABAD NEAR GOKUL BAIRAJ MATHURA
HAZARI LAL BAIDYANATH PRASAD,25.745,85.00119,9431259182,INDIAN OIL PETROL PUMP PO DIGHWARA-841207 DIST SARAN BIHAR
HEERA ASSOCIATES,19.174222,73.114645,9819335445,SURVEY NO. 158 HISSA NO. 1 KHONI TALUKA: KALYAN District Thane
HEERA PETROLEUM,18.8276,73.294377,9.19005E+11,s.no.54/2b mumbai pune road KHALAPUR RAIGAD(LOCK NO.11013)
HIGHWAY FUEL,30.262692,76.09977,9872982888,INDIAN OIL PETROL PUMP PO:BALAD KALANHARDITPURA Sangrur - Patiala Road
HIGHWAY INDIAN OIL FILLING STATION,27.520493,74.651812,9672206672,INDIAN OIL PETROL PUMP KHASRA NO. 281/278 SH-60 VILL. INDERPURA
HIGHWAY PETROLEUM,10.141196,76.352776,9447819745,INDIAN OIL DEALER NH-47 CHENGAMANAD ERNAKULAM DIST.
HIGHWAY PETROLEUM AGENCY,10.760971,75.927561,9061530009,INDIAN OIL DEALER PONNANI-CHAVAKKAD RDPUTHUPONNANI MALAPPURAM DIST.
HILL VIEW FILLING STATION,23.785408,86.401022,9304315588,GODHAR P.S.-KENDUADIH P.O.- KUSUNDA
HIRA SERVICE STATION,26.052881,85.35746,9430974303,SAKRI SARAIYA NH-77 DIST-.MUZAFFARPUR BIHAR
HRISHIKESH PETROLEUM,22.1313,71.8948,9825954221,BARWALA-BHAVAGAR ROAD BARWALA. AHMEDABAD
HUNDRED PERCENT,28.578699,77.059527,8826886999,SECTOR-9 OPP. NHAI OFFICE DWARKA NEW DELHI. LOCK NO 330
I CARPORT,19.102837,72.873855,9821054977,IOC DEALERS SAHAR MUMBAI.
INDERJEET SERVICE STATION,28.404791,79.424539,9917155002,IZZATNAGER BAREILLY DISTRICT : BAREILLY UTTAR PRADESH
INDIA FUELS,30.560448,77.061842,9417110271,VILLAGE DHANDRALO RAIPUR RANI DISTT. PANCHKULA HARYANA
INDIAN OIL HIGHWAY POINT,22.2589,70.7047,9909019900,VAJDI (VIRDA) Kalawad Road SH 23 Indian Oil Dealer District Rajkot
INDRA AUTOMOBILES,27.876553,78.075668,9872260043,ASHIANA COLONYNEAR POLICE STATION BANGLA BAZAR LUCKNOW
INDRAPRASTH AUTO SERVICE,19.815349,72.735787,9820069873,"""OPP.MSEB COLONYBOISAR TARAPUR"" VILL.PASTHAL TAL:PALGHAR DISTT. PALGHAR"
INDRAPURAM AUTO FUELS & SERVICES,28.632889,77.351129,9818580181,INDRAPURAM DISTRICT GHAZIABAD Indrapuram Ghaziabad
INDU FILLING STATION,26.172916,78.149518,9958188040,INDIAN OIL DEALER GUDI Tehsil Gwalior
INTERSTATE AUTOMOBILES,18.976545,72.843971,9820433060,123 REAY ROAD OPP.REAY RD STATION. P.D'MELLO RD MUMBAI 400 010.
IOC COCO JUNGPURA,28.587063,77.241387,9.19599E+11,JUNG PURA NEW DELHI LINK ROAD NEW DELHI
IOC COCO SECTOR 19 DWARKA,28.577338,77.053401,9.19812E+11,SECTOR 19 DWARKA DELHI
ISHWAR FILLING STATION,28.530438,77.454106,9990135373,OPP HOLLAND TRACTOR FACTORY GREATER NOIDA GAUTAM BUDH NAGAR
ISPATNAGAR PETROL SUPPLY,23.66386802,86.06756131,9431128233,BALIDIH BOKARO JHARKHAND
J B D FUEL & SERVICE,21.1096,73.1341,9427151298,"INDIAN OIL DEALER ""S. NO.1/PAIKI 1 BLK NO.1 TAJPORE KHURDTLK.BARDOLIDIST. SURAT"
J B PETROLEUM,22.3397,70.7993,9408919989,SURVEY NO. 67/1/2P-1/P-1 VILL-RONKI TAL-RAJKOT
J K & SONS PETROLEUM,22.8592,70.954,9998724445,INDIAN OIL DEALER NICHI MANDAL Morbi-Halvad Road Taluka MorbiDistt.Rajkot
J. J. AUTOMOBILES,10.010278,78.291161,9843312609,INDIANOIL DEALERS MADURAI TO MELUR LHS ON NH-45B MADURAI DISTRICT
J. J. EF. AGENCIES (LOCK NO. 80 ),8.82404,78.147964,9941496365,9/1-28 ANNAI VELANKANNI NAGAR AROCKIAPURAM TUTICORIN TUTICORIN DISTRICT
JAGAN PRASAD FILLING STATION,27.488482,77.54362,9411441100,MATHURA GOVERDHAN ROAD ARING DISTT. MATHURA
JAGDAMBA PETROLEUM,25.8774767,86.6189846,9431021446,INDIAN OIL PETROL PUMP BISHAMBHARPUR ALLOTH SARAIRANJAN MUSHRIGHARARI
JAGDAMBEY FILLING STN-299,31.336046,75.349179,9814028865,INDIAN OIL PETROL PUMP DODIANWALASULTANPUR ROAD DISTT. KAPURTHALA
JAI AMBE PETROLEUM,20.5113,72.9625,9825603847,"""SURVEY NO. 129/2/P VILL: BALD"" ""TALUKA: PARDI DIST: VALSAD"" Dist: Valsad"
JAI AUTOMOBILES,28.63673584,77.44326928,9810133850,NEAR VIJAYNAGAR CROSSING NH-24 GHAZIABAD UP
JAI BABA GARIBNATH FUEL CENTRE,26.257044,85.186795,9931623672,INDIAN OIL RETAIL OUTLET AT: RATANPURA PO+PS:MOTIPUR DIST: MUZAFFARPUR
JAI BANGLAMUKHI ECO FUEL STN.,28.688945,77.104278,9810858371,NO.43SERVICE CENTRE S-18 OF H4&H5 ZONE PITAMPURA
JAI HIND FUEL CENTRE,25.801058,87.576206,9708254888,SRI BIJOY KUMAR ROY BARSONI HULABAGH PURNEA
JAI MA AMBE PETROLEUM,25.748207,84.955269,9835010561,BODHACHAPRA SARAN BIHAR
JAI MAA PETROLEUM,25.872673,85.033501,9631614312,VILL.: SAIDPUR PARSA PO : PARSA PS : DARIYAPUR PIN 841219
JAI MATA DI PETRO MART,25.58594,84.73152,9334025820,NH30 KAYAMNAGAR ARA DISTT: BHOJPUR
JAI NARAYAN FILLING STATION,28.242024,77.074394,9812410419,SOHNA PALWAL ROAD SOHNA DIST. GURGAONHARYANA
JAI PETROLEUM,20.9329,72.9141,9824156968,IOC DEALER DANDI ROAD VIJALPORE TAL : VIJALPORE DIST :NAVSARI GUJARAT.
JAINSONS FILLING STATION,28.235882,77.069072,9215667015,SONEPAT NEAR SECTOR 14-15 CROSSING DISTT SONEPAT 131001
JAMUNA PAR FILLING STATION,27.519827,77.724395,9412281368,ANAND VIHAR DISTT. MATHURA U.P. ANAND VIHAR DISTT. MATHURA
ANNAPOORNA AGENCIES,17.741761,83.263995,9346331000,INDIAN OIL DEALERS- LOCK NO.T1 6 KAPPARADA MURALI NAGAR VIZAG CITY ANDHRA PRADESH
JANTA FUEL CENTER,23.59363,86.31212,9.18789E+11,PLOT NO 6165 VILL- CHANDRA PO+PS- Chandra
JAY BABRIK KISAN SEVA KENDRA,21.2128,72.9391,9427709142,INDIAN OIL DEALER SURVEY NO.62+80 BLOCK NO.79 Vill: Kosmada Tal: Kamrej
JAY SOMNATH PETROLEUM,22.3294,70.7684,9638215082,MADHAPAR RAJKOT JAMNAGAR SH -25 Indian Oil Dealer DIST RAJKOT
JAYANTI FILLING STATION,23.513712,91.556411,8877714077,MAHARANI UDAIPUR AMARPUR ROAD DIST-GOMATI TRIPURA
JAYESH PETRO SERVICES,18.760851,73.471296,9923222223,GAT NO. 490 NH4 MTDC RESORT KARLA TAL MAVAL DISTRICT PUNE
JHALAK KISHORI FILLING STATION,27.095916,78.075241,7351777789,LODHAI AGRA SHAMSABAD ROAD DISTT. AGRA
JINDAL SERVICE STATION,28.5623,77.2663,9810121271,MATHURA ROAD NEAR TELEPHONE EXCHANGE NEW DELHI.
JOAQUIM PETROLEUM,19.044839,72.916371,9821052147,SION TROMBAY ROAD OPP. TELECOM FACTORY DEONAR MUMBAI.
JRO,28.49642,77.4865981,9999940582,PLOT NO. 41 SURAJPUR KASNA ROAD UDYOG VIHAR OPP. MOSER BAER GREATER NOIDA
JSR FILLING STATION,28.192066,76.613205,708229451,REWARI CITY (WITHIN MUNICIPAL LIMITS) TEHSIL REWARI District Rewari
JUHI FUEL STATION,23.623245,85.437512,8084384212,INDIAN OIL RETAIL OUTLET VILLAGE : HEHAL Ramgarh - Patratu Road
JYOTI PETROLEUM,18.492411,73.83407,9960736119,PLOT NO 545/2 PARVATI SINHAGARH ROAD TALUKA HAVELI DIST PUNE
K B S MOTORS,28.49784,77.628434,9412859814,DELAER INDIAN OIL VILLAGE LUHARLI BETWEEN KM STONE 43-47 NH-91
K D PATEL & SONS,22.1284,73.4112,9426503939,IOC DEALER OPP. GOVT. REST HOUSE DABHOI DIST. BARODA (123)
K.G.N PETROLEUM SERVICE,26.073175,85.349335,9905643786,INDIANOIL KSK LADAURA MUZAFFARPUR
K.L.BHASIN & CO. ( * ),23.654247,86.133814,9308011937,NAYA MORE B.S.CITY BOKARO-827001 JHARKHAND
K.M.B. FUELS AND OILS,11.652495,78.131729,9843052252,INDIANOIL DEALER NO.449 NARASHIMMAN STREET SHEVAPET
K.R.FUEL SERVICE (LOCK NO.102),8.714488,77.779778,9443389533,INDIAN OIL DEALERS 30/1A2 VM CHATRAM PALAYAMKOTTA TIRUNELVELI DISTRICT
KAILASH FILLING STATION,17.367484,78.557522,9666643934,INDIAN OIL DELEARS SY. NO.102/3/B NAGOLE UPPAL (M) TELANGANA
KAILASH SERVICE STATION,28.55863333,77.24063333,9810007495,EAST OF KAILASH NEW DELHI-65 LOck NO 335 NEW DELHI-65
KAJALE & SONS (HSD),18.658625,73.849503,9822067927,NEAR OLD MOSHI OCTROI POST VILL MOSHIPUNE-NASHIK RD DIST PUNE
KALAMASSERY FILLING STATION,10.07004,76.330566,9747353184,INDIAN OIL DEALER MUTTOM KALAMASSERY ERNAKULAM DISTRICT
KALAWATI FILLING STATION,26.798986,81.009026,9415046485,AHIMA MAULUCKNOW-SULTANPUR ROAD LUCKNOW UP
KALPANA AGENCIES,11.042754,76.939369,9.19842E+11,S.F.NO.89/1 & 89/2 KAVUNDAMPALAYAM VILLAGE KAVUNDAMPALAYAM POST COIMBATORE
KALYAN FILLING STATION,29.694419,76.998351,9896050000,"KASHIPUR ""US NAGAR UTTARANCHAL"" uttarakhand"
KALYAN FILLING STN.-KOHAND (HSD),29.496566,76.971677,9416300008,INDIAN OIL RETAIL OUTLET NH1 G.T. Road DIST: KARNAL
KAMALA SERVICE STATION ODR,23.566603,87.284988,9333708879,AKBAR ROAD BENACHITY DURGAPURDIST:BARDDHAMAN. WB RTKM-38)LOCK NO.12016
KAMALNATH FUEL STATION,12.492564,78.282379,9944874593,SF.NO.133/2 SENDARAPALLI VILLAGE KRISHNAGIRI TALUK
KANPUR DELHI GOODS CARRIER LTD,28.701626,77.290256,9891238833,LONI BORER LOCK ID 805 LONI ROAD DELHI DELHI.
KANT AUTO,27.220945,78.260547,9027138623,BET KM STONE 223-225 NH-2 JAJPUR FIROZABAD
KANTH FILLING STATION,29.054822,78.622568,9756521561,IOC DEALER KANTH MORADABAD DISTRICT : MORADABAD UTTAR PRADESH
KAPIL DEV AUTOMOBILES,24.79678,85.53927,9.18825E+11,INDIAN OIL RETAIL OUTLET AT-MAKHAR ANCHAL- AKBARPUR DIST-NAWADA
KAPUR AUTO SERVICE STATION,28.62495,77.30533333,9212155886,EAST OF VINOD NAGAR lok no 336 PATPARGANJSOCIETY AREA DELHI- LOCK ID NO. I 336
KARAH DHAAM FILLING CENTER,26.4200671,78.0537884,9713043111,INDIAN OIL PETROL PUMP S.NO. 526/2823/2 BETWEEN MILESTONE 90 TO 92
KARGIL HERO HAJI BASHA MEMORIAL IND,15.471852,80.048689,9440242730,OIL PETROL BUNK SY.NO.131/1 NEAR SANGHAMITRA HOSPITAL ON NH PELLURU VILLAGE & MANDAL PRAKASAM D
KARGIL SHAHEED RIYASAT F/STN,29.264669,77.004192,9.19813E+11,DEALER INDIAN OIL CORPN LTD G T ROAD KARHANS PANIPAT
KARPAGA SHASTHAA FUELS,11.037098,76.950716,9.19443E+11,INDIAN OIL DEALER 139-B. SETC SITE SANGANOOR MTP ROAD COIMBATORE
KASANA MOTORS,28.436741,77.556577,9818945427,PLOT NO. P-01 SECTOR ECOTECH(I) EXTENSION GREATER NOIDA
KAVIE AGENCY,10.757567,79.81372,9.19865E+11,PORAVACHERRY NAGAI-THANJAVUR MAIN ROAD NAGAPATTINAM DISTRICT
KDCMPU LTD.,12.505128,78.223618,8105707110,INDIAN OIL DEALER S.F NOS 453/1B AND 453/2B AGASIPALLI VILLAGE
TIRUMALA AGENCIES,17.081022,82.12863,9246228666,INDIAN OIL DEALERS PEDDAPURAM BYE PASS ANDHRA PRADESH
KDLOW ACCO (CH.KAKANI),16.405855,80.553437,8106352503,CHINAKAKANI l lock T1-360/1/2/3 DNO:135 ANDHRA PRADESH
KESHAV MOTORS,28.398112,77.311482,9811663374,18/1 MATHURA ROAD FARIDABAD OPP. CROWN PLAZA DISTT FRIDABAD
KESHRI FILLING STATION,25.369315,82.924507,9792537908,NH-56SHIVPUR TARNA VARANASI (UP)
KHAJURI HIGHWAY SER.STN.,23.2426,77.2451,9.19426E+11,INDIAN OIL DEALER VILLAGE KHAJURI BHOPAL INDORE RD BHOPAL (RTD-FDZ)
KINNERA F/S,18.776645,79.517837,7331162626,INDIAN OIL DELEARS GODHAVARIKHANI LNO T3-273/C-3-4 ANDHRA PRADESH
KIRON PETROLEUM AGENCY (MELAGHAR),23.499449,91.339464,9436133836,P.O.- MELAGHAR WEST TRIPURA SIPAHIJALA
KIRTI PRIYA FUEL STATION,24.89631833,85.52884019,9431227228,NH - 31 VILL BUDHAUL NAWADA BYE PASS DISTT NAWADA
KISHOR BROTHERS SEWLA,27.126714,78.005363,9319108715,NH-3 SEWLA AGRA GWALIOR ROAD DISTT.AGRA
KISHORE & COMPANY,28.50128333,77.28888333,9811154298,LOCK ID NO.I338 IOC DEALERMB ROAD NEW DELHI
KRANTI FILLING STATION,28.409698,77.88456,9906033004,BULANDSHAHAR(WML) SIYANA ADDA-ANOOPSHAHAR ROAD ON RHS
KRISHNA PETROLEUM,21.1796,72.8334,9925151000,IOC DEALERS UDHNA SURAT UDHNA
KRISHNA SERVICE STATION,26.2372,78.1459,9826215410,TRANSPORT NAGAR GWALIOR S.LOCK-1177/219 TRANSPORT NAGAR
KRISHNA-AVDHUT PETROLEUM,19.788051,72.753357,9890679674,PLOT NO. X-1 TARAPUR INDUSTRIAL AREA TARAPUR BOISAR DIST. PALGHAR
KSS ENTERPRISES,11.56748974,77.90079449,9965594911,INDIAN OIL DEALER SANKARI MAIN RD KONGANAPURAM SALEM DIST. 637102
KULDEEP FILLING STATION,27.173827,74.839549,9414117109,DIDWANA ROAD KUCHAMAN CITY DIST. NAGAUR
KUMARAPPA ENTERPRISES,10.770879,79.843763,9965904404,I O C DEALER LOCK NO. 22017 HOSPITAL ROAD NAGAPATTINAM RTD 108 KM
Kunwar Petro World 584,31.229668,75.516884,9815108666,INDIAN OIL PETROL PUMP Jalandhar Nakodar Road (RHS) Vill. Singha
L. M. SAHA PETROLEUM AGENCY,23.678395,91.281951,9856348462,AOC AGENTS NH-44 BISHALGARHTRIPURA(W) TRIPURA
LAKSHMI AGENCIYES,11.765436,78.053238,9791458729,S.F.NO.82/3B 82/4D 93/1 NH 7 BANGALORE ROAD KAMALAPURAM VILLAGE
LAKSHMI FUELS,10.869384,76.886166,9.19894E+11,PARTNR:CD.SRINATH & G.MURALI SF.NO.568/2ETTIMADAIVILAGEPGT RD KG.CHAVADI PO COIMBATORE-641105
LAKSHYA INDIAN OIL STATION,27.2919817,77.530255,9983448800,INDIAN OIL PETROL PUMP MATHURA ROAD DHORMUI DISTT. BHARATPUR
LAXMI NATH INDIAN OIL FILLING STATI,28.008383,74.935209,9818032802,NH-11 SIKAR-BIKANER ROAD FATEHPUR DISTT. SIKAR
LAXMI SRINIVASA ENTERPRISES,18.101755,83.137273,8857242701,INDIAN OIL DEALERS S.NO.504/23 ANDHRA PRADESH
LILA SERVICE STATION (I-449),22.502616,88.331257,9433112460,62BURO SHIBTALA MAIN ROAD KOLKATA-700038 KOLKATA
LINGARAJ FILLING STATION,20.222876,85.844398,9437014451,NUAGAON CHOWK (BHUBANESWAR) KHURDA ORISSA
LIONSTARR,12.231502,78.194675,9865167011,INDAIN OIL DEALER SY. NO. 225/3ANH - 44 Baisuhalli (V)
LOTUS AUTOMOBILES,28.50426667,77.17168333,9910311899,ANDHERIA MOR MEHRAULI GURGAON ROAD ANDHERIA MEHRAULI N.DELHI
LUCKY AUTO,19.031519,72.860161,9820421550,292 KOMMRADE HARBANSLAL SION EAST KOLIWADA MARG MUMBAI
M R PETROLEUM-668,31.345043,75.50885,9815322226,IBP PETROL PUMP WARYANA KAPURTHALA ROAD DISTT. JALANDHAR
M.A.MOOPAN AND BROTHERS,10.091487,76.345389,9447498230,INDIAN OIL DEALER N.H-47 ALWAYE ERNAKULAM DISTRICT
M.M. AGENCIES,12.649813,78.035268,9566901354,INDIAN OIL DEALERS NH-7 GOLLAPALLI VILLAGE SOOLAGIRI KRISHNAGIRI DISTRICT
M/S SHRI SAI SERVO CARE,19.30219,77.26578,9890062630,GUT NO 19 VILLAGE MALEGAON TALUKA ARDHAPUR Distrcit Nanded
M/S VARDHMAN PETROLEUM,28.715619,77.461485,8010567272,DEALER- INDIAN OIL CORPN DELHI- MEERUT ROAD VILLAGE MORTA
M/S YYC PETROLEUM,25.78649543,85.03523976,9576639739,MAUZA SHEETALPUR THANA DIGHWARA Thana no 01
MA JANAKI TRANSPORT SERVICE,25.884357,85.289432,9525413510,"AT: ASADAPUR SATPURA ""PO: BHAGAWANPUR VAISHALI"" DISTT-VAISHALI"
MAA AHILYA PETROLEUM,25.871905,84.754686,9199032392,INDIAN OIL PETROL PUMP AT:AFFAUR P.S:KHAIRA
MAA ARANYA DEVI SERVICE STN,25.56084,84.63835,9431847455,CHANDWA ARRAH NH-30 BIHAR
MAA BHAWANI FUELS,25.929745,85.766853,9934051025,BIRSINGHPUR DIST. SAMASTIPUR BIHAR
MAA CHANDESHWARI DEVI SERVICE STN,25.53140129,84.6190151,9407016829,ARA- JAGSISHPUR ROAD NH30 MALTHAR
MAA KRUPA PETROLEUM,22.4047,72.9054,9409402424,INDIAN OIL DEALER SURVEY NO.2615 VILL: KUKERI Tal: Chikhli Dist: Navsari
MAA MUNDESHWARI SERVICES,25.22302729,83.48865898,8969696006,VILLAGE:KHAMIDAURA NH-2 PS: DURGAWATI DIST: KAIMUR 821105
MAA PETROLEUM,25.847561,84.642014,8877714077,KOPA NH-85 SARAN BIHAR
MAA VINDHYAVASINI FUELS,23.73828,86.0456,9.1957E+11,PLOT NO 88 KHATA NO 04 MOUZA- TANTRI PS- Jarisih
MADHAV FUELS,28.608684,76.953295,9917091626,DHANSA ROAD MITRAON NEW DELHI NEW DELHI
MADURAI MEENAKSHI AGENCIES(LOCK NO.,10.002606,77.632076,95242 40666,MADURAI ROAD
MAGNUM FILLING STATION,29.197,78.8922,9412143382,MAORADBAD ROAD KASHIPUR DIST U S NAGAR KASHIPUR
MAHADEVI PETROL DEPOT,18.758936,73.828704,9822064488,Survey No.251/1(part) SH No.55 KharabwadiChakan TAL KHED DIST-PUNE
MAHANAM OIL CITY (R BAZAR),23.830909,91.373172,9436128815,NH-44RANIRBAZAR TRIPURA WEST RANIRBAZAAR
MAHAVIR SERVICE STATION,25.24202084,85.00028508,9973145414,DEALER INDIAN OIL CORPORATION LTD VILL- LODHIPUR TOLA- MUTHER NH-83 (Between KM Stone 41-43)
MAHENDRA,28.6618,77.30036667,9899940004,CBD SHAHDARA NEAR SURAJMAL PARK CBD SHANDRA NEAR SURAJ MALL PARK DELHI.
MAHENDRA AUTO SERVICE(*),26.090499,85.391979,9431238447,N.H.28 KACHI PAKI CHOWK MUZAFFARPUR BIHAR
MALIK LAL CHAND & SONS,29.376517,76.974723,9896429299,PANIPAT G.T. ROAD NH-1 DISTT. PANIPATHARYANA
MALIK PETROLEUM,26.45516,80.276688,9335444449,51-A/1&2 DADAN NAGAR KANPUR LK NO 21048/22030/21001DIST: KANPUR dada nagar
MALSI FILLING STATION,30.3857,78.0741,9719055111,MALSI DEHRADUN-MUSSORIE ROAD MUSSORIE ROAD
MANGAI FUELS,11.70794,77.984156,9443256560,INDIANOIL DEALER SY.NO.31/12B3 SIKKAMPATTI VILLAGE
MANGAL PETRO,28.688727,77.104723,9212728729,SITE NO. 2 SERVICE CENTRE ROAD S-18 ROAD NO. 43 PITAMPURA NEW DELHI
MANOJ SERVICE STATION,25.2251,84.990944,9334029589,NH 83 JEHANABAD-804408 DIST GAYA BIHAR
MANORANJAN SALES & SERVICES,21.5721,71.8433,9427753707,MALPARA Palitana Road Indian Oil Dealer District Bhavnagar
MANSAA,28.659632,77.296829,9810212101,PLOT NO 25A lok no 340 CBD SHAHADRA DELHI PH.2438318
MARAN FUEL POINT,23.1648,77.4144,9926673057,INDIAN OIL DEALER VILLAGE NAYAPURA Tehsil Huzur
MARUDHAR FILLING STATION,27.610919,74.792832,9982066905,INDIAN OIL PETROL PUMP VILLAGE KUMASJAGIR State Highway 20
MARUTI KISAN SEVA KENDRA,22.6897,73.5568,9979210001,INDIAN OIL DEALER SURVEY NO.606606 P1 & 604 P1 Vill: Vejalpur Tal: Kalol
MAULI PETROLEUM KSK,18.613064,73.941317,9763414444,VILL - LOHEGAON LOHEGAON-VADGAON SHINDE ROAD TALUKA - HAVELI DISTT PUNE
VEERANJANEYA ROADWAYS,17.447805,82.757155,9849128666,GOKULAPADU (V) LOCK NO.T1 210 THIMMAPUR S.RAYAVARAM MANDAL ANDHRA PRADESH
MEHTA BROTHERS RAJKOT A SITE,22.2854,70.801,9228069757,DHEBAR ROAD RAJKOT Indian Oil Dealer District Rajkot
METRO FILLING STATION,27.117766,78.127375,9719040055,VILLAGE NAGLA GARHE ON SH-62 AGRA-FATEHABAD ROAD DISTT. AGRA
METTUR TALUK LORRY OWNERS ASSOC,11.746061,77.785233,9448659868,S.NO.118/5-A NAVAPATTI VILLAGE METTUR TALUK SALEM DIST.636401
MISHRA MODERN FILLING STN.,25.331623,81.906105,9415634720,INDIAN OIL DEALERNH-76E NAINI IND AREASAMOGAR DISTT : ALLAHABAD
MISHRA SERVICE STATION ( * ),23.713311,86.198827,9431736153,TELMUCHOO BRIDGE N.H - 32 PUPUNKI (CHAS) BOKARO-827013
MITTAL AGENCIES,26.3561,77.8262,9893160780,JOURA MORENA S.LOCK-1170/219 Morena
MKR HIGHWAY FILLING STATION,28.841044,77.263999,9319854166,INDIAN OIL DEALER VILLAGE- KHEKHRA DELHI- SAHARANPUR ROAD
MM FILLING STATION,28.952192,77.094599,9416778888,INDIAN OIL PETROL PUMP VILL: ASAWARPUR ON NH-1 DIST: SONEPAT
MOHAN FILLING STATION KSK,28.292283,77.419811,9718450506/99991,VILLAGE ATELI OML BLOCK BALLABHGARH District Faridabad
MOHINDERA FUEL JUNCTION,29.88985,76.917805,9991027617,VILLAGE & POST OFFICE SAMANA BAHU KARNAL
MOTOR ADES,28.639385,77.173933,8800798989,DR K.S KRISHNAN ROAD NEAR NPL PUSA INSTITUTE PUSA ROAD NEW DELHI
MOTOR CENTRE,28.702972,77.192553,9810054387,MALL ROAD OPP ALPANACINEMA MALL ROAD DELHI DELHI.
MUNEER PETROLEUM,16.230502,80.509817,8985298243,INDIAN OIL PETROL PUMP 4-124 GUNTUR PONNUR ROAD NARAKODURU VIL GUNTUR DISTRICT
MUSAFIR OIL CENTRE,26.182655,85.397789,9837322910,"""PS.AHIYAPUR NH-77 UMANAGAR"" MUZAFFARPUR"
MUSSADI LAL RAM KUMAR,28.774827,78.087846,9837727415,GAJROLA ROAD GARHHMUKTESHWAR DISTT.PANCHSHEEL NAGAR
N. G. SAHA,23.802019,91.272901,9436503298,NH-44 BADHARGHAT TRIPURA (WEST) BADARGHAT
N.L.GANDHI - PALSE (HSD) IOC,19.92531,73.878171,9324064170,N.L.GANDHI & CO AT & POST PALSE DISTT.NASHIK NH-60
SRI VIVEKANANDA AGENCIES,16.994254,82.242841,9440177755,S.NO.80/2 SARPAVARAM JUNCTION KAKINADA EAST GODAVARI DIST ANDHRA PRADESH
NAKODA FILLING STATION (NIMBAHERA),24.639165,74.676226,9414419936,IOC DEALER NIMBAHERA CITY ROAD PO KAILASH NAGAR TEHSIL- NIMBHAREA DISTT- CHITTORGARH (RAJ.)
NAMAN ENTERPRISES,28.786206,77.040606,9810499933,KH. NO: 178/14 SAMAYPUR BADLI TO BAWANA ROAD VIA POOTHKHURD
NANDANI FUEL CENTRE,25.84353415,87.53382446,9852125421,INDIAN OIL RETAIL OUTLET KASBA TOWN SH-60 PURNEA
NARAYAN FUEL STATION,19.032544,72.87774,9969198930,SURVEY NO.8PHASE I 120 FT ROADD P ROAD WADALA TT MUMBAI.
NATIONAL AUTO SERVICE,25.685952,85.2312404,9844026247,MG SETU ROAD HAJIPUR PO HAJIPUR DIST VAISHALI-844101 BIHAR
NATIONAL SERVICE STATIONHOSUR,12.748159,77.807951,9443377750,INDIAN OIL DEALERS BANGALORE ROAD SIPCOT HOSUR. LOCK NOS 1101222008
NATRAJ PETROLEUM,22.2797,70.8109,7359572808,KOTHARIA MAIN ROAD NEAR SORATHIAWADI CIRCLE RAJKOT CITY GUJARAT
NCR FILLING STATION,28.699083,77.6025,7533905884,INDIANOIL DEALER VILLAGE LAKHAN BETWEEN KM STONE 36 & 38 NH-24
NEELAM PETROLEUM,23.3455,73.0766,7096588930,INDIAN OIL DEALER CITY SURVEY NO. 4574TPS NO.3 FP NO. 144 KATARGAM
NEEV PETROLEUM,19.739367,74.118389,9320103758,INDIAN OIL DEALERS S.NO.452(P) VILL:DODI(BUDRUK) Tal: Sinnar Dist: Nashik
NETHRAVATHI SERVICE STATION,12.867579,74.918179,8971561639,INDIAN OIL DEALERS NH 75 ADYAR KANNUR DAKSHINA KANNADA DISTRICT
NEW AGRA SERVICE STATION,27.2111815,78.0030202,9760048161,NEAR TULSI CINEMA AGRA AGRA - 282 002 (U.P.)
NEW ROYAL AGENCY,8.979991,77.247177,9489561489,SHENCOTTAH NH-208 KOLLAM ROAD THIRUNELVELI DISTRICT
NGP ESTATE MOTORS AGENCIES,11.063326,77.036758,9.19944E+11,Indian Oil Dealers S.F.No.287/3-A Kalapatti Road Kalapatti Coimbatore
NIRAJ AUTO,20.6546,73.1687,9825097290,INDIAN OIL DEALER IOC DEALER PANIKHADAK LOCK NO. 12005
NIRMAN PETROLEUM,22.4635,73.442,9824167585,IOC DEALER BASKA TALUKA HALOL DISTRICT: PANCHMAHALS
SREE DEVI PRASAD SERVICES,17.373876,82.586522,9848026734,NAMAVARAM VILLAGE PLOT NO.120 PAYAKARAOPET MANDAL LOCK NO.T1 42 ANDHRA PRADESH
NITYAKRUPA SERVICE STATION,20.9602,73.172,9426884229,MAHUVA ANAVAL ROAD PO KARCHELIA TAL MAHUVA DIST. SURAT
NOIDA AUTOMOBILES,28.585752,77.309298,9810633790,POLT NO B -567 SECTOR - 14 NOIDA-201 301 GAUTAM BUDH NAGAR
Nuh F/Stn,28.09484,77.006603,9899426644,Nuh on Alwar Road Nuh Distt Mewat
OM FUEL CENTRE,25.6956,86.95918,8051682327,GORPAR PS-BIHARIGANJ DIST-MADHEPURA
OM PETROLEUM SERVICES,18.731852,76.409004,9423714505,GAT NO. 93 (B) VILLAGE AMBEJOGAI KAIJ-AMBEJOGAI-AHMEDPUR ROAD SH-156 TAL : AMBEJOGAI DIST : BEED
OM SAI AUTOMOBILES,24.86254246,85.5011859,9572618244,MAHANANDPUR TALUKA- AKBARPUR Nawada
OM SAI FILLING STATION,26.815455,83.871672,9415213319,PLOT NO. PP-01 GH-03 SECTOR-16C GREATER NOIDA(WEST) NOIDA EXTENSION
ONKAR FILLING STATION,29.100329,77.281251,9837577406,INDIAN OIL DEALER VILL- PATTI BAZIDPUR TEHSIL- BARAUT
OXYGEN FUELS,11.039922,77.000752,9.18904E+11,IOC DEALERSSF.NO.49&50 GANDHIMA NAGARFIER SERVICE STN RD PEELAMEDU (PO) GANAPATHY
PADAM PETROLEUM,28.624502,77.374954,8860088743,PLOT NO - PP 1 SECTOR - 63 NOIDA-201 307 GAUTAM BUDH NAGAR
SIVAJYOTHI ENTERPRISES,17.732397,83.317739,9848503187,Indian Oil Dealers-LOCK NO.T1 71 Resapuvanipalem ANDHRA PRADESH
PANIMALAR QUALITY FUELS,10.09922999,77.95974063,9.19994E+11,INDIANOIL DEALERS KULASEKARANKOTTAI VILLAGE VADIPATTI TALUK T.ANDIPATTI -
PANKAJ SERVICE STATION,26.874046,80.86448,9415002503,LUCKNOW- HARDOI ROAD NEAR DUBAGGA NEAR DUBAGGA LUCKNOW
PARAS AUTOMOBILES,28.531431,77.062644,9891050302,"""VILLAGE BIJWASAN"" KAPASHERA - BIJWASAN ROAD ND DELHI"
PARASHURAM PETROLEUM SERVICES,25.2376,86.853854,9431213437,HARIO AKBARNAGAR HARIO AKBARNAGARBHAGALPUR BIHAR
PATCO AUTO SERVICE,19.101038,72.839253,9819902727,398SWAMI VIVEKANAND ROAD VILE PARLE(W) INDIAN OIL DEALER
PAUL FILLING STATION-683,31.35839,75.592985,9357203615,IBP PETROL PUMP JALANDHAR JALANDHAR PATHANKOT ROAD JALANDHAR
PIMPLE PETROLEUM,18.632769,73.799956,9822064640,C S NO. 4695 GAT NO.29 NH4PIMPRI TAL- HAVELI DIST : PUNE
PINDESHWAR PETROLEUM,21.2589,72.6687,9879241121,INDIAN OIL DEALER BLOCK NO.442VILL: PINJRAT Tal: Olpad Dist: Surat
POLICE WELFARE FILLING STN(BHOPAL),23.2118,77.3891,8839184399,INDIAN OIL DEALER POLICE LINE NEHRU NAGAR BHOPAL (RTD-FDZ)
POLICE WELFARE FILLING STN(KAMPOO),26.1879,78.1491,755,SAF 2ND BATTALION KAMPOO S.LOCK-1185 & 1186/219 KAMPOO
POLICE WELFARE FILLING STN.(GWL),26.2188,78.1531,9826279129,SUP. OF POLICE DRP LINE LASHKAR GWALIOR-474008 LOCK NO. 1143/219
POOJA PETROLEUM,20.9454,72.9668,9586255999,INDIAN OIL DEALER SURVEY NO. 188 VILL:KABILPORE Dist: Navsari
POONAM AUTO SERVICE,19.053312,72.88616,9769997209,SION TROMBAY ROAD SUMAN NAGAR CHEMBUR MUMBAI.
POORNIMA ENTERPRISES,8.777286,78.09054,9443361951,INDIAN OIL DEALER KORAMPALLAM TUTICORIN.
POPULAR FUEL SERVICE,12.725991,77.854292,9442265061,MORNAPALLIMARUTI NAGAR NH-7KRISHNAGIRI MAIN RD HOSUR HOSUR
PRAGATI,28.641304,77.229068,9711144917,JAWAHAR LAL NEHRU MARG OPP RAMLILA GROUND LOCK ID NO. I 344
PRAGATI PETROLEUM,21.9716,73.6486,9979166478,INDIAN OIL DEALER SURVEY NO.20/P VILL: DEVALIYA Tal: Tilakwada Dist: Narmada
PRAKASH EXPRESSWAY FILLING STATION,18.790611,73.299609,9820954554,MUMBAI-PUNE EXPRESSWAY SANJGAON TALUKA KHALAPUR DISTT.RAIGAD.
PRASAD FUELS,26.01261671,85.57973094,8905346118,MAUZA - MIRAPUR PS - SAKRA Dist. Muzaffarpur
PRASHANSHA PETROLEUM,20.99184,73.02494,9724160006,SURVEY NO.465 VILL: SUPA ON NAVSARI BARDOLI ROAD TAL: NAVSARI DIST: NAVSARI
PRITI AND GEETA AUTOMOBILE,23.6676,86.2038,9065466818,PLOT NO-523518 KHATA NO-26 NH 32 Dist-Bokaro
PRIYANKA SERVICE STATION,28.725063,77.125704,9811112311,DISTRICT CENTRE II SECTOR 13 NEW DELHI
PUJASHRI FI/S,26.38288754,73.06692942,9314640114,(INDIAN OIL DEALER) MANDORE IND AREA NAGAUR ROAD JODHPUR
PUNAM SUPER PETROLEUM,25.92756701,85.60066727,7070226001,INDIANOIL PETROL PUMP AT:DIHULI ISHAQUE BLOCK+P.S:SAKRA
PURNA PETROLEUM AGENCY,23.610679,91.340954,9436122098,NH-44 BISRAMGANJ BISRAMGANJ DIST : WEST TRIPURA
PUSHPAK AUTO & GAS STATION,19.13944,72.864881,8268618546,OPP MAJAS BUS DEPOT JOGESHWARI VIKHROLI LINK ROAD JAGESHWARI (E) MUMBAI 60
QUALITY PETROLEUM PRODUCTS,11.1272978,77.030586,9.19943E+11,SF NO 231/2A1 231/2B SATHY ROAD SARKARSAMAKULAM COIMBATORE TIN 33922208615
QUEENS ROAD SERVICE STATION,28.56006667,77.1699,9.19959E+11,VASANT VIHAR OUTER RING ROAD VASANT VIHAR N DELHI LOCK ID NO. I 346
QUTAB SERVICE STATION,28.53461667,77.19628333,9811021862,OPP STC & MMTC HOUSING COLONY MEHRAULI RD N DELHI MEHRAULI N.DELHI
R K SERVICE STATION,28.583255,77.191744,9811080862,OPP. CHANAKYA CINEME YASHWANT PLACE NEW DELHI
R R AUTO,28.27874,77.85741,9719627588,INDIAN OIL DEALER ON NH-91 B/W KM STONE 84&86 KHURJA
R. C. AUTO FUELS,28.194594,76.594945,9812109999,QUTUBPUR ON REWARI-NARNAUAL ROAD REWARI DISTT REWARI
R.K. FUELS,25.08930608,84.46925582,9471242366,ON NH-98 SHAMSHERNAGAR Distt: Aurangabad
R.K.AMAR SAHEED SERVICE STATION,28.711555,77.110142,9213731531,DDA COMMUNITY CENTRE SECTOR-6 ROHINI NEW DELHI
R.N. PETRO CARE,28.778597,77.045111,9810275485,VILLAGE-POOTH KHURD DELHI BAWANA ROAD DELHI-110039
RADHEY PETROLEUM,22.7352,70.9329,9824228750,SURVEY NO:107/P1/P2 LOCATION:VILLAGE-MAKANSAR Taluka:Morbi Dist:Morbi
RAFFID DREAMS FUEL SERVICE,12.570341,78.173894,9443225303,INDAIN OIL DEALER S. NO. 215/2 NH - 7 KRISHNAGIRI
RAJ AUTO SERVICE,19.097016,72.839367,9821453175,18S.V.ROAD VILE PARLE ( WEST ) S V ROAD
RAJ AUTOMOBILE,26.16905,85.3601,8877774610,INDIAN OIL RETIAL OUTLET AT:KOLHUA PAIGAMBARPUR P.S:AHIYAPURBLOCK:KANTI
RAJ FUELS,26.24562044,85.23622598,8811024311,INDIAN OIL RETIAL OUTLET AT:PANAPUR P.S:MINAPUR
RAJASTHAN HIGHWAY SERVICE STATION,28.518014,77.081336,9811038654,GURGAON ROAD KAPASHERA BORDER DELHI. TEL.LOCK NO 348
RAJASTHAN RAJPATH FILLING STATION,28.52475,77.101001,9599414443,NATIONAL HIGHWAY NO.8SAMALKHA N DELHI. LOCK NO 349
RAJIV FILL & DRIVE,28.587311,77.351475,9873077777,SECTOR-33 OPP NTPC BUILDING NOIDA-201301 GAUTAM BHUDHA NAGAR
RAJLAXMI PETROHUB,18.594634,73.729386,9822887505,SURVEY NO.257/1/C VILLAGE HINJAWADI TALUKA MULSHI DISTRICT PUNE
RAJU SERVICE STATION,22.693049,88.744349,9732924344,VILL-PASCHIM BIBIPUR PO-BEGAMPUR PS-BASIRHAT Dist. North 24 Parganas
RAKHI FUELING POINT,15.2458,80.024,9346514299,PRAKASAM (DIST) LOCK NO - D1-4950 OLD SINGARAYAKONDA PRAKASAM (DIST) ANDHRA PRADESH
RAM MURTEE FUELS,28.541034,77.153783,9818369369,VASANT KUNJ OPP GRAND HYATT NEW DELHI
RAM PRAKASH SINGH FUEL CENTRE,25.492269,86.473275,9431231154,"""NH-31 RAHIMPUR MUFFASIL"" ""KHAGARIA BIHAR"" KHAGARIA"
RAM SHIV HOSPITAL SANSTHA,26.428303,80.306862,8934810004,LOCK NO IG-3608 JUHI PARAG DAIRY LOCK NO.IG-3608 Bye pass
RAMA SERVICE STATION,28.71056667,77.45623333,9999445893,INDIAN OIL DEALER 23.7MEERUT ROAD.MORTA DISTT.GHAZIABAD.
RAMAMANI MOTORS,20.265007,85.792442,9437025358,IOC DEALER BARAMUNDA NH-5 BHUBANESWAR
RAMDAYAL & SONS,26.5341,72.88441,7568449150,INDIAN OIL DEALER JODHPUR ROAD TINWARI TEH.-OSIAN DISTRICT - JODHPUR RURAL(RAJASTHAN)
RANJITH SERVICE STATION,12.7135,77.7052,8792216876,INDIAN OIL DEALERS SY.NO.72/6HALDENAHALI VILLAGE ANENKAL TALUK BANGALORE
SRI V. NAGA SATYANARAYANA AGENCIES,17.689571,83.103928,9866323799,NH-5 ROAD PADAVADALANKELAPALEM ROAD ANDHRA PRADESH
REGAL PETROLEUM,18.682075,73.82599,8999669247,GAT NO 63 CHIKHALI MOSHI ROAD PIMPRI CHINCHWAD TALUKA HAVELI DIST PUNE
KRISHNA SAI FILLING STATION,18.293449,83.862577,9848023738,NEAR NAVBHARAT JUNCTION OPP. INDUSTRIAL AREA ANDHRA PRADESH
RGK FUELS,10.663213,79.446924,9095639123,IOC DEALERS 38-A RUKUMANIPALYAM ROAD MANNARGU
RISAL PETRO,28.732709,77.198521,9899249866,VILLAGE JHARODA MAJRA OPP STA TPT AUTHORITYBURARI ROADNEW DELHI DELHI
RKBK - BAKSHI KA TALAB,26.975874,80.923596,8756402018,LUCKNOW SITAPUR ROAD BAKSHI KA TALAB LUCKNOW
ROHIT SERVICE STATION,28.856947,77.124211,9810517863,22/4SINGHU BORDER G T KARNAL ROAD DELHI LOCK CODE - I-565
ROOP FILLING STATION,28.698278,77.313533,9814027207,WAZIRABAD WAZIRABAD ROAD U.P.BORDER NEAR GAGAN CINEMA DELHI
ROSE FILLING STATION-153,31.244791,75.743507,9814045193,INDIAN OIL PETROL PUMP G.T. ROAD MEHATA PHAGWARA-144001PUNJAB A SITE
ROYAL SERVICE,19.109868,72.874031,9004214665,IOC DEALERS MAROL ANDHERI (E) MUMBAI.
ROYALE KISAN SEWA KENDRA,28.247171,77.888855,7520963310,VILLAGE BAGRAI KALAN POST BAGRAI KALAN TEHSIL KHURJA
RUCHIKA SERVICE STATION,28.60358333,77.3358,9810234471,KUNDLI GHAROLI KONDLI GHARAOLI NEAR MAYUR VIHAR PH-III NEW DELHI-96
RUDRAPUR PAC FUELS,28.9887655,79.399566,8865988336,INDIAN OIL PETROL PUMP 31ST BN PAC CAMPUS VILL: JAGATPURA RUDRAPUR U S NAGAR
RUKMANI SERVICE STATION 18038507,28.666482,77.481548,9.19872E+11,INDIAN OIL RETAIL OUTLET NH-24 MEHRAULI HAPUR BY PASS ROAD GHAZIABAD UTTAR PRADESH
RUMA FUEL CENTER,25.402689,86.959973,8521516312,AT+PO-DAYALPUR PS-JHANDAPUR OP BLOCK-BIHPUR DIST. - BHAGALPUR BI
RV CLASSIC FUELS,12.601585,78.124455,8148876077,INDIAN OIL DEALER NH-7 KURUBARAPALLI VILLAGE KURUBARAPALLII POST
S. K. PETROLEUM AGENCY,23.844911,91.28373,9415025541,ABHOYNAGAR NEAR KUNJABAN DEPOT PO ABHOYNAGAR AGARTALA DISTRICT WEST TRIPURA
S.S.FILLING STATION,26.706533,80.837448,9451954656,ON LUCKNOW - KANPUR ROAD NH25 BANTHRA TEHSIL:SIKANDERPUR LUCKNOW
SABARWAL SERVICE STATION,28.56495,77.1776,9718393560,R K PURAM NEW DELHI SECTOR V
SADBHAVANA FILLING STATION,30.618114,76.94045,9872095076,INDIAN OIL RETAIL OUTLET NH73 BILLA PANCHKULA-BARWALA ROAD DIST: PANCHKULA
SAHA SERVICE STATION (ADHOC),22.4368,87.8572,9.19812E+11,COCO KOLAGHAT KHARISHA KOLAGHAT (NH- 6) PURBA MEDINIPUR
SAHAJANAND PETROLEUM,21.34,70.2477,9428836761,INDIAN OIL DEALER SURVEY NO.74 VILL:NADOD Tal:Jalalpore Dist: Navsari
SAHEED RAMBACHAN SERVICES,25.660555,85.297141,9931943289,AT:MAILEPO & PS: BIDUPUR BAZAR AT:MAILEPO & PS: BIDUPUR BAZAR DISTRICT VAISHALI
SAHIL SERVICE CENTRE,18.80027,73.294168,9764869171,"""OPP.BHUSHAN STEELVILLAGE NIFAN ""KHOPOLI-PEN ROAD DISTT. RAIGAD"""
SAHYOG PETROLEUM,21.0753,72.8884,9726133366,"""BLOCK NO.243/2/P VIL. LAJPORE"" NAVSARI ROAD DIST. SURAT NAVSARI ROAD DIST. SURAT"
SAI GANESH PETROLEUM,18.747353,74.233375,9922061061,GAT NO.1101(P) SH-60 VILLAGE RANJANGAON GANPATI Pune - Ahmednagar Road
SAI LEELA A/S. KUNDANPALLY,18.748339,79.435964,8341439268,INDIAN OIL DEALERS KUNDANPALLY LOCK NO T3-208 A-5-4 RAMAGUNDAM TELANGANA
SAI PETROLEUM,21.0974,72.8714,9825141441,BLOCK NO. 381SURVEY NO. 415 VILLAGE SACHIN TAL. CHORYASI SURAT
SAI RAM SERVICE STATION,28.721112,77.109498,9810629786,3/B-4 DISTICT CENTRE 1 NEAR RITHALA METRO STN ROHININEW DELHI-85
SAI SAMARTHA PETROLEUM,18.569735,73.817155,9960001515,S.NO. 13\1 1+2 PLOT NO. 3 SPICER COLLEGE ROAD SHITOLE NAGAR SANGVI DIST PUNE
SAII VENKATESWARA FUELS,12.024528,78.098427,9500422900,. 130/8130/3130/4130/7 PAGALAHALL PALAYAMPUDUR
M/S VKR.PETRO POINT,17.727589,83.044865,9949967289,INDIAN OIL DEALERS S.NO. 241/14P 16P 17P ANDHRA PRADESH
SAINI FILLING STATION,30.413418,76.407341,9876138476,INDIAN OIL PETROL PUMP SIRHIND RD SH-31 Vill. Akalimajri
SAKTHIVEL FUEL STATION,10.908044,77.008995,9003955330,SF NO 395 MALUMICHAMPATTI VILLAGE MADUKKARAI
SALEM DISTRICT LORRY OWNERS,11.636291,78.122116,9894335577,ASSOCIATIONREGD.NO.5/1948 IOC DEALERS SF NO.131/2A1/2A2 BANGALORE BYE PASS ROADSALEM.
SWAMY AUTO CARE,16.916935,82.20771,8857242701,INDIAN OIL DEALERS S.NO.92/2 92/3 ANDHRA PRADESH
SANGAM MILK PRODUCER CO. LTD.,16.23829,80.560753,7680987201,SANGAM DAIRY VADLAMUDI lock T1-349/50/1 DNO:131 ANDHRA PRADESH
SANJAY SURYA AGENCIES,10.959785,77.10746,9.196E+11,INDIAN OIL DEALER SF NO 25 2B2 AND 2C PAPPAMPATTI PALLADAM ROAD TK CBE 641016
SANJU INDIAN OIL,27.4214459,74.5658676,9982167875,INDIAN OIL PETROL PUMP KHASRA NO. 215PATHANO KA BADH TEHSIL DIDWANA DIST. NAGAUR
SANKAGIRI LORRY OWENER'S ASSOCIAATI,11.47982,77.881706,9965538955,INDIANOIL DEALERS S.NO.555/12 VAIKUNTHAM VIL. SANKARI TALUK SALEM DIST.
SANTOSH LUBRICANT OILS,27.23138,78.161233,9837098373,DHERERA NH-2 AGRA-FIROZABAD ROAD AGRA
SARADHA AGENCIES,11.606636,78.146238,9791280911,INDIAN OIL DEALER SF.NO.68/1A22A2 NILAVARAPATTI VILLAGE
SARAIYA SERVICE STATION,26.034682,85.147564,9496463804,REWAGHAT ROAD SARAIYYA MUZAFFARPUR BIHAR
SARAVANA ENTERPRISES,9.084823,77.803146,8056809433,INDIAN OIL DEALERS EDAISEVAL VILLAGE(ON NH7) KOVILPATTI-KATATHAR LEFT SIDE
SARDA AUTO FUEL,26.2433,78.2096,9425112121,"""PINTOPARK JADERUAKALA GWALIOR"" ""TEHSIL-GWALIOR DIST-GWALIOR (MP)"" LOCK NO. 1015 & 1016/219"
SARDHAR JVKSM LTD. A-SITE,22.1385,70.9841,9687924800,SH 25 Rajkot-Atkot Road SARDHAR Indian Oil Dealer District Rajkot
SARHAAN PETROLEUM,18.627504,73.852653,9130989989,S.NO.198 HISSA NO.1. PUNE NASIK ROAD BHOSARI TAL HAVELI DIST PUNE.
SARIKA FUELS,25.84618487,84.87235897,9431407152,AT-MAIKI PO & PS GARKHA Saran Bihar
SATBIR FILLING STATION,28.533834,77.107049,9811066601,IGI AIRPORT NH-8 DELHI JAIPUR ROAD RANGPURI N.DELHI
SATYAM SERVICE STATION,22.254438,84.852747,9437221620,SECTOR -17 RSP TOWNSHIP ROURKELA DIST-SUNDERGARH
SATYASHANTI AUTO SERVICE - DAHISAR,19.253891,72.866239,9930553552,IOC DEALERS DAHISAR MUMBAI 400 093.
SAVITA FILLING STATION,28.586105,77.260671,9873479677,BEHLOLPUR OUTER RING ROAD SARAI KALE KHAN BUS TRMNL. N.DELHI
SAVITRI FILLING STATION,28.123115,76.300062,9968821363,VILL BOCHARIYA 85-87 KM STONE Distt M.Garh-PH no. 9891108227 ON SH-26 ON REWARI-NARNAUL
SAVITRI FUELS,23.76657325,86.01135294,9835584403,NEAR PHUSRO RAILWAY STATION P.S.- BERMO P.O.-PHUSRO DISTT.-BOKARO
SD.KUMAR SINGH(VC)F/STN-6688,27.17480833,77.55320833,9571410017,BET. MILE STONE 48-49 AGRA ROAD NH-11 BHARATPUR (RAJ.)
SDCMPU LTD.,11.670288,78.085531,7373704828,S.NO. 31/3A&4A THALAVAIPATTY SALEM
SETHI AUTO S/STN,28.544977,77.121947,9.1981E+11,NH8 MAHIPALPUR DELHI NH8 MAHIPALPUR DELHI DELHI
SETHI AUTO S/STN-MANGOLPURI,28.697023,77.112654,9810125134,NEAR JAIPUR GOLDEN HOSPITALROHINI OUTER RING ROAD MANGOL PURI. NEW DELHI
SHAHEED HARINDER SINGH FILLING STN,27.161015,77.936302,9760604358,NH-11VILLAGE PATHOLI AGRA-FATEHPUR SIKRI ROAD DISTT. AGRA
SHAHEED KHADAG SINGH PETROLEUM,28.051987,75.481,8290815129,IOC PETROL PUMP BADAGAON Distt JHUNJHUNU
SHAHEED MOHAMMAD JAKAR FILLING,28.135492,75.383227,9460541686,CHURU BYEPASSWARD NO.1 JHUNJHUNU-DISTT JHUNJHUNU BHANDHE KA BALAJI KE SAMNE
SHAHEED RAJ FILLING STATION,28.063755,76.140079,9416418918,ON REWARI-NARNAUL ROAD DISTT MAHENDERGARH DISTT MAHENDERGARH
SHAHID EKNATH KHAIRNAR SER.STN,20.044482,73.874731,0253-5619025,ADGAON TRUCK TERMINUS MUMBAI AGRA ROAD NASHIK.
SHAHID LT.COL.PRAKASH PATIL PET,18.457827,73.829102,9028001606,S.NO.6/16 AT AMBEGAON BUDRUK DEHU-KATRAJ BYEPASS ROAD PUNE- PIN CODE 411 046
SHAHID YOGESH PATIL AUTOMOBILE,19.04646,73.074917,9892218387,PLOT NO: 8 SECTOR: 14 KHARGHAR DISTT.RAIGAD
SHAILESH GASOLINE,20.6048,72.93,9825710437,IOC DEALER DIST VALSADGUJARAT. 1100512013
SHAKTI GANAPATHI FUEL STATION,13.11909167,77.63312472,9880752629,INDIAN OIL DEALERS SY NO.6/3(6/2) KATTIGENAHALLI VILLAGE JALA HOBLI BANGALORE
Shakti Petroleum,23.5551,70.6451,9825365344,Survey No.13/B & 114 Pandesara Unn Jakatnaka Nr. Daksheshwar Mahadev Mandir
SHAKTI SERVICE CENTRE,25.815275,85.722069,9472019128,LAT BASAIPURA (GANGAPUR) DIST. SAMASTIPUR BIHAR
SHAKTIMAN POLICE FILLING STATION,30.305656,78.040495,0135-2716226,POLICE LINES RACE COURSE DEHRADUN.
SHAMSABAD FILLING STATION,27.026357,78.119585,9837469101,SHAMSABAD AGRA-SHAMSABAD ROAD AGRA
SHANKAR AUTOMOBILES,28.631023,77.205624,9871184354,GOLE MARKET lock no 359 NEW DELHI
SHANTABA PETROLEUM,21.2737,72.964,9719012008,INDIAN OIL DEALER SURVEY NO.503 BLOCK NO.486 Vill: Kamrej Tal: Kamrej
SHANTI HIGHWAY SERVICE,25.710977,87.449225,9708918668,VILL+PO. HARDA THANA.K.HAT DIST.PURNEA BIHAR
SHANTILAL & SONS,21.1936,72.8539,9925411777,SURVEY NO.58-P & 66-P UMARWADA SURAT CITY SURAT
SHARDA FUEL CENTRE,25.200194,85.543153,9304803369,VILL:GANGANAGARBIHAR-BARBIGHA PO:MUROWRA BIHARSARIF
SHARDA PETROLEUM,20.97,72.9318,9825114835,INDIAN OIL DEALER SR/B NO.482 HISSA NO 1 TO 4 15 Bhaktinagar Vijalpore
SHARMA & SONS FUELS,23.6592,86.2327,9304093848,KHATA NO-55 PLOT NO-827 MOUZA-BODRO PS- Chas (M)
SHEETAL AUTOMOBILE S/STN,28.561199,77.339063,9911911239,PLOT NO - PP 1 SECTOR - 44 DSC ROAD NOIDA - 201 301
SHIV KRISHNA FUELS,26.125199,85.614583,9835890055,PO+PS-BOCHAHAN NH-57 DARBHANGA ROAD MUZAFFARPUR BIHAR
SHIV KRUPA PETROLEUM,21.3254,72.9437,9909206908,INDIAN OIL DEALER BLOCK NO.2/A VILL: ANTROLI Tal: Kamrej Dist: Surat
SHIV SERVICE STATION,28.70485566,77.63974382,9312200313,INDIAN OIL DEALER NEAR SHRIRAM HOSPITAL41KM DELHI HAPUR RDPILKHUWA-GHAZIABAD
SHIVA MOHAN SERVICE STATION,28.425495,77.604355,9810868734,GANGOLA SURAJPUR KASNA ROAD GANGOLA 203207 UTTAR PRADESH
SHIVALIK SERVICE CENTRE,28.5979,77.065,9873100006,DWARKA SECTOR-2 PHASE-I NEW DELHI LOCK ID NO. I 554
SHIVAM ARYAN FUEL SERVICES,25.21805,86.99783,8877745111,VILL-KOHRAPO-MIRJANHAT PS-LODIPUR DIST-BHAGALPUR
SHIVAM FILLING STATION,24.745804,76.394608,9829108347,IOC PETROL PUMP BAGGAR. JHUNJHUNU
SHIVAM JEMIN PETROLEUM,22.2464,70.8854,9426819839,S NO 73/P VILL: KALIPAT Ta: Rajkot
SHIVAM PETROLEUM,25.791368,84.769783,9431283247,MEHIAN NAWAJI TOLA CHAPRA SARAN
SHIVAN AUTO CENTRE,28.6217,77.30148333,9999900304,MAYUR VIHAR PHASE II DELHI
SHREE ASHOK OIL MILLS PPD,22.220175,69.65115,9726619199,Station Road. KHAMBALIYA Indian Oil Dealer District Jamnagar
SHREE BALAJI ENERGY & FUELS,24.653577,77.50721,7000642677,EARLIER SIKARWAR FUELS Pilighata Tehsil Sadora
SHREE GIRIRAJ PETROLEUM,23.2572,73.2134,9426342510,KALAWAD ROAD RAJKOT Indian Oil Dealer District Rajkot 360005
SHREE JI FILLING STATION,27.5447278,77.5384971,7900971362,INDIAN OIL DEALER VILLAGE JULHAIDI RADHA KUND- CHATIKARA ROAD
SHREE KEDARNATH PETROLEUM,19.109346,73.065599,9215766070,"""PLOT NO.42/1 VILL-KIRAVALI"" ""TAL-PANVELDIST.RAIGADMAHARASHTRA"
SHREE LALITHA OIL COMPANY,10.645614,76.972145,9.19842E+11,SF.NO.193/1B2ZAMIN UTHUKULI MEENKARAI ROAD SH-18 POLLACHI TK COIMBATORE DIST
SHREE LAXMI PETROLEUM,21.8694,71.8523,9512788808,VILLAGE: VALLBHIPUR SURVEY NO 1573 PAIKI2/PAIKI3 Taluka: Vallbhipur
SHREE PETROLEUM AGENCY,12.066068,78.109762,9884598999,SF.NO.51/1B NH-7 ADHIYAMANKOTTAI VILLAGE & POST NEW BYE PASS ROAD
SHREE PRAMUKH SWAMI KSK,22.5711,73.6336,9537919199,SURVEY NO.229/P/4 VILL&TAL: GHOGHAMBA Dist: Panchmahal
SHREE SHYAM PETRO CARE,28.418935,76.997956,9350819030,NARSINGHPUR NH-8 GURGOAN NARSINGHPUR NH-8 GURGOAN DISTT GURGAON
SHREY PETROLEUM,21.1345,72.8894,9428869099,INDIAN OIL DEALER B NO.48/A VILL: SANIYA KHANDE Tal: Choriyasi Dist: Surat
SHRI ASHTALAKSHMI FUELS,11.82624,77.9289,8838926839,SY. NO. 100/2A M.KALIPATTI (V) Mettur (Tk.)
SHRI BALAJEE AUTOMOBILES,25.84776091,85.6398979,9431245324,ABABAKARPUR PO-MANPURA PS-N.H. BANGRA DIST SAMSTIPUR
Shri Balaji Petroleum,18.66475775,73.77017037,9923019995,Plot No.55S. No.23 Transport Nagari Nigdi Dist. Pune
TIRUMALA SATYADEV TRADERS,17.979074,83.416665,9.1995E+11,VIZIANAGARAM TO VIZAG (RHS ON NH-43 FROM 558 KM TO 563 KM SY.NO.14/1-5MODAVALASA VILLAGE
SHRI DUTT PETROLEUM WAGHODIA,22.2873,73.3482,9824001488,AT - DUTTPURA. POST - LIMDA TALUKA - WAAGHOD DISTT. - VADODARA GUJARAT STATE
SHRI JEE RAMA FILLING CENTRE,26.327601,78.111381,9425126693,VILLAGE BANMORE BANMORE ON NH-3 District Morena LOCK NO. 1179/219
SHRI KRISHNA AUTOMOBILES PVT.LTD.,18.987982,72.814056,9821219561,DR ANNIE BESANT ROAD WORLI BOMBAY
SHRI MAHESHWARI FUEL & FILLING,22.9891,76.0237,7388229862,GRAM-NAGUKHEDI SURVEY NO. 213215/2 PH NO-20 TEHSIL & DIST-DEWAS (MP)
SHRI PASHUPATINATH FILLING STATION,24.0957,75.0517,8989238002,NEAR KRISHI UPAJ MANDI MHOW-NEEMUCH ROAD MANDSAUR
SHRI PERIYANAYAKI FUEL,11.027938,77.0761086,9.18903E+11,IOC DEALER ATHAPPA GOUNDAN PUDUR HAMLET
SHRI RADHESHYAM PETROLEUM,22.2063,69.5571,9426204380,SURVEY NO-186 VILLAGE HANSTHAL TAL:Khambhaliya
Shri RajMomai Petroleum,21.7296,71.9695,7874999899,Indian Oil Dealers SH 25 SURVEY NO. 238/2 GIDC Sihor District Bhavnagar
SHRI RAMESH BABU AGENCY,12.534787,78.260195,8056722122,INDIAN OIL DEALERS KATTINAYANAPALLI KRISHNAGIRI DIST.
SHRI SANWARIYA HIGHWAY SERVICES,22.965313,76.417289,9993989777,VILL- DAULATPUR ON SH-18 TEHSIL- SONKATCH DIST- DEWAS (MP)
SHRI SHUBHAM FILLING STATION,28.86701806,77.54617049,9760202000,INDIAN OIL DEALER VILLAGE - NEWARI DEHAT Dist- Ghaziabad
SHRI SUDARSHAN PETRO,29.372137,76.949656,9812200002,INDIAN OIL PETROL PUMP VILL:PATTI RAJPUTANADISS PANIPAT L/S JATTAL BYPASS
Shrikrishna Saraswati Agency,16.86365,74.21825,9923772828,At Pargaon Dist. Kolhapur KOLHAPUR MAHARASHTRA
SHUBHAM INDIAN OIL,24.833596,74.571442,9414148659,JUNCTION OF NH-79 & NH-76 RITHOLA P.O. SEHENWA TEHSIL - CHITTORGARH DISTT. CHITTORGARGH (RAJ
SHYAM SAI FUEL POINT,28.226186,76.830874,7065110011,VILL GHATAL MAHENIYAWAS 75M BYPASS LHS FROM NH-8 TO NH71B BHIWADI Bypass Road Dharuhera Rewari
SIDDH STHAAN PETROLEUM,26.4703,77.9292,9893063169,MUNGAVALI MORENA LOCK NO. 1005 & 1167/219 MUNGAVALI MORENA
SIDDHI VINAYAK SERVICE STATION,20.450075,85.926651,9437045257,AT - BIDYADHARPUR P.O. - NAYABAZAR CUTTACK
SIDHBABA FILLING STATION,28.3864,79.4027,8477006955,MINI BY-PASS BAREILLY BAREILLY BAREILLY
SINGH MOTOR CENTRE,28.738175,77.149327,9810036566,A-3 PHASE - I SANJAY GANDHI TRANSPORT NAGAR NEW DELHI
SINGH SERVICE CENTRE,28.6966,77.2915,9810003990,LONI BORDER LONI ROAD. FC SHAHDARA DELHI-93 DELHI.
SIVA AGENCIES,10.806302,77.017456,9.19965E+11,INDIAN OIL DEALER SF NO 176/1 KALLANKATTUPUDUR SINGARAMPALAYAM PO KINATHUKADAVU
SIVA FILLING STATION,16.315413,80.349551,9440802050,D.NO. 477 NEAR FLYOVER PERECHERLA VILLAGE & MEDIKONDUR MA GUNTUR DISTRICT
SKYLINE FUELS,13.31055,77.126877,9886333023,IOC DEALER TUMKUR RING ROAD SETTYHALLI GRAMA TUMKUR - 572103
SONA SOBRAN SERVICE STATION,23.657717,85.961814,8294613262,BAHADURPUR PS : JARIDIH Bokaro
SOUNDARYA AGENCIES,11.421352,79.009918,9962242807,NH-45TRICHY-CHENNAI MAIN ROAD RAMANATHAM THOLUDUR CUDDALORE LOCK NO -13005
SOURABH PETROLEUM,15.377981,75.134168,9480062798,SURVEY NO.176/5+6C GOPPANKOPPA HUBLI CITY TQ. HUBLI
SOUTH INDIA OIL CORPORATION,11.463821,79.55143,9840968669,IOC DEALER R.S.NO.229/2LK.05427 KUMBAKONAM HIGH RDPINNALUR VIL CHIDAMBARAM TLK AND DIST-608 704
SPEEDWAYS SERVICE CENTRE,28.62333,77.101619,9810540137,JAIL ROADNEAR HARI NAGAR DEPOT lock no 363 (ISSUE SEALS)
SREE KALIAMMAN TRADERS,10.668092,77.007172,9.19842E+11,COIMBATORE RD POLLACHI
SREE LAKSHMI NARAYANA FILLING STATI,15.53611,79.988426,9.19667E+11,SY.NO.435 KURNOOL ROAD PERNAMITTA PRAKASAM DISTRICT
SREE MAHAVISHNU FUELS,11.112419,76.936261,9.19842E+11,IOC DEALER SF NO 215/2 N S N PALAYAM
SREE RATHNAM OIL COMPANY,11.053854,76.916908,9.19994E+11,IOC DEALER THADAGAM RD KANUVAI COIMBATORE 641 108 TIN NO 33246207232
COCO NAKKAPALLI ADHOC ASHOK ENTERPR,17.394296,82.66317,9.19177E+11,ADHOC ASHOK ENTERPRISES NAKKAPALLI VISAKHAPATNAM
SRI ARULJOTHI ENTERPRISES,11.59377,78.613091,9.19843E+11,KADALUR MAIN ROAD ATTUR SALEM DIST LOCK NO 13006
SRI BALAJI KAILASH F/S HASTINAPUR,17.32988,78.55328,9848023030,S.NO.58/1/G BAIRAMALGUDA HASTINAPUR COLONY RANGA REDDY TELANAGANA
SRI BALAJI PETRO RETAILING,28.625486,76.993157,9.17012E+11,VILLAGE DICHAUN KALAN NAZAFGARH-NANGLOI ROAD NEW DELHI
SRI BALAJI PETROLEUM CO,12.130415,78.158605,9489853332,23-B NETHAJI BYE PASS ROAD DHARMAPURI DIST LOCK NOS.11003 & 11004
SRI BALAJI TRACTOR SERVICE STATION,16.547964,80.816952,9985003219,INDIAN OIL DELEARS GANNAVARAM GANNAVARAM VILLAGE & MANDAL KRISHNA DIST ANDHRA PRADESH
SRI BANKEY BIHARI INDIAN OIL,27.5466,77.64083,9837147652,INDIAN OIL DEALER MAUJA CHARORA BETWEEN 128-138 DELHI MATHURA ROAD
SRI CHAKRA FUEL STATION,12.41648917,76.68519806,9742996246,INDIAN OIL DEALERS D.NO. 1265 GOSEGOWDA STREET SRIRANGAPATNA KARNATAKA
SRI DATTA SAI F/ STN. KARIMNAGAR-1,18.454954,79.135219,9440072326,THEEGALAGUTTAPALLY SUBHASH NAGAR ANDHRA PRADESH
SRI DURGA ENTERPRISES,13.077609,77.796036,9945222159,SURVEY NO 103 OLD MADRAS RD HOSKOTE BANGALORE RURAL DISTRICT
SRI GANESH FUELS,25.9935072,85.71678074,9801826237,INDIAN OIL PETROL PUMP MAUZA-HAZIPUR RAZA NEAR TARA CHOWK PS: CHAKMEHSI
SRI GANPATI SERVICE STATION(*),25.970255,85.308192,9430051890,RAJALA CHOWKNH-77 MUZAFFARPUR BIHAR
Sri Hari Agencies,11.540842,78.054573,9427437360,Indian Oil dealers Salem Road Attayampatti Salem Dist. 637501 LOCK NO: 22013
SRI KRISHNA FILLING STATION-RDM,18.762374,79.476046,9347050145,INDIAN OIL DELEARS JYOTHI NAGARRAMAGUNDAM ANDHRA PRADESH LOCK NO D1-69B-5-2
SRI SIDDARAMESWARA S / STATION,13.499293,76.451173,9417336464,INDIAN OIL DEALERS P.B ROAD. L NO.93054-21014 DIST - CHITRADURGA
SRI RAMAKRISHNAA AGENCIES,11.64264,78.51947,9443177612,INDIANOIL DEALER SF.NO.120/4D ERRAMASAMUDRAM VILLAGE
SRI RAMANA FILLING STATION,17.970285,79.49693,9885332903,INDIAN OIL DELEARS BAPUJI NAGAR Lock No.-2/D1 D-7-6 ANDHRA PRADESH
STAR QUALITY FUEL STATION,17.515249,78.479651,9.16303E+11,INDIAN OIL DEALER SY NO. 91 PETBASHEERABAD VILL. MEDCHAL MALKAJGIRI DISTRICT
STEEL CITY SERVICE ( * ),23.6329907,86.18754405,9431504774,JODHADIH MORECHAS BOKARO-827013 JHARKHAND
SUBRAMANIAM AGENCIES UNIT II,12.501544,78.223018,9443336104,INDIAN OIL DEALER DEVASAMUDRAM VIL MOTTUR KRISHNAGIRI DISTRICT
SUDHIR AUTOMOBILES-MS,25.311692,82.988558,9415224048,SHIV PURA SIGRA RATH YATRA RLY STN ROAD VARANASI (UP)
SUDHIR FILING STATION,27.235258,77.870453,9837036258,NH-2 RUNKUTA MATHURA AGRA ROAD KM STONE 18-8 RUNUKTA DISTT. AGRA
SUHANI FILLING STATION,28.805532,78.724008,9927145700,SUHANI FILLING STATION LAKRI FAZALPUR DELHI ROAD MORADAB Moradabad Uttar Pradesh 244001
SUNDERLAL PYARELAL AUTOMOBILES,27.629464,77.57284,9412405059,DELHI AGRA HIGHWAY NH-2 CHAUMUHAN DISTT. MATHURA
SUPER AUTO CENTRE,28.56773333,77.25395,9810002650,SRINIVAS PURI RING ROAD NEW DELHI lock no. 364 NEW DELHI
SUPER FUEL AND FUN POINT,28.8946446,77.6220902,9336022223,DEALER- INDIAN OIL CORPN VILLAGE MOHIDDINPUR NH-58
SUPRATIM AUTOMOBILES,23.787806,85.933357,9031712790,KURPANIA SUNDAY BAZAR BERMOBOKARO
SUSEE AUTO LTD (NORTH),8.816992,78.133163,9443145155,IOC DEALER(LOCK NO:200) 109/6 ETTAYAPURAM ROAD TUTICORIN RTD - 54
SUSHIMITA FILLING STATION,17.826748,83.357674,9866640234,INDIAN OIL DEALERS MADHURAWADA ANDHRA PRADESH LOCK NO.T1 68
SWARNAMBIGAI FUEL SERVICE,11.693353,78.111915,9894860573,INDIAN OIL DEALER JAGIRAMMAPALAYAM VILLAGE SALEM TALUK
SWASAN FILLING STATION,11.6252554,78.15642347,9443234339,INDIANOIL DEALER RS.NO.153/2A12A2 DADAGAPATTI VILLAGE
SWASTIK AUTO SERVICE (TALAJA),21.7422,72.15,9825206096,NR TALAJA OCTROI TOLL NAKA Indian Oil Dealer ADHEWADA BHAVNAGAR
SWATI FUELS,24.379282,85.484932,9431140135,VILLAGE : CHANDARA AT : URWAN MORE ON NH-31
SWATI SALES CORPORATION,28.981042,77.030392,9416863232,D - 2 INDUSTRIAL AREA SONEPAT - ROHTAK ROAD SH 20 DISTT SONEPAT
T V STANDARD BLOOMING ENT. IB02,9.159096,77.391496,9872864032,104/6AQUILON-TIRUMANGALAM NH-208- PULIANGUDI CHOKKAMPATTI VILLAGE Tirunelveli Dist(LOCK NO: IB 02)
TAJ KRISHNA AUTOMOBILES,25.334565,82.986636,9453040578,NEAR TAKSAL THEATRE NADESAR VARANASI (UP)
TANISHQ PETROLEUM,25.273874,84.683121,9.18874E+11,DEALER-INDIAN OIL CORPORATION LIMIT AT-SAKRI ARWAL DIST-ARWAL
TARA MAA SERVICE STATION,22.22827,87.900719,9836246767,VILL-IRKHA PO-BORAKAMARDANH-41 PS- NANDKUMAR PURBA MEDINIPUR
TCI INDIA LTD,11.093118,77.143715,91 8368345076,S.F.NO.434/2 AVANISHI ROAD KANIYUR VILLAGE POST COIMBATORE - 641 659
TERWAY SERVICE STATION,24.41655058,85.4952602,9431196091,GUMO KODERMA JHARKHAND
THE CENTRAL TRADING CO.,22.391904,87.740245,9434341721,STATION BAZAR PANSKURA PURBA MIDNAPUR
THE PURUSHOTTAM FARMERS COOP.C,21.2362,72.79,9879750501,"INDIAN OIL DEALER ""SURVEY NO. 1/2/A 1/2/B BLOCK' ""JAHANGIRPURA TAL: CHORYASI SURAT"
THIRD MILESTONE PLAZA,28.2293451,77.8348145,9411229999,KHURJA CITY JEWAR CHAURAHA ON KHURJA JEWAR ROAD DIST- BULANDSHAHR
THIRU MURUGAN TRADERS,10.886451,76.913673,9.19894E+11,SF NO.228/2 PALAGHAT ROAD ETTIMADAI COIMBATORE ETTIMADAI COIMBATORE
THIRUMALA FILLING STATION,18.356815,79.239914,9866613857,INDIAN OIL DELEARS LOCK NO D2/53/4/ SY. NO.382/A CHENGERLA VILLAGE ANDHRA PRADESH
TOP VALUE INDIAN OIL,25.019739,74.637594,9414110429,CHITTOR-BHILWARA ROAD (NH-48) P.O. & TEHSIL - GANGRAR DISTT- CHITTORGARH (RAJ)
TULI MOTORS,28.653121,77.123739,9717433339,RAJA GARDENRING ROAD FOR PREMIUM LOCK NO 988 BIJWASAN LOCK CODE - I - 390
TYAGI BROS. FILLING STN.(IBP RO),28.61928,77.483833,9810074210,GT ROAD CHAPRAULA-201302 GAUTAM BUDH NAGAR
TYAGI SERVICE STN.,28.65892,77.353841,9311113827,VILLAGE PRAHLADGARHI NH-58 GHAZIABAD UP
Udayam Agency,11.180627,78.197227,9003535353,IndianOil Dealer S No.158A/2B2A Eraipuvari Village Tirunelveli District TamilNadu
UJJAWAL RAJ AUTOMOBILES,25.776899,85.335469,9431405759,HAJIPUR - MAHUA ROAD RANI POKHAR DISTT: VAISHALI
ULTRA FUEL CENTRE,23.66412843,86.20425741,8292727529,MOUZA DUMARJORA PS(M) CHAS PO Chikasia District Bokaro
UNITED FUEL SERVICES,19.790356,72.911435,7263880872,SURVEY NO.4344/1/2P VILLAGE WADEKHADKHONE TAL.PALGHARDISTT. PALGHAR
UNITED TRADERS,11.379137,79.685991,9444001809,INDIAN OIL DEALER 115AMMAN KOIL ST. CHIDAMBARAM BYE LHS KADAVACHERY-SILUVAIPURAM
UNIVERSAL FILLING CENTRE,20.562,72.9542,9426450656,BLOCK NO. 295-P & 296-P VILLA PARNERA NH-8 DIST:VALSAD PARNERA NH-8 DIST:VALSAD
URMILA SERVICE STATION ( * ),23.7754,85.886683,9999479349,KATHARA BOKARO BOKARO
UTKARSH SERVICE STATION,22.3238,73.1977,9737606077,INDIANOIL DEALER KARELIBAUG BARODA GUJARAT.
UTTAM SEWA FILLING STATION,28.209973,77.879809,9810092443,MIRPUR KHURJA NH-91 VILL.MIRPUR KHURJA DISTRICT BULANDSHAHAR
V.D.PATEL & COMPANY,21.3002,72.9541,9428743881,NH-8 AMBOLIAMBOLI PO. KATHOR TA SURAT. SURAT.
VAIBHAV KISSAN SEWA KENDRA,27.562717,77.726608,9412826544,VILLAGE PANIGAON VRINDAVAN-MAANT ROAD TEHSIL MANT DISTT.- MATHURA
VAIBHAV PETROLEUM,21.8863,70.4909,9.1988E+11,INDIAN OIL DEALER JAMKANDORNA DHORAJI RAOAD AT - JAS TA - JAMKANDORNA DIST - RAJKOT GU
VAIBHAV VIVEK FUELS,25.9414296,85.52318014,7857053366,BAJI BUJURG PS - SAKRA DIST MUZAFFARPUR
VAISH FILLING STATION,28.614247,76.980488,9811047727,NANGLOI RD NAJAFGARH DELHI LOCK ID NO I 563
VAISHNAVI SERVO,18.8686,76.5099,7774015477,INDIAN OIL DEALERS BEED BYPASS ROAD BRAMHAWADI
VANGALAMMAN HIGHWAY SERVICE,11.722192,78.070355,0427-2345491,IOC DEALER KOTTAGOUNDANPATTI SALEM 636011 LOCK NO 13019
VASANI SERVICE CENTRE,19.268952,72.878113,9820561406,MIRA VILLAGE DIST : THANE. MAHARASHTRA STATE. LOCK NO.12006
VEL MURUGAN AGENCY,8.591223,78.039835,9443135267,7/172A TIRUNELVELI MAIN ROAD KURUMBUR TUTICORIN DISTRICT
VELAVAR FUELS,10.0555547,77.99096109,9361044555,VADIPATTI - NH. 7 ( LOCK NO: 32) THUMBICHAMPATTI T. AUNDIPATTI DINDIGUL - MADURAI ROAD
VELKAR AUTO,19.285109,72.901406,9820072485,VARSOVE VILLAGE NEAR GHODBUNDERNH NO.8 DIST. THANE.
VENKATESWARA F/ STATION THIMMAPUR,18.361165,79.159948,9246933204,S.NO.310D THIMMAPUR LOCK NO D2-98A-6-1 KARIMNAGAR DIST.ANDHRA PRADESH
VENUS AUTO CENTRE,19.012977,73.107284,9821167011,IOC DEALER NATIONAL HIGHWAY DIST: RAIGAD.(LOCK NO. 21017)
VERMA AUTOMOBILES,26.9107,80.9484,9793221133,ALIGANJ SCHEME FAIZABAD ROAD-SITAPUR ROAD BYPASS LUCKNOW
VIBHOR SERVICE STATION,28.77142,78.097691,8923200195,GARHMUKTESHWAR NH - 24 DELHI ROAD GARH PANCHSHEEL NAGAR
VIJAYA AUTO SERVICE,11.837584,77.751701,9842088969,INDIAN OIL DEALERSMETTUR ROAD KOLATHUR SALEM DIST 636303 LOCK NO 13020
VIKAS FILLING STATION,26.3475,78.2873,9425018000,INDUSTRIAL AREA MALANPUR DISTT. BHIND (MP) LOCK NO. 1034/219
VIKRANT ENERGY STATION,29.06466,77.92589,9312202816,KHASRA NO 84 VILLAGE- NAGLA ZAREEF SATLA TO MAWANA ROAD
VINAYAGAA AGENCIES,11.081777,77.190254,9.19842E+11,SF NO.128/3 MAIN ROAD P.B.NO.7 SOMANUR-641668
VISHAL FILLING STATION,20.473725,85.848992,8249144610,BIDANASICDA CUTTACK-753014 ORISSA
VIVEK SALES & SERVICES,24.646403,77.279667,9406582700,MADHOPUR GUNA NEW BYPASS DISTT. GUNA LOCK NO. 1212/219
VRAJ PETROLEUM,22.4849,72.67,9920574586,INDIAN OIL DEALER Gondal Kunkavav Road AT MOVIYA Taluka GondalDistt.Rajkot
VRV AGENCIES,11.670757,78.227951,9443088950,2/159 SALEM - ULUNDURPET RD(NH-68) MASINAICKENPATTI AYOTHIAPATTINAM PO
VVG AUTOMOBILES(LOCK NO:4434),8.997636,77.29936,9442642688,SY NO.682/5B ELATHUR VILL NH-208 SHENKOTTAH TK Tenkasi
VYOM PREMIUM FUELS,27.217316,77.939705,8006004445,INDIAN OIL DEALER SIKANDRA BAHISTABAD DISTRICT
WADIWALA AUTOMOBILES,21.1162,73.104,9925161000,Ten At & Post Bardoli NH6 TEN BARDOLI SURAT.
XCELLENT FUELS & SERVICES,25.46601,81.961564,9450961968,ALLAHABAD JAUNPUR ROAD NEAR ANDAWAN ALLAHABAD UP
XPRESS SERVICES,27.225487,78.122884,9759512345,NH-2 KUBERPUR AGRA AGRA
YADU FUELS,28.65250584,77.36849836,7011682619,KHASRA NO. 675 SUCHETA KRIPALANI MARG Shakti Khand-III
YAMUNA AUTOMOBILES,27.20156,78.027678,9412256589,JEEVANI MANDI AGRA JEEVANI MANDI
YOGESH SERVICE STATION,18.624411,74.031262,9881095151,GAT NO.11 VILLAGE LONIKAND DIST. PUNE DIST. PUNE
SHRI HIGHWAY SERVICE STATION,27.532821,77.656112,,HPC DEALER BYE PASS (NH-2)VILLAGE CHARORA MATHURA 281001
HSD UJALA HP CENTER,27.63121081,77.57107045,,"KHASRA NO. 924, VILLAGE AKBARPUR NH2,CHHATA  281401"
ARMY FILLING STATION,27.039613,78.27614,,"VILLAGE: PALIA FATEHABAD ROAD, FATEHABAD DIST: FATEHABAD 283111"
SURESH FILLING STATION,27.222951,77.868389,,VILLAGE LOHKARERA RONAKTA KIRAWLI ROAD TEHSIL KIRAWLI 282007
SHAGUN HP,27.23211696,77.88642895,,"HPC PETROL PUMP AGRA - MATHURA ROAD, NH-2 VILLAGE- RUNAKTA,TEHSIL KIRAVALI 282007"
YOGI PETROLEUM,23.196656,72.630118,,"HP PETROL PUMP, PLOT NO. 2160 SEC. NO. GH-0, NR. SARGASAN PUMP. STATN. NH-147 SG HIGHWAY, GANDHINAGAR 382011"
PRAMUKH PETROLEUM,23.262305,73.213162,,"HP PETROL PUMP, SURVEY NO. 48 SH59, DHANSURA-BAYAD HIGHWAY VILLAGE BIBIPURA TALUKA BAYAD 383325"
PURNIMA MOTORS,22.998988,72.635589,,FINAL PLOT NO.58/B OF TP SCHEME NO.50 MOUJE BAUG-E-FIRDOS TALUKA CITY NAROL NARODA HIGHWAY (NH-8) 380026
MAHALAKSHMI MOTOR SERVICE,23.027614,72.595785,,HPC DEALER RELIEF RD NR ZAKHRIA MASJID AHMEDABD 380001
NARODA AUTOMOBILE SERVICES,23.049803,72.623684,,HP PETROL DEALER OPP VIJAY MILLS NARODA 380025
JASHBHAI PATEL AND COMPANY,22.961843,72.47626,,"HP Petrol Pump ,Survey No. 271/B2 Sarkhej-Bavla Highway Sanathal Chowkdi 382210"
VADILAL MAGANLAL & CO,23.041506,72.588616,,H P PETROL PUMP SHAHIBAUG ROAD AHMEDABAD 380004
J R AMIN & CO,23.069268,72.646989,,SAIJPUR BOGHA NARODA ROAD AHMEDABAD 382325
"HP AUTO CARE CENTRE, VASTRAPUR",23.031983,72.524445,,"HPCL RETAIL OUTLET TPS NO.1 FINAL PLOT NO.42/3 VASTRAPUR, AHMEDABAD 380015"
VIJAY AUTOMOBILES GANDHINAGAR,23.21517,72.648664,,"HP PETROL PUMP, PLOT NO. 12 CH ROAD, SECTOR 11 GANDHINAGAR 382011"
DELHI HIGHWAY AUTOMOBILES,23.225996,72.73105,,"HP PETROL PUMP, SURVEY NO. 414/A NH8, AHMEDABAD-SHAMLAJI HIGHWAY VILLAGE CHILODA, TALUKA GANDHINAGAR 382355"
JANTA AUTOMOBILES,23.475834,73.293188,,"HP PETROL PUMP, SURVEY NO. 2 SH57, GANESHPUR-GAJAN HIGHWAY GANESHPUR, TALUKA MODASA 383315"
OMKAR PETROLEUM,23.105409,72.63088,,"HP PETROL PUMP, SURVEY NO. 53/B GANDHINAGAR-AIRPORT ROAD MOUJE BHAT, TALUKA GANDHINAGAR 382428"
SHAH MEHTA & CO KHOKRA,23.006558,72.612784,,F.P.NO.8/2/A T.P.S. NO.7 NEAR ANUPAM CINEMA KHOKHRA KHOKHRA-MEMDABAD ROAD 380050
ESSBEE PETROLEUM,22.99097,72.516515,,SURVEY  NO. 103/P & 221/P AT VILLAGE GYASPUR SARKHEJ - VASNA ROAD 382210
GOKUL PETROLEUM,23.003289,71.544283,,"HP PETROL PUMP, SURVEY NO. 304/PAIKI DHRANGADHRA-VIRAMGAM HIGHWAY SH7 VILL RAJGADH, DHRANGADHRA 363310"
KANHA PETROLEUM,23.132226,72.524592,,"HP Petrol Pump ,SY NO.185/2 200' SARDAR PATEL RING RD OPP GREENWOOD, 380060"
MAHAKALI PETROLEUMS,23.081715,72.687944,,"HP Petrol Pump,TPS 109, FP NO 29 SARDAR PATEL RING ROAD NR DEHGAM NAKA VILLAGE BILASIYA TAL DASKROI 382330"
AAI SHREE KHODIAR PETROLEUM,22.935986,72.498819,,"HP Petrol Pump ,SY No.197 200 FT SARDAR PATEL RING ROAD VILL VISALPUR TALUKA DASKROI 382210"
SIDDHANATH PETROLEUMS,23.079777,72.667904,,"SURVEY NO 516/2/P, FP NO 75/1 NARODA TO DEHEGAM ROAD AT VILLAGE NARODA, TA CITY 382330"
SHRADDHA AUTOMOBILES,23.211718,71.791313,,"HP PETROL PUMP, SURVEY NO. 1650 DASADA-PATDI HIGHWAY SH19 PATDI 382765"
"GRAND MILLENNIUM AHMEDABAD,SATELLITE",23.017733,72.518767,,FINAL PLOT NO 192 TOWN PLANNING SCHEME 4 MOUJE VEJALPUR 380015
SHREE KRISHNA PETROLEUM,22.917618,72.699095,,"HP Petrol Pump,Block No 1062 MEHEMDABAD ROAD HIRAPUR CHOWKDI,HIRAPUR 382435"
R K PETROLEUM,22.646926,72.207155,,"HP Petrol Pump,SURVEY NO.257/2P NATIONAL HIGHWAY NO.8A NR. NUTAN HOTEL,BAGODARA 382230"
BHAVANI PETROLEUM,22.923179,72.442939,,"HP PETROL PUMP, SURVEY NO. 18 AHMEDABAD-RAJKOT HIGHWAY NH8A VILL CHANGODAR, AHMEDABAD 382213"
N.V.PETROLEUM,23.371089,72.693241,,"HP PETROL PUMP, SURVEY NO. 484/A GRAMBHARTI CHAR RASTA, GANDHINAGAR- VIJAPUR RD., VILLAGE ALUVA, TALUKA KALOL 382745"
UMIYA PETROLEUM,23.39098,72.962352,,"HP PETROL PUMP, SURVEY NO. 125/1/2 VAVDI CHOWKDI, VILLAGE GORA TALUKA TALOD 383215"
KRIPA PETROLEUM,23.598992,73.077773,,"HP PETROL PUMP, SURVEY NO. 477 NH48, BETWEEN KM 334-335 VILLAGE KARANPUR, TALUKA HIMATNAGAR 383030"
ATITHI FUEL CENTER,23.681673,72.250546,,"HP Petrol Pump, Plot No 487 SH 55 LANWA 384229"
OM PETROLEUM,23.494076,71.787981,,"HP Petrol Pump, Plot No. 279 SH 18 SHANKHESHWAR 384246"
GOVATSALYA PETROLEUM SERVICE,23.082938,72.159792,,"HP PETROL PUMP, SURVEY NO. 71 PAIKI AHMEDABAD-VIRAMGAM HIGHWAY SH17 VILL SACHANA, VIRAMGAM 382150"
GIRIRAJ PETROLEUM,22.997405,71.493465,,"HP PETROL PUMP, SURVEY NO. 122 P A2 02 SURENDRANAGAR BYPASS ROAD SH7 DHRANGADHRA 363310"
VADHIYAR PETROLEUM,23.699536,71.7579,,"HP PETROL PUMP SURVEY NO 1074/1 SAMI RADHANPUR HIGHWAY ,SH 55 VILLAGE SAMI, TA SAMI, DIST PATAN 384245"
OM PETROLEUM,23.494076,71.787981,,"HP PETROL PUMP, SURVEY NO. 169 SAYALA-SUDAMADA ROAD SH21 VILL-THORIYALI, SAYALA 363430"
ASHAPURA PETROLEUM,23.895788,72.119257,,"HP PETROL PUMP, SURVEY NO 132 P1 PATAN SHIHORI ROAD, SH 130 VILLAGE SUJNIPUR, TALUKA PATAN 384265"
S P PETROLEUM,23.385505,73.434646,,"HP PETROL PUMP, SUR NO 142/1,KHAT NO 129 SH5 MODASA-MALPUR ROAD VILLAGE SOMPURA, TALUKA MALPUR 383345"
AMBICA PETROLEUM,23.234275,72.624126,,"HP PETROL PUMP, SURVEY NO. 866 & 868 K ROAD, NEAR STATE BANK OF INDIA VILLAGE VAVOL, TALUKA GANDHINAGAR 382016"
TIRUPATI DIESEL PETROL SERV STN.,23.150498,72.790486,,"HP PETROL PUMP, SURVEY NO. 1388 PAIKI SH68, NARODA-DEHGAM ROAD POST AND TALUKA DEHGAM 382305"
RAGHAV PETROLEUM,23.835413,72.755852,,"HP Petrol Pump, Plot No 566/P2/P1 SH 10 MADHASANA 384355"
SHIVSHAKTI PETROLEUM,23.43946821,72.51189277,,"HP Petrol Pump, Plot No. 142 SH 217 LANGHNAJ 382730"
G.M.PATEL & CO.,23.29907895,72.57371214,,"HP PETROL PUMP, NEW SURVEY NO. 312 SARDHAV-RUPAL ROAD VILLAGE SARDHAV, TALUKA GANDHINAGAR 382640"
OCEAN PETROLEUM,22.856926,72.594207,,"HP Petrol Pump,SURVEY NO. 1826,1827 NH8 AHMEDABAD VADODARA BAREJA 382425"
MS AVDHOOT PETROLEUM,23.918657,72.36164,,"HIGHWAY RD FULPURA SIDHPUR , SH 41 DIST PATAN 384151"
HSD AVDHOOT PETROLEUM,23.918657,72.36164,,"HIGHWAY RD FULPURA SIDHPUR , SH 41 DIST PATAN 384151"
WESTERN INDIA ENGINEERING,22.724806,72.460302,,"HP Petrol Pump,Survey No.286/4 STATE HIGHWAY 4 DHOLKA 387810"
MEGA PETROLEUM,21.577325,72.998354,,"HP PETROL PUMP NH-8 VILLAGE-BAKROL, NEAR PANOLI DIST BHARUCH 393001"
B.M.PETROLEUM,22.812949,72.934969,,"HP PETROL PUMP, SURVEY NO. 1513-1514 STATE HIGHWAY SH 60 MAHUDHA 387335"
AMBIKA PETROLEUM,22.807606,73.339267,,"HP PETROL PUMP, SURVEY NO. 240/2 STATE HIGHWAY SH 12 SEVALIA, THASRA 388245"
F M AMIN AND CO SAYAJIGUNJ,22.29908989,73.13942542,,"HP PETROL PUMP, CITY SURVEY NO 1575/2 TP 16, FINAL PLOT NO. 140 SAIYAD VASNA RD, NILAMBAR CIRCLE 391410"
GORDHANBHAI KANUBHAI AND COMPANY,21.83685549,73.41332264,,"HP PETROL PUMP, SURVEY NO 1182 SH 64, RAJPIPLA- RAJPARDI RD VILL. AMLETHA, TALUKA RAJPIPLA 393140"
SMITAL PETROLEUM,22.058258,72.814739,,HP PETROLPUMP BARODA-JAMBUSAR SH JAMBUSAR 392150
ADHOC F M AMIN PHULBARI,22.314117,73.151115,,"HP PETROL PUMP, R.S. No. 65, Plot No 28, TP Scheme 2 Gotri, Vadodara City 390021"
P S PATEL PETROLEUM,22.71652051,72.87448953,,"HP PETROL PUMP, SURVEY NO. 2078, 2054/1 STATE HIGHWAY SH 210 KAKARKHAD PARTY, NADIAD 387001"
A G SHAH,22.750139,73.153993,,"HP PETROL PUMP, OPP ST BUS STAND STATION ROAD DAKORE 388225"
KHANVEL PETROLEUM,20.136697,73.062339,,"HPC PETROL PUMP, S. NO. 267/3 SILVASSA TO KHANVEL MAIN ROAD VILLAGE KHANVEL, TALUKA KHANVEL 396230"
PETRO GAS AUTO STATION,22.326756,73.162549,,"HP PETROL PUMP, PLOT NO.1 REVENUE  SURVEY No. 1060/1 NEAR BHAILAL HOSPITAL  GORWA 390016"
VIVEK ROADWAYS,22.203349,73.192344,,"HPCL RETAIL OUTLET NH-8, ALAMGIR MOJE  JAMBUVA 391353"
YASH PETROLEUM,22.570108,73.63226,,"HP PETROL PUMP, PLOT NO. 226/P & 227/2 GHOGHAMBA DEVGADHBARIA ROAD VILLAGE GHOGHAMBA TALUKA HALOL 389365"
VAIDEHI PETROLEUM,21.44392,73.322415,,"HPC PETROL PUMP, BLOCK NO. 25/P JANKHVAV MANDVI ROAD, NEAR ITI,  JANKHVAV, TALUKA : MANGROL 394440"
KRISHAK PETROLEUM,20.909275,73.028993,,"HP PETROL PUMP, BLOCK NO. 579 NH-8, BHULAFALIYA, DISTRICT : NAVSARI, 396530"
SRI SAI VIBHUTI PETROLEUM,21.01445,72.972383,,"HP PETROL PUMP, SURVEY NO. 212, HISSA NO. 2/2/PAIKI NH-8, VILLAGE : PARTHAN, 396475"
SRI SAI KRISHNA PETROLEUM,21.161753,72.992785,,"HPC PETROL PUMP, SURVEY NO.124/A/P1 NH-6, SURAT DHULIA ROAD, TANTITHAIYA, TALUKA PALSANA 384305"
SHREE HARIKRUSHNA PETROLEUM,22.601394,72.834893,,"HP PETROL PUMP, SURVEY NO. 31 STATE HIGHWAY SH 89 VALETWA, NADIAD 388440"
MARUTI PETROLEUM,22.672283,72.861717,,"HP PETROL PUMP, SURVEY NO. 25,26, & 27 STATE HIGHWAY SH 89 PIPLAG, NADIAD 387355"
PARTH PETROLEUM,22.931952,73.336494,,"HP PETROL PUMP, S.NO. 265/PAIKI BALASINORE AHMEDABAD ROAD HANDIA TALUKA BALASINORE 388255"
CPS ECOFRIENDLY FUEL CENTRE,21.156199,72.832531,,"HPC PETROL PUMP, SURVEY NO. 245, 120 FT, BAMROLI ROAD, T.P. SCHEME UDHNA(2), NEAR NATIONAL BANK 394220"
"HP AUTO CARE CENTRE, SAROLI",21.188638,72.88287,,"HP PETROL PUMP, VILLAGE : SAROLI PUNA KUMBHARIA ROAD, NH-6, TALUKA : CHORYASI, 394210"
SAI KRIPA GASOLINE,20.339377,72.941247,,"HPC PETROL PUMP, SURVEY NO. 527, 530/1 VAPI SILAVSSA MAIN ROAD VILLAGE DUNGRA, VAPI 396195"
MAHALAXMI PETROLEUM,20.286617,73.033771,,"HPC PETROL PUMP, SURVEY NO.423/3/1 SILVASSA TO KILVANI ROAD VILLAGE ATHOAL, TALUKA SILVASSA 396230"
SHREE RANG PETROLEUM,22.760203,73.650011,,"HP PETROL PUMP, PLOT NO. 74/1 STATE HIGHWAY NO. 5 VILLAGE GADAKPUR TALUKA GODHRA 389001"
SANJANA PETROLEUM,20.192655,72.808086,,"HPC PETROL PUMP, SURVEY NO. 161/5/P4/P2 SANJAN UMBERGAON MAIN ROAD VILLAGE SANJAN, TALUKA UMBERGAON 396150"
PARAM PETROLEUM,20.766254,73.059042,,"HPCL PETROL PUMP SURVEY NO. 419, Village Thala, NH-8, Taluka Chikli 396521"
BANAS FUEL SERVICE STATION,22.321834,73.093151,,"HP PETROL PUMP, RS NO -513/2/P/1 GOTRI SINHROT ROAD VILLEGE- SHERKHI, TALUKA -VADODARA 391101"
PRESIDENT PETROLEUM,22.784511,73.607692,,"HP PETROL PUMP, SURVEY 919 & 902/3 AHMEDABAD HIGHWAY GODHRA TALUKA GODHRA 389001"
NILKANTH PETROLEUM,21.053517,73.271486,,HPCL PETROL PUMP VALOD BAJIPURA VALOD STATE HIGHWAY SH 5 394640
SAI PETROLEUM,21.761661,73.214767,,"HP PETROL PUMP, VILLEGE -RAJPARDI, SH 64,ANKELSHWAR RAJPARDI ROAD NEAR GMDC FATAK, TALUKA -ZAGADIA 393115"
UNIQUE GASOLINE,20.527279,73.178436,,"HPC PETROL PUMP, PLOT 54A NH56, VAPI DHARAMPUR ROAD DHARAMPUR TOWN ON BYPASS ROAD 396050"
KRUSHNA PETROLEUM,21.204119,72.888546,,"HPC PETROL PUMP, BLOCK NO-127 PARVAT PATIA VALTHAN CANAL ROAD PUNA GAON, PARVAT PATIA, SURAT CITY 395010"
SHRUHADUM PETROLEUM,21.98882,72.867523,,"HP PETROL PUMP, S. NO. 3821, JAMBUSAR BHARUCH ROAD, MAUJE AMOD OPPOSITE MAMLATDAR OFFICE AMOD 392110"
MADHAV PETROLEUM,22.373801,72.726701,,"HP PETROL PUMP, SURVEY NO. 113 STATE HIGHWAY SH 89 BAMANVA, KHAMBHAT 388580"
SAI DARSHAN PETROLEUM,23.009822,73.052011,,"HP PETROL PUMP, SURVEY NO. 287/PAIKI 2/1 STATE HIGHWAY SH 59 MOHAMMADPURA, KAPADVANJ 387620"
AMIN PETROLEUM,22.739603,73.601616,,"HP PETROL PUMP, R.S. NO. 32/5 PAIKI STATE HIGHWAY NO. 5 VANAKPUR TALUKA GODHRA 389001"
KRISHNA PETROLEUM,22.37951,73.19154,,HPCL PETROL PUMP SY NO 1000/3 BLOCK NO 731 AT DUMAD SAVLI HIGHWAY 391740
LG PETROLEUM,22.28438914,73.11821896,,HPCL PETROL PUMP BLOCK NO 1171 BHAYLI RAIPURA ROAD 391410
CHIRAG PETROLEUM,23.06483756,73.61421363,,"HP PETROL PUMP, S.NO. 174A/PAIKI 5 STATE HIGHWAY NO. 5 VIRANIYA TALUKA LUNAVADA 389230"
PIONEER PETROLEUM,22.32827552,73.26279561,,"HP PETROL PUMP, SY NO 42/1/A AT SAYAJIPURA TAL VADODARA 390019"
SAVITABEN & SONS PETROLEUM,22.80393772,73.44988114,,"HP PETROL PUMP, S. NO. 397 PAIKI 2 NATIONAL HIGHWAY NO. 47 TUWA TALUKA GODHRA 388713"
BABJI PETROLEUM,22.89121394,74.02499531,,"HP PETROL PUMP, S.NO. 8 STATE HIGHWAY NO. 62 SHASHTA TALUKA LIMKHEDA 389146"
DEEP PETROLEUM,23.15379033,74.0208965,,"HP PETROL PUMP, S.NO. 148/1 PAIKI 8 STATE HIGHWAY NO. 2 SUKHSAR TALUKA FATEHPURA 389190"
KAMAL VEER PETROLEUM,22.33222444,72.69236371,,"HP PETROL PUMP, SURVEY NO. 490/2, 491/3 STATE HIGHWAY SH 6 UNDEL, KHAMBHAT 388620"
HAKIMI PETROLEUM,22.69495967,74.31361532,,"HP PETROL PUMP, S.NO. 563/PAIKI 3 NATIONAL HIGHWAY 56 GADBADA TALUKA GADBADA 389155"
NEEL PETROLEUM,22.82207174,74.26021144,,"HP PETROL PUMP, S.NO. 333/PAIKI 2 NATIONAL HIGHWAY 47 DOHAD TALUKA DAHOD 389151"
MADHAV PETROLEUM,22.373801,72.726701,,"HPC PETROL PUMP, SURVEY NO. 930/1 VALSAD TO DHARAMPUR ROAD, SH67 NANI DADRI, GADARIYA, TALUKA VALSAD, 396055"
SHREE LAXMI PETROLEUM,21.13017522,73.45561947,,SR NO 265 VILL VIRPUR HAZIRA DHULE ROAD TAL-VYARA 394650
JK PETROLEUM TP10 PAL,21.20047646,72.7750401,,"HPC PETROL PUMP, SUR. NO. 221 TP10 PAL PAL, ADAJAN, SURAT CITY 395009"
ANAYA AUTOFUEL,20.2806968,72.8379679,,"HPC PETROL PUMP, SURVEY NO 1852 SARIGAM NARGOL STATE HIGHWAY VILLAGE MANDA, TALUKA UMBERGAON 396155"
NIDHI PETROLEUM,23.03106713,73.05395671,,"HP PETROL PUMP, SURVEY NO. 43/3, STATE HIGHWAY SH 141 NAVAGAM, KAPADVANJ 387620"
LAXMI PETROLEUM,20.8005409,72.9505694,,"HPCL PETROL PUMP VILLAGE SARIKHURD, SURVEY NO 117 BILLIMORA TO AMALSAD ROAD 396310"
SHRI SAINATH PETROLEUM,22.97855067,73.89060829,,Survey No. 27 paiki 1 Village Vandeli Taluka Hadaf Morwa 389120
VARDAN PETROLEUM,23.06083112,74.15686149,,"HP PETROL PUMP, PLOT NO 303/1/Paiki 2 NATIONAL HIGHWAY No 56 VILLAGE NANSALAI TALUKA JHALOD 389170"
AMOGH PETROLEUMS,15.35017486,75.11192298,,"OPP II GATE, GOKUL INDUSTRIAL ESTATE BESIDE URBAN OASIS MALL, AIRPORT ROAD, HUBLI 580030"
"A.M.SAMYULLA, TUMKUR RD, BN SA",13.051488,77.488323,,"HP Petrol Pump, NH48 (Bengaluru to Tumkur Rd) CHIKKABIDARAKALLU,JINDAL NAGAR 560090"
CARRS ENTERPRISES,13.105276,77.66078,,"HP Petrol Pump, Plot No. 118/2 HENNUR BAGALUR ROAD BANDE HOSUR KANNUR POST, BIDARAHALLI 562149"
MARUTHI SERVICE STATION,12.898603,77.464667,,"HP Petrol Pump,Sy.No.232, NH275 (BANGALORE MYSORE RD) BABUSABUPALYA, KENGERI HOBLI 560060"
MTB FUEL STATION,13.02082759,77.7114574,,Between Avalahalli and K.R.Puram Fly ove Medahalli Bangalore Urban 560049
HAVISH PETROLEUM,12.885531,77.744232,,"HP Petrol Pump, 196/2 Sarjapur Main Road Dommasandra Circle 562106"
R P ENTERPRISES,12.909778,77.687803,,"HP Petrol Pump, No.83/12 SARJAPUR ROAD DODKANHALLI, VARTHUR HOBLI 560035"
CHOWDESHWARI SERVICE STATION,13.25742,77.717134,,"HP Petrol Pump B.B.ROAD OPP. JAIN TEMPLE,DEVANAHALLI TOWN 562110"
H ANJANAPPA AND SONS FUEL POINT,13.08562562,77.41533397,,"HP Petrol Pump,Sy.no.126/2B1, BH Road(Vajarahalli to Arshinkunte) ARSHINKUNTE VILLAGE 562123"
PARSEDIA FILLING STATION RAIRU,26.315968,78.116458,,HP PETROL PUMP AGRA BOMBAY ROAD RAIRU 474010
SHRI GANESH SERVICE STATION,23.280625,77.448879,,"HPC DEALER ,AYODHA BYPASS BHOPAL AYODHA BYPASS ROAD VILLAGE DAMKHEDA ,TEHSIL HUZUR ,BHOPAL 462041"
NEW STAR TRAVELS,23.329201,77.402894,,"HP PETROL PUMP ,LAMBAKHEDA KAROND -LAMBAKHEDA ROAD BERASIA ROAD, BHOPAL 462038"
CAPITAL FILLING STATION,23.249703,77.495416,,"HP PETROL PUMP ,SARDAR PATEL NAGAR BHOPAL RAISEN ROAD 222222 462021"
MOTIJEEL AUTOMOBILES,26.252401,78.141706,,HP PETROL PUMP MOTIJHEEL OLD A B ROAD 474001
GWALIOR SERVICE STATION,26.212114,78.171527,,HP PETROL PUMP NEAR PHOOLBAGH CHAURAHA MLB ROAD 474003
"ANAND FILLING CENTRE, SHAJAPUR",23.447903,76.320641,,"HP PETROL PUMP, PLOT NO 53 & 54 AGRA-MUMBAI ROAD VILLAGE MAJHANIA, SHAJAPUR 465001"
SAI HARILEELA PETROLEUM,26.20060714,78.21630567,,"HP PETROL PUMP SACHIN TENDULKAR MARG, OPP. D B CITY VILLAGE- MEHRA, TEHSIL-GWALIOR 474011"
GAURAV FILLING STATION,26.21801654,78.14839171,,HP PETROL PUMP LAXMIGANJ BAHODAPUR ROAD PANCHWATI COLONY 474012
"SHRI HARILEELA SERVICE,LAXMIGNJ GWLR",26.20555227,78.14032444,,"HP PETROL PUMP LAXMIGUNJ A B ROAD, GWALIOR 474001"
MADAN LAL DINA NATH,30.369852,75.54572,,NEAR BUS STAND BARNALA PUNJAB 148101
VISHAL SERVICE STATION,30.705817,76.78752,,HPC DEALERS SECTOR 31 CHANDIGARH 160031
MEHTA SERVICE CENTRE,30.355779,76.454491,,RAJPURA ROAD KARHERI OPPST PUNJABI UNIVERSTY PATLA 147002
KHALSA OIL STORE,30.710982,76.206327,,MAIN G T ROAD KHANNA  141401
PETRO & AGROWAYS,30.737069,76.683563,,CHANDIGARH-KHARAR RD DAUN PUNJAB 140301
MIDWAY HP CENTRE SWARA,30.681748,76.633878,,VILLAGE: SWARA CHD. - SIRHIND ROAD TEHSIL: KHARAR 140307
DASHMESH HP CENTER,30.632823,76.345636,,VILL: HARBANSPURA TEHSIL: FATEHGARH SAHIB DIST: FATEHGARH SAHIB 140406
"SHIVA HP CENTRE, NABHA",30.640003,76.80481,,"HP PETROL PUMP VILL: NABHA, RAJPURA RD., NH-64 DIST: PATIALA 140603"
GAGAN HP CENTER,30.788103,76.408384,,"VILL POLOMAJRA NH-95, TEHSIL KHAMANOO 140801"
C GEMS & JEWELS P LTD,30.550303,76.485508,,"HPC PETROL PUMP VILLAGE PATARSI , NH 1 SIRHIND RAJPURA ROAD 140406"
GURUHARKRISHAN HP CENTRE,30.421789,76.897098,,"HPC PETROL PUMP VILLAGE HANDESRA, AMBALA DEHRADUN RD MOHALI 140501"
THE GURM GOODS TRANSPORT,30.45092,76.653501,,"HPC PETROL PUMP VILLAGE GHAGGAR SARAI, NEAR KM STONE 221 NH 1, TEHSIL RAJPURA 140401"
GHALORI HP CENTRE,30.313428,76.420556,,VILL GHALORI PATIALA DEVIGARH ROAD PATIALA 147001
SARDAR BACHAN SINGH,30.927152,75.792421,,"HPCL RETAIL OUTLET S.BACHAN SINGH MARG (LADHOWAL BYPASS) VILLAGE - BALLOKE, TEHSIL -LUDHIANA WEST 141001"
MANN HIGHWAY SERVICES,30.82167,75.569343,,CHOWKIMAAN DIST. LUDHIANA LUDHIANA DISTT. 141008
JASSOWAL HP CENTRE,30.370861,76.363599,,BHADSON ROAD JASSOWAL PATIALA 147001
DS FUELS,30.30934673,76.43868119,,HPCL RETAIL OUTLET VILLAGE SANAUR PATIALA SANAUR ROAD 147003
AVINASH SINGH PARAMJIT KAUR,30.77226134,76.06948746,,"VILLAGE JASPALON LUDHIANA-CHANDIGARH HIGHWAY LHS, Tehsil-Khanna 141401"
CITCO PETROL STATION - SECTOR 17,30.742296,76.788839,,SECTOR 17B MADHYA MARG  160017
T. U. PETROS,30.81075911,76.58371601,,VILLAGE PADIALA NEW KURALI BYEPASS NH205 140103
GROWSAN FILLING STATION,30.61946148,76.79745938,,VILLAGE SHATABGARH AEROCITY ROAD TEHSIL DERABASSI 140603
SUKHIJA FUELS,30.77728503,76.721932,,"VILLAGE TIRA PR4, CHANDIGARH KURALI ROAD  140301"
SRI JAYA MARUTHI AGENCY,13.11895623,80.19898448,,"72/2B, 200 FEET ROAD THADHANKUPPAM CHENNAI 600049"
SEKAR FUEL STATION,13.10183188,80.26079417,,Pulianthope Perambur Chennai 600039
AZADPUR SERVICE STATION,28.674115,77.188177,,HP PETROL PUMP KALIDAS MARG GULABI BAGH 110007
KUNDANLAL FILLING STATION-LONI,28.705191,77.291843,,5/8 LONI ROAD GOKULPURI DELHI 110094
KUNDANLAL SERVICE STATION,28.672612,77.252808,,"SHASTRI PARK GT ROAD, NEAR ISBT DELHI 110031"
NORTHERN SERVICE STATION,28.670579,77.17655,,HP PETROL PUMP ROAD NO. 40 NEAR SHASTRI NAGAR METRO STATION 110035
OM SERVICE STATION,28.853682,77.124803,,"HP PETROL PUMP, 15/0 GT KARNAL ROAD SINGHU BORDER 110040"
SHYAM PRAKASH & CO.,28.676621,77.32358,,"HPC PETROL PUMP,G.T. RD.,SHAHDARA,DL -UP BORDER,DELH 110095"
AUTOMOTIVES - LODHI RD,28.591133,77.229844,,HP PETROL PUMP LODHI ROAD BESIDE DAYAL SINGH COLLEGE 110003
BADARPUR SERVICE STATION,28.619635,77.341172,,POCKET C SITE NO 2 IFC GHAZIPUR 110096
BANSAL SER CENTRE,28.659456,77.189443,,NEAR LIBERTY CINEMA ROHTAK ROAD NEW DELHI 110005
BEDI MOTORS RACE COURSE RD.,28.596284,77.204475,,"HP PETROL PUMP LOK KALYAN MARG CHANAKYAPURI, NEW DELHI 110003"
CHADHA SER. STATION - DELHI GATE,28.637915,77.241462,,BAHADUR SHAH ZAFAR MARG TIN NO. 07560082614 NEW DELHI 110002
EVERGREEN SER. STN. - GREEN PARK,28.556833,77.206961,,"HP PETROL PUMP GREEN PARK, AUROBINDO MARG ADJACENT TO GREEN PARK METRO STATION 110016"
HEMKUNT SERVICE STATION,28.585801,77.240473,,HP PETROL PUMP LINK ROAD JUNGPURA NEAR JUNGPURA METRO STATION 110003
NATHU MAL AHUJA & SONS,28.494445,77.303621,,HP PETROL PUMP BADARPUR KM STONE 18 DELHI MATHURA ROAD RD NH19 110044
RAJEEV SERVICE STATION-SUNDER NGR.,28.606255,77.240561,,HP PETROL PUMP SUNDARNAGAR MATHURA ROAD ADJACENT TO SUNDARNAGAR ZOO 110003
RAM LAL BANSIWAL & SONS,28.671705,77.172226,,ROAD NO 40 SHAHZADA BAGH NEW DELHI 110035
BATRA BROTHERS & COMPANY,28.567956,77.223711,,"HP PETROL PUMP SOUTH EX PART 2 INNER RING ROAD, NH48 110049"
PURAN SERVICE STATION,28.653858,77.14739,,"HP PETROL PUMP, KIRTI NAGAR NEAR KIRTI NAGAR METRO STATION NEW DELHI 110015"
ANAND AUTO SERVICE,28.704214,77.181387,,HP PETROL PUMP OLD GT ROAD NEAR HANS CINEMA 110033
DHAULA KUAN SERVICE STATION,28.590179,77.157617,,"HP PETROL PUMP, DHAULA KUAN NEAR RR HOSPITAL, DELHI GURUGRAM ROAD DHAULA KUAN 110010"
BATRA CAR CARE CENTRE-HUMAYUNRD.,28.602175,77.230023,,HP PETROL PUMP HUMAYUN ROAD OPPOSITE KHAN MARKET 110003
WALIA SERVICE STATION,28.545868,77.264186,,HP PETROL PUMP OKHLA IA MAA ANANDMAYI MARG ADJACENT GOVINDPURI METRO STATION 110049
LUXMI SUPER SERVICE STATION,28.573805,77.209006,,LUXMI BAI NAGAR OPPOSITE INA MARKET NEW DELHI 110023
SERVICIRCLE,28.571214,77.25976,,"HP PETROL PUMP ASHRAM CHOWK MATHURA ROAD, NH19 110014"
VICTORY SERVICE STATION,28.676535,77.316699,,NEAR ZULFEBENGALCHEM TIN NO. 07730041829 SHAHDRA DELHI 110095
PANCHSHILA SERVICE STATION,28.561319,77.222735,,"HP PETROL PUMP AUGUST KRANTI MARG, ANDREWS GANJ NEAR HUDCO PLACE 110049"
UGGRASAIN & SONS,28.673241,77.278215,,HP   DEALERS TIN NO. 07260041748 DELHI 110032
SHANTI SERVICE STATION,28.52109,77.294586,,MADANPUR KHADAR MATHURA RAOD MATHURA ROAD 110041
ASSOCIATED SERVICE STATION,28.670024,77.226365,,HPC DEALERS ALIPUR ROAD DELHI 110054
ANAND SERVICE STATION,28.544743,77.121463,,"HP PETROL PUMP, MAHIPALPUR VILLAGE RANGPURI NH-8, NEAR RADDISON HOTEL 110037"
DELHI PUNJAB FIILING STN-SINGHU,28.855739,77.124385,,"HP PETROL PUMP, 16/1 SINGHU BORDER GT KARNAL ROAD 110040"
ROHTAK OIL COMPANY,28.687966,76.962115,,HP PETROL PUMP TIKRI KALAN BORDER MAIN ROHTAK ROAD(OLD NH-10) 110041
BATRA OIL COMPANY,28.854638,77.124552,,"HP PETROL PUMP, 1/26/2 GT KARNAL ROAD SINGHU BORDER 110040"
CH.A.RAM BATRA & SONS,28.666271,77.307025,,COMMUNITY CENTRE VIVEK VIHAR DELHI 110095
CH.A.RAM BATRA & SONS-MAYUR VIHAR,28.613849,77.291919,,SOUTH OF SANJAY LAKE TIN NO. 07950255302 ANANTNAG SRINGR 110091
SHREYANS AUTOMOBILES,28.690319,77.15361,,HP PETROL PUMP NEXT TO WAZIRPUR DTC DEPOT OPPOSITE NETAJI SUBHASH PLACE 110032
SHAHEED ANUSUYA DHYANI SER STN,28.622952,77.11058,,"HP PETROL PUMP, HARI NAGAR NEAR GHANTAGHAR DELHI 110064"
HINDUSTAN SERVICE STATION,28.72716,77.125045,,"HP PETROL PUMP SECTOR-12 OPPOSITE E.S.I HOSPITAL, 110085"
KEELKAR SERVICE STATION,28.715761,77.114901,,"HP PETROL PUMP COMMERCIAL COMPLEX, SECTOR-10 NEAR ROHINI WEST METRO STATION 110085"
BALWAN SERVICE STATION,28.730434,77.121352,,HP PETROL PUMP PSP INSTITUTIONAL AREA SECTOR-16 110085
USHA SPEEDWAYS,28.541359,77.280663,,"HP PETROL PUMP SARITA VIHAR, OPP. APOLLO HOSPOTAL DELHI MATHURA ROAD NH19 110044"
BHARGAVI AUTO SERVICES,28.622491,77.095336,,"HP PETROL PUMP, JANAKPURI NEAR DELHI HAAT, JANAKPURI NEW DELHI 110058"
BANSIWAL SERVICE STATION,28.591506,77.175515,,HP PETROL PUMP SAN MARTIN MARG CHANAKYAPURI 110021
ESSJAY FUELS,28.555853,77.054409,,"HP PETROL PUMP, SECTOR 22 NEAR SECTOR 21 METRO STATION, DWARKA NEW DELHI 110045"
MARTIN MOTORS,28.5687,77.063292,,"HP PETROL PUMP, SECTOR 20 NEAR MARBLE MARKET, SECTOR 20 DWARKA 110045"
AJAY AHUJA FILLING STATION/OKHLA,28.529304,77.272775,,"HP PETROL PUMP OKHLA IA PHASE 3, ADJACENT CROWNE PLAZA KALINDI KUN OKHLA ROAD 110049"
GOPI SERVICE STATION-WAZIRABAD,28.701121,77.286063,,NEAR BHIMRAO AMBEDKAR COLLEGE MAIN WAZIRABAD ROAD DELHI 110092
BHARAT HP CENTRE,28.592906,77.043033,,"HP PETROL PUMP, SECTOR 12 NEAR METRO STATION DWARKA 110075"
PANDIT HP CENTRE,28.608817,76.955102,,"HP PETROL PUMP, PLOT NO. 63/4 VILLAGE MITRAON NAZAFGARH-DHANSA ROAD 110043"
MAA DHANESHWARI HP CENTRE,28.602209,76.970537,,"HP PETROL PUMP, KHAIRA NEAR KHAIRA MOD, VILLAGE KHAIRA NAZAFGARH 110043"
BALAJI FILLING STATION,28.723488,77.16506,,"HP PETROL PUMP, 5/5 MAHINDRA  PARK, (OPP. SUBZI MANDI) GT KARNAL ROAD, NEAR AZADPUT 110033"
SHRI KRISHNA HP CENTRE,28.653199,77.03397,,"HP PETROL PUMP, RANHOLA VILLAGE RANHOLA, NAZAFGARH NANGLOI ROAD TEHSIL NANGLOI 110041"
MOUNT KAILASH HP CENTRE,28.691663,77.146618,,HP PETROL PUMP NETAJI SUBHASH PLACE RING ROAD 110025
KAMLESH HP CENTRE,28.592674,77.023413,,"HP PETROL PUMP, SECTOR 17 Sector 17, DWARKA 110075"
DRIVE AND FILL,28.652776,77.034774,,"HP PETROL PUMP, RANHOLA VILLAGE RANHOULA NANGLOI NAZAFGARH ROAD 110083"
ANGRA HP CENTRE,28.590909,77.196101,,HP PETROL PUMP VINAY MARG CHANAKYAPURI CHANKYAPURI 110048
MOGRA SERVICE STATION,23.039788,88.126595,,"HP Petrol Pump DURGAPUR EXPRESSWAY NH 2 MOUZA-GURAP, PS DHANIAKHALI 712148"
HP SERVICE CENTRE GOBINDAPUR,22.910484,88.197091,,"NH-2 VILL- GOBINDAPUR PO-DANRPUR ,PS-DADPUR 712305"
M/S SUNDER SERVICE STATION,28.379423,77.306228,,BATA CHOWK NIT FARIDABAD 121001
VERMA OIL CO.,28.375301,76.95523,,"KM 46, Near Macdonalds Village Nakhrola Tehsil & District Gurgaon 122105"
RATAN FUELS,28.094501,76.107948,,NASIBPUR MOHINDERGARH HARYANA 123001
RAGHAV FUELS,28.346122,77.067463,,"FORMERLY DHILLON FILLING STATION NEAR POLICE POST SOHNA ROAD, BHONDSI 121104"
HP ASHOK FUEL STATION,28.272947,76.840028,,"DELHI - JAIPUR HIGHWAY 63 KM STONE, BHORA KALAN DIST: GURGAON 122001"
SAHEED TEJ RAM FILLING STATION,28.112329,75.969901,,HPCL PETROLEUM PUMP VILL & P.O. - BALAHA KALAN NARNAUL - SINGHANA ROAD 123001
SHD. SB. HOSHIYAR SINGH F STN,28.204818,76.57506,,VILL KANMAJRA MAHENDERGARH ROAD  123401
M/S HP MANU FUELS,28.40291,77.275348,,SECTOR 49   121001
HP PREM FILLING STATION,27.983665,77.190135,,"VILLAGE UTTAWAR NUH - HODAL ROAD, TEHSIL HATIN 121103"
DIPIN FUEL STATION,28.282974,76.874326,,BILASPUR TAURU ROAD VILLAGE PATHRERI  122001
HP KRISHNA PETROLEUM,28.06575055,77.01186975,,VILLAGE MALAB ON NH-248A  122107
OM FILLING STATION,28.32607457,76.32026677,,KHEWAT NO -1203  KHATONI NO 1304 KILLA NO 209//8/1 VILLAGE KANINA 123027
HP SARLANAND,28.18299673,77.31620715,,"VILL AGWANPUR 54 MILE STONE, DELHI AGRA ROAD (NH2)  121102"
MANGALDEEP FILLING STATION,28.32352,76.272222,,HPC PETROL PUMP VILL. CHELAWAS KANINA - M'GARH ROAD 123027
SS FILLING STATION,28.164699,76.630036,,"HPC RETAIL OUTLET VILL. PADNIWAS GARHI BOLNI ROAD, OPP. MANCHANDA FLATS 123401"
HP FUELS,28.204108,76.67135,,HPC PETROL PUMP VILL. FIDEDI REWARI-DHARUHERA ROAD (NH-71B) 123401
DHINGRA FILLING STATION,28.176313,76.610996,,HPC RETAIL OUTLET VILL. CHANDPUR 1.5 KM REWARI-BAWAL ROAD 123401
GURU CHHAYA PETRO MOBILE,28.31928,76.613928,,"HPC Petrol Pump Vill. Basota Near Rohdai Mor, Rewari- Jhajjar Road 123401"
HANSRAJ SUDARSHAN KUMAR,29.951595,74.72641,,MANDI DABWALI DISTT. SIRSA SIRSA 125104
ARYA FILLING STATION,29.352987,76.291838,,"HP PETROL PUMP JIND - NARWANA ROAD, NH 352 AHIRKA 126102"
NAVDEEP FILLING STATION,29.510237,76.175303,,"HP PETROL PUMP JIND - NARWANA ROAD, NH 352 VILLAGE - SAPA KHERI 126115"
ADARSH FILLING STATION,29.292475,76.393839,,"HP PETROL PUMP JIND - GOHANA ROAD, NH352A VILLAGE- BRAH KHURD 126102"
HP AMANDEEP FILLING STATION,29.282527,76.326213,,"HP PETROL PUMP JIN D- ROHTAK ROAD, NH 352 JIND 126102"
GODARA PETROLEUMS,29.662381,75.563871,,"HP PETROL PUMP FATEHABAD - RATIA ROAD, SH21 RATIA 125051"
BHADU FILLING STATION,29.40437,75.558847,,"HP PETROL PUMP HISAR-FATEHABAD ROAD, NH9 BADOPAL 125055"
SANKAT MOCHAN FILLING STATION,29.148587,76.39461,,"HP PETROL PUMP JIND - ROHTAK ROAD, NH 352 JULANA 126101"
RAM CHANDER PANSARI FS,29.530217,75.088963,,"HPCL RETAIL OUTLET, VILL: BAJEKAN SIRSA NH9 125055"
AGGARWAL PETRO STATION,29.449,76.6443,,"HP PETROL PUMP PANIPAT-ASANDH ROAD, SAFIDON VILLAGE- AFTABGARH 126112"
KASHYAP & CO,22.715404,75.841048,,"HPC R/O DEALER 204, JAWAHAR MARG RAJMOHALA 452004"
MANNALAL LACHHIRAM & SONS,22.697987,75.877697,,NAVLAKHA CHOURAHA INDORE TEH INDORE 452001
MANNA LAL LACHHIRAM,22.697987,75.877697,,NAVLAKHA CHOURAHA INDORE TEH INDORE 452001
PAINTS & PET PRODUCTS,22.713054,75.872423,,26 KIBE COMPOUND DIESEL HOUSE STN RD INDORE 452001
GOPIKISHAN CHHOGALAL,22.583009,75.77876,,AGRA MUMBAI ROAD RASALPURA MHOW INDORE 452001
GOPIKISHAN CHHOGALAL,22.583009,75.77876,,AGRA MUMBAI ROAD RASALPURA MHOW INDORE 452001
CHOUDHARY HIGHWAY SERVICE,22.441072,75.625987,,KANKARIA MANPUR PO MANPUR  453661
RANISINGH AUTOMOBILES,23.387007,75.059684,,HPC DEALER MHOW NEEMUCH RD RATLAM 457001
SUPREME AUTO CENTRE,22.774522,75.903019,,MUMBAI AGRA ROAD NIRANJANPUR INDORE 452010
BABA FUEL STATION,23.124241,76.147832,,HPCL PETROL PUMP VILL-BHERWA KHEDI(TONK KALAN) TEH TONK KHURD AB ROAD 455117
KIMTEE BROS,22.708784,75.829703,,"HPCL PETROL PUMP 204,DHAR ROAD LABRIYA BHERU 452001"
SHAKTI FUEL STATION,22.689586,75.887937,,"22A,23B, VIJAY UDYOG NAGAR SCHEME NO. 94 H, RING ROAD, INDORE 452001"
MADHUR FUEL STATION,22.681783,75.861201,,"HPCL PETROL PUMP NEAR RAJIV GANDHI CIRCLE RING ROAD, INDORE 452001"
MAA PARVATI FUEL POINT,22.768392,75.913368,,"VILLAGE : PIPLIYAKUMAR NEAR BHAWAN PROMINENT SCHOOL NIPANIA ROAD, INDORE 452010"
YATHARTH FILLING STATION,23.034507,75.828354,,HPC DEALER VILLAGE : PANTHPIPLAI INDORE UJJAIN ROAD (SH 27) 456006
UTTAM PETRO POINT,22.55494,75.785792,,"HPC DEALER VILLAGE : SUTARKHEDI , MHOW SIMROL ROAD TEHSIL MHOW 453441"
HARDIK PETRO POINT,23.012363,75.242878,,HP PETROL PUMP BADNAWAR PETLAWAD ROAD SH - 18 BADNAWAR 454660
PATIDAR FUEL STATION,22.727171,75.926911,,HPC DEALER KANADIA ROAD NEAR KANADIA ROAD BYPASS JUNCTION 452001
ANYA ENERGIES,22.740899,75.78592,,HPCL PETROL PUMP GANDHINAGAR INDORE DEPALPUR ROAD 453112
SHRADDHA FILLING STATION,22.676916,75.574141,,HPCL PETROL PUMP GRAM JHALARA (BETMA) INDORE AHMEDABAD ROAD (NH-59) 453001
MAA RENUKA FILLING STATION,22.679374,75.969078,,HPC DEALER VILLAGE: MALIKHEDI NEMAVAR ROAD NH-59A 452016
AASHIRWAD AUTOMOBILES,23.007189,74.589472,,HPCL PETROL PUMP PETLAWAD ROAD THANDLA 457777
BHANDARI HIGHWAY PETROLEUM,22.793773,74.475073,,NH-59 PITOL  457661
SANWARIYA FILLING CENTER,22.97168796,76.38178741,,HPC DEALER VILLAGE KARADIYA GADA SONKUTCH 455118
SAACHI HP,26.869262,76.193517,,"HPC PETROL PUMP AGRA ROAD, NH 11 VILLAGE GOTHDA 302015"
SARITA FILLING STATION,27.707584,76.736545,,VILLAGE KITHOOR ALWAR BHIWADI ROAD  301028
TIRUPATI FUEL CENTRE,27.5719633,76.0739579,,"HP PETROL PUMP KHASRA NO 991/3, VILLAGE HEER KI BAVADI PAOTA, TEHSIL KOTPUTLI 303106"
RAJAWAT FARMS HP CENTRE,26.8357116,75.7688646,,RAJAWAT FARMS NEW SANGANER ROAD MANSAROVAR 302020
NAVAN FILLING STATION,26.708874,75.271093,,"HP PETROL PUMP NH 48, AJMER ROAD VILLAGE GIDHANI 303008"
MASTER SERVICE STATION,24.670613,76.835478,,"HP Petrol Pump, Kh no. 200/1 Chhabra Baran Road Chhabra Town 325220"
SAINIK SERVICE STATION KOTA,25.18306,75.90337,,"HP PETROL PUMP,Khasra No. 27 BORKHEDA ROAD NAYA NOHRA 324002"
SAI KRIPA HIGHWAY SERVICES,26.253707,74.487864,,HP PETROL PUMP JAIPUR-JODHPUR NATIONAL HIGHWAY NH-8 MANGLIYAWASH 305203
SHAHEED MOHAN KATHAT F STATION,26.081676,74.333909,,"HP PETROL PUMP, PLOT NO. 1117/1 NH8(JAIPUR TO UDAIPUR ROAD) TEHSIL BEAWAR 305901"
BALLAJI FILLING STATION,25.156501,77.026771,,"HP Petrol Pump, Khasra no. 275 NH-27, Kota Shivpuri Road Village Samraniya 325217"
BOHRA FUEL STN SAYAPURA,26.858197,77.923994,,"HP Petrol Pump, Plot No. 552 NH3 VILL: SAYAPURA 328001"
SHRI PARSHWANATH FILLING STATION,26.73538,77.900508,,"HP PETROL PUMP, Plot No. 377/2 NH3 OPP. SADAR POLICE STATION, DARIYAPUR 328001"
PRAGATI HP CENTRE,27.206275,77.495399,,"HP Petrol Pump, PlotNo.YOJNASWARNJAYANTI AGRA ROAD NEAR KALI KI BAGICHI 321001"
RAJ FILLING STATION,24.636942,75.933847,,"HP PETROL PUMP,Khasra No. 3159 HIGHWAY SH9B Kherabad 326022"
SH.BALAJI FILLING STATION,25.120205,76.510862,,"HP Petrol Pump, Khasra no. 2345/116 Baran Mangrol Road Baran City 325205"
HONEY FILLING STATION,24.926103,76.42446,,"HP PETROL PUMP, Khasra No 597 HIGHWAY SH51 Bapawar 325207"
ARUN FILLING STATION,25.314975,76.515538,,HPC PETROL PUMP NEAR POWER HOUSE MANGROL 325215
R.D. FUEL STATION,25.154172,76.276423,,"HP Petrol Pump, Kh no. 317, 1252/317 NH-27, Kota Shivpuri Road Village Anta 325202"
HP CENTRE COCO MALHA,27.19053,77.473414,,VILLAGE MALAH NEAR VILLAGE RAMPURA DIST-BHARATPUR 321001
SHREE VINAYAK PETROLEUM,26.14317643,74.69719253,,"HP PETROL PUMP,PLOT NO.2123,2124 NH79(AJMER TO BHILWARA) TEHSIL NASIRABAD 305621"
HP FUELS,28.204108,76.67135,,"HP Petrol Pump, NEAR BUS STAND RAMESWARAM 623526"
MANGALORE SERVICE STATION,12.922716,74.858548,,HPC DEALER KAVOOR BAJPE ROAD KAVOOR 575001
SRI BALAJI FUEL STATION,13.06979,74.797042,,HPC DEALER KARNAD - NH 17 KARNAD 574154
RAI SERVICE STATION,12.976735,74.803868,,HPC DEALER HOSABETU NH 17 575019
A.D. ADAJANIA & CO,18.961055,72.820096,,HP PETROL PUMP 25 RAJARAMMOHAN ROY ROAD MUMBAI 400004
AUTOMOBILE CENTRE,19.085958,72.838294,,OPP KHIRA NAGAR S V ROAD SANTA- CRUZ MUMBAI 400054
"AUTOMOBILE RESORT,DEONAR",19.045645,72.91636,,"HP PETROL PUMP, NEAR TELECOM FACTORY SION-TROMBAY ROAD, DEONAR 400074"
BRIGHT AUTOMOBILES,19.096086,72.883919,,H P C DEALERS SAFED POOL  MOHILI ANDHERI -KURLA ROAD  MUMBAI 400072
CAR CARE CENTRE-GOREGAON,19.159728,72.857078,,WESTERN EXPRESS HIGHWAY AAREY FLYOVER PAHADI 400063
"CITY SERVICE,PRABHADEVI",19.017825,72.830889,,"HP PETROL PUMP CADELL ROAD, PRABHADEVI MUMBAI 28 400028"
COTTON GREEN SERVICE STATION,18.98596,72.842566,,"HP PETROL PUMP 2,JACKERIA BUNDER RD, COTTON GREEN  400033"
DIAMOND AUTO SERVICE,19.053783,72.892524,,"HP PETROL PUMP, NEAR AKBARALLY'S CHEMBUR 400071"
DINESH AUTO SERVICE,19.093922,72.913338,,"HP PETROL PUMP, B/6, LBS MARG, GHATKOPAR WEST 400086"
"H.IRANI & CO,LALBAUG",18.989531,72.835463,,"HP PETROL PUMP, DR AMBEDKAR ROAD LALBAUG 400012"
JANASEVA PETROL S/STN.KURLA,19.084787,72.885138,,"HP PETROL PUMP, AGRA ROAD KURLA 400070"
"KAPADIA BROS, MALAD",19.195594,72.846996,,GORASWADI ROAD NO.2 S V ROAD MALAD(W) 400064
MAHAVIR AUTO SERVICE,19.06529,72.874814,,"HP PETROL PUMP, AGRA ROAD KURLA 400070"
OSHIWARA S/STN,19.148639,72.843299,,OSHIWARA BRIDGE S V ROAD JOGESHVARI (WEST) 400102
PARKAR BROS.,19.146067,72.830013,,A-36 MALWANI LINK RD LOKHANDWALA AREA ANDHERI WEST 400053
PATIL SERVICE STN.,19.117476,72.844366,,OPP BANK OF INDIA S V ROAD ANDHERI WEST 400058
SUBURBAN SERVICE STATION,19.057835,72.836902,,261 S VIVEKNAND RD BANDRA (W)  400050
ZOJWALLA PETROLEUM,19.183491,72.948674,,"HP PETROL PUMP, LBS MARG, NEAR R-MALL MULUND 400080"
TARDEO SERVICE STATION,18.973991,72.81401,,HP PETROL PUMP OPP AIR COND MARKET 75 TARDEO ROAD 400034
AMERICAN AUTO SUPPLY CO,18.976071,72.836909,,"HP PETROL PUMP, VICTORIA ROAD, OPP RUSTOM BAUG BYCULLA 400027"
"STAR SERVICE STATION, GHATKOPAR",19.08609,72.894975,,"HP PETROL PUMP, KERAWALA ESTATE. AGRA RD, GHATKOPAR 400086"
BATRA BROTHERS,19.104999,72.88758,,HPC DEALERS SAKI VIHAR ROAD SAKINAKA JUNCTION 400072
BTA - KURLA,19.076291,72.877415,,"HP PETROL PUMP, NEAR BEST DEPOT KURLA WEST 400070"
BBY TAXI ASSOC-HAINS RD,18.987948,72.823244,,HP PETROL PUMP DR E MOSES ROAD NEAR FAMOUS STUDIO 400011
EXCEL SERVICE STATION,19.103039,72.833469,,JUHU VILE PARLE DEV. SCHEME  JUHU  400056
GULATI AUTOMOBILES,19.055234,72.837426,,"239, S V ROAD BANDRA  400050"
HIND AUTOMOBILES PAREL,19.006023,72.840697,,"HP PETROL PUMP, ST XAVIER STREET PAREL TT 400012"
HIND AUTO-DONGRI,18.958526,72.837701,,HP PETROL PUMP 70 SANDHURST ROAD CHINCH BUNDER NAKA 400009
"HIND AUTOMOBILE, KING CIRCLE",19.028544,72.858112,,"HP PETROL PUMP, KINGS CIRCLE  400019"
"HIND AUTO, MAHIM",19.036818,72.842114,,52 LADY JAMSHEDJI RD MAHIM  400016
CHAMAN AUTOMOBILES,18.968725,72.845434,,HP PETROL PUMP 277 REAY ROAD MUMBAI 10 400010
JIVAN SERVICENTRE,19.128121,72.832199,,ANDHERI VERSOVA ROAD ANDHERI (W)  400058
MAROL AUTO SERVICE,19.108411,72.878065,,HP   DEALERS ANDHERI KURLA  ROAD MAROL NAKA 400059
"MANGATRAM AND SONS, BHANDUP",19.139687,72.930846,,"HP PETROL PUMP, LBS MARG, BHANDUP 400078"
MUKAND SUPER SERVICE,19.142723,72.842707,,S.V.ROAD JOGESHWARI (WEST)  400102
NATIONAL HIGHWAYTRUCKINGCENTRE,19.067742,72.900479,,"HP PETROL PUMP, GHATKOPAR MAHUL ROAD, PLOT NO 76/77 AMAR MAHAL, CHEMBUR 400089"
ROYAL AUTO SUPPLY CO,18.960939,72.832219,,"HP PETROL PUMP, SIR IBRAHIM RD BHENDI BAZAR 400003"
SONAL SUPER SERVICE HPC DEALER,18.988562,72.831347,,HP PETROL PUMP SITARAM MILL COMPOUND ND DELISLE ROAD 400011
SACHDEVA AUTOMOBILES,19.178721,72.846158,,"S V ROAD , CHINCHOLI NAKA  , MALAD(W)   400064"
WESTERN PETROLEUM-VIKHROLI,19.110398,72.925631,,"HP PETROL PUMP, MUMBAI AGRA ROAD VIKHROLI 400079"
"CHHAGAN MITHA, LAMINGTON ROAD",18.971976,72.822434,,"HP PETROL PUMP 29 MEGHRAJ SETHI MARG(SOUTER ST) LAMINGTON ROAD, MUMBAI CENTRAL 400008"
AUTO CARE CENTRE BHANDUP WEST,19.156797,72.937805,,"HP PETROL PUMP, LAL BAHADUR SHASTRI MARG OPP SHANGRILA BISCUIT FACTORY, BHANDUP 400078"
SAISH PETROLEUM,18.955924,72.842454,,"HP PETROL PUMP MANSION ROAD,ELPHINSTON ESTATE 31 P D MELLO ROAD 400009"
"HP SERVICE CENTRE,BANDRA",19.053642,72.838087,,267 S V ROAD BANDRA(WEST) 400050
"HP SERVICE CENTER,SION",19.043883,72.864726,,"90/91, SION-TROMBAY ROAD OPP SION BUS DEPOT SION-EAST 400022"
HP SERVICE CENTRE VILE PARLE,19.098382,72.83978,,"HPCL RETAIL OUTLET 97, SV ROAD,OPP PAWAN HANS VILE PARLE (WEST) 400056"
DESHMANE PETROLEUM,20.151571,73.983003,,"S.NO.449/6, PIMPALGAON (BASWANT), MUMBAI - AGRA ROAD, NH-3, TQ. NIPHAD, 422209"
YOSHITA PETROLEUM,20.026644,73.998568,,"GAT NO.6 + 7 VILLAGE CHANDORI, TALUKA NIPHAD, 422303"
AUTO CARE CENTRE OZAR,20.075547,73.909912,,"GAT NO. 23/2/1 MUMBAI AGRA ROAD, NH-3 OZAR, TAL: NIPHAD, NASHIK 422206"
RAM PRAKASH MULK RAJ,30.576572,76.941231,,"HP PETROL PUMP NH-7,  BARWALA VILL: SULTANPUR, PO: BARWALA 134118"
SURINDER NATH SHRAVAN KUMAR,29.9957,77.054702,,"HP PETROL PUMP PEHOWA ROAD, SH6 LADWA 136132"
DHARAM FILLING STATION,28.975846,77.088963,,"HP PETROL PUMP PANIPAT-DELHI ROAD, NH-44 BAHALGARH 131021"
SINGLA FILLING STATION,30.712475,76.848324,,CHANDIGARH KALKA RD PANCHKULA HARYANA 134109
LACHHMAN DASS FILLING STATION,29.97832278,76.90869343,,"HP PETROL PUMP PEHOWA ROAD, SH6 SIRSAMA 136131"
HP JAIN AUTO,29.192101,76.74969,,"HP PETROL PUMP ROHTAK-PANIPAT ROAD, NH-709 VILLAGE MUNDLANA 131306"
C M HP CENTRE,30.401496,76.838746,,"HP PETROL PUMP NH 344 VILLAGE PANJOKHRA, AMBALA 134007"
PREMIUM HP CENTRE,30.267727,76.961071,,"HP PETROL PUMP SAHA SHAHBAD ROAD, NH 444A VILL BIHTA, AMBALA 133101"
BALAJI FILLING STATION,28.723488,77.16506,,"HP PETROL PUMP DELHI AMBALA ROAD, NH44 TEORA 136135"
DHILLON FILLING STATION,30.027531,76.884218,,"HP PETROL PUMP DELHI AMBALA ROAD, NH44 KHANPUR KOLIYAN 136131"
ABHAY HIGHWAYS,30.263796,76.853845,,"HP PETROL PUMP NH 44 VILLAGE MOHRA, TEH AMBALA 133001"
BHAGAT FILLING STATION,29.007633,77.034383,,"HP PETROL PUMP SONIPAT-MURTHAL ROAD, SH-20 SONIPAT CITY 131001"
GAURAV FILLING STATION,26.21801654,78.14839171,,"HP PETROL PUMP KHARKHAUDA-SONIPAT ROAD, NH-334B VILLAGE KHARKHAUDA 131403"
YAMUNA FILLING STATION,28.986445,77.181495,,"HP PETROL PUMP BAHALGARH-MERUT ROAD, NH-334B VILLAGE MIRAKPUR 131001"
FATEH FILLING STATION,30.24164146,77.12065981,,HP PETROL PUMP NH 344 VILLAGE KHAN AHMADPUR 133202
SANGOI SERVICE STATION,18.53058,73.847133,,1160 GANESHKIND ROAD OPP RAHUL PUNE 411005
CHAKAN PETROL DEPOT,18.760701,73.85984,,PUNE NASIK ROAD AT POST CHAKAN DIST PUNE 410501
SHRI VENKATESH PETROLEUM,18.462954,74.330775,,HPC DEALER NEW GAT NO 61 KHEDGAON TAL DAUND PUNE 412203
KALE SERVICE STATION,19.048156,73.835776,,DEALER GHODEGAON TAL AMBEGAON DIST PUNE 412408
KHED TAL SAHA KV SANGHA LTD,18.844431,73.881496,,GAT NO 81 2 CHANDOLI NH 50 TAL KHED DIST PUNE 410505
AUTO CORNER,18.489043,74.063252,,LONI KARBHOR MUMBAI -PUNE NATIONAL HIGHWAY KUNJERWADI 411005
HIGHWAY PETROLEUM CENTRE,18.506866,73.88557,,2 SHOLAPUR ROAD POONA POONA 1 411001
JANSEVA MANDAL,19.182163,74.095164,,WADGAON ANAND ALEPHATA NH50 PUNE NASIK HIGHWAY 412411
SHEETAL PETROLEUM,18.4691,73.888626,,"PLOT NO 4,SNO 40/1/5 MITHA NAGAR KONDHWA, PUNE 411048"
OMKAR PETROLEUM,23.105409,72.63088,,"H.P. PETROL PUMP GAT NO 944, VILLAGE sANASWADI,tAL:SHIRUR 412208"
BALWADKAR AUTO SERVICE,18.601221,73.754381,,SY NO 132 NEAR WAKAD POLICE STATION MUMBAI-BANGALORE HIGHWAY VILLAGE-WAKAD 411057
SAMARTH SERVICE STATION,18.59048,73.747271,,Sr. No.29/1+2+3 Plot No 1 HINJEWADI  411057
SAI EXPRESSWAY SERVICE,18.628197,73.742491,,SR NO. 157 HISSA NO 2/1A VILLAGE :TATHAWADE 411033
BARAMATI TALUKA K.V.S. LTD,18.184061,74.6109,,"BARAMATI BHIGWAN ROAD BARAMATI MIDC BARAMATI, TAL. BARAMATI 413102"
SHINDE AUTOMOBILES,18.66819,73.727836,,SNO-37/4B KIWALE TAL-HAVELI MUMBI -PUNE HIGHWAY 412101
SHRI VITTHAL PETROLEUM,18.481001,73.954622,,NEW SR NO 177/1/36 VILLAGE FURSUNGI TALUKA HAVELI 412308
OM PETROLEUM,23.494076,71.787981,,"GAT. NO. 198, HISSA NO. 1 VILLAGE-NAIGAON/KAMSETH MUMBAI-BANAGALORE HIGHWAY 410505"
KHANDGE SERVICE STATION,18.724091,73.681733,,TALEGAON DHBHADE TALEGAON TAL-MAVAL 410507
HARE KRISHNA PETROLEUM,18.739758,73.745325,,"TALEGAON-CHAKN ROAD SH-55 GAT NO. 180/1 (PART), SUDWADI TAL-MAWAL 412109"
JAGTAP PATIL PETROLEUM,18.597105,73.812271,,"SY. NO. 79, APPASHEAB JATAP PATIL COLONY KASARWADI BRIDGE ROAD SUARSHAN NAGAR, PIMPLE GURAV 411027"
SHAHID JAYAWANT PATIL PETROLEUM,18.204857,73.9379,,GAT NO 226 AT/PO-KIKWI TAL-BHOR 412206
GANGA PETROLEUM,18.818439,74.36489,,"S NO. 1147, PLOT NO 24,25,26,29,30,31 BAURAO NAGAR, VILLAGE SHIRUR TAL-SHIRUR, PUNE NAGAR ROAD (SH 60) 412210"
RAJGARH PETROLEUM,18.322433,73.857067,,"GAT NO. 145, VILLAGE-SHIVRE TAL-BHOR PUNE BANGALORE ROAD (NH4) 412205"
SWAMI SAMARTH SERVICE STATION,18.4989934,73.92050079,,"Survey No 107/1, Final Plot No 7 Sub Plot No.S1, Hadapsar Industrial Area TPS-2, Hadapsar 411013"
BARAMATI TALUKA SAH DOODH SANGH,18.15543748,74.5642897,,GAT NO 210/1/A/3/1/1 KHANDOBA NAGAR CHOWK MORGAON BARAMATI ROAD 413102
ANAND PETROLEUM,18.934636,73.933838,,"GAT. NO. 572/573 AT POST-PETH, TAL-AMBEGAON NH-50 PUNE-NASIK HIGHWAY, 410512"
NRUSINHA PETROLEUM,18.62453786,73.75821679,,"SURVEY NO 9/1 , RAVET - DANGE CHOWK RAVET - DANGE CHOWK BRT ROAD, NEAR BALAJI LAW COLLEGE,PO. TATHAWADE 411033"
MAGAR FUEL STATION,18.48819508,73.93230484,,"Sr. No. 309, Towards Handewadi Mohammadwadi Railway Crossing Hadapsar 411028"
DEOKAR PETROLEUM,18.48789199,74.08223103,,GAT NO 744A PUNE SHOLAPUR ROAD SORTAPWADI 412110
SONAJ PETROLEUM,18.296847,74.752724,,"PUNE SOLAPUR ROAD NH-9 BHIGWAN, TAL. INDAPUR 413130"
PRITHVIRAJ PETROLEUM,18.158962,73.844606,,"Gut No 291, Bholawade Tal Bhor 412206"
MS/HSD SHREE AMBIKA PETROLEUM,22.249764,70.683494,,HP PETROL PUMP RAJKOT-JAMNAGAR HIGHWAY SH-23 VAJDI 360005
MARUTI PETROLEUM,22.672283,72.861717,,HP PETROL PUMP RAJKOT-PORBANDAR HIGHWAY NH-27 SHAPAR 360002
RADHE PETROLEUM,21.754124,71.001737,,HP PETROL PUMP JETPUR-VASAVAD ROAD DERDI 365601
YOGI PETROLEUM,23.196656,72.630118,,"HP PETROL PUMP SURVEY NO. 4/ P-1/P-1 SH-26, JUNAGADH BILKHA ROAD KHADIA 362263"
MS/HSD OM PETROLEUM,22.310458,70.767494,,"HP PETROL PUMP 150 FEET RING ROAD , NEAR RAMAPIR CHOCK RAJKOT 360005"
SUDARSHAN PETROLEUM & COMPANY,22.898137,69.440285,,"HP PETROL PUMP NH 8 A EXTN. SUR. 231 PAIKI, VILL. TALWANA, TAL MANDVI 370460"
PARISHRAM PETROLEUM,23.003075,71.175422,,"HP PETROL PUMP, SURVEY NO. 1785 VIRAMGAM - MALIYA STATE HIGHWAY HALVAD, TALUKA HALVAD 363330"
RAJ AUTOMOBILES,22.289448,70.8019,,HP PETROL PUMP CANAL ROAD RAJKOT 360002
"P H WADIA AND SONS, JETPUR",21.754399,70.617761,,"HP PETROL PUMP OLD NH 8B ROAD,NEAR ST BUS STAND JETPUR 360370"
SHRINATHJI PETROLEUM,22.051375,71.21909,,HP PETROL PUMP JASDAN-VINCHIYA ROAD SH-1 JASDAN 360050
SHREE JALARAM WOOD& PETRO. PRODUCTS,23.230761,69.6404,,"HP PETROL PUMP , PLOT NO .- 870 BHUJ MIRZAPUR ROAD SH 42 MIRZAPUR 370001"
KOTESHWAR AUTO CENTRE,22.277069,70.839239,,"HP PETROL PUMP OPPOSITE OCTROI NAKA, AJI DAM AJI 360003"
SIDDHIVINAYAK PETROLEUM,22.885751,70.837451,,"HP PETROL PUMP, SURVEY NO. 61/P, NH 27, VILLAGE NAVA SADULKA OPPOSITE LAKSHAMI NAGAR, TALUKA MORBI 363642"
"HP AUTO CARE CENTRE, RMC-2",22.277191,70.777758,,"HP PETROL PUMP FINAL PLOT NO :4,150 FEET RING ROAD RAJKOT 360005"
SHREEJI PETROLEUM,21.82999,71.015039,,HP PETROL PUMP GONDAL-VASAVAD HIGHWAY SH-31 VASAVAD 364490
SANTRAM PETROLEUM,21.960792,70.768761,,"HP PETROL PUMP,PLOT NO. 1 & 12 GUNDALA ROAD GONDAL 360311"
SAHARA FILLING STATION,21.954442,70.808183,,"HP PETROL PUMP,PLOT NO. 1&2 MOVIYA ROAD GONDAL 360311"
SILVER PETROLEUM,22.728898,70.787725,,"HP PETROL PUMP, SURVEY NO. 326 STATEHIGHWAY NO 24, RAJKOT MORBI HIGHWAY VILL. LAJJAI, TAL. MORBI 363650"
MAVDI FUELS,22.246467,70.772439,,"HP PETROL PUMP,FINAL PLOT NO. 52 MAVDI -PAL ROAD MAVDI 360004"
JAY SHREENATHJI PETROLEUM,21.81799507,70.74634942,,HP PETROL PUMP GOMTA-DERDI HIGHWAY SH-31 LILAKHA 360311
PREM PETROLEUM,22.34442868,70.78958092,,HP PETROL PUMP 150 FEET RING ROAD RONKI 360006
JAI BABARI PETROLEUM,21.87124597,70.70829554,,HP PETROL PUMP RAJKOT-PORBANDAR HIGHWAY NH-27 GOMTA 360320
NILKANTH PETROLEUM,21.053517,73.271486,,"HP PETROL PUMP RSA NO. 272, KHATA NO. 221, VILLAGE MOTAVADALA 361162"
"HP AUTO CARE CENTRE, RMC-6",22.31642294,70.82670005,,"HP PETROL PUMP, FINAL PLOT NO:94 T P SCHEME :12,NEAR GREEN LAND CHOKADI RAJKOT 360005"
HP AUTO CENTRE RMC 4,22.3010561,70.76154713,,"HP PETROL PUMP,T P SCHEME NO. 4, FINAL PLOT :654,RAIYA SHOPPING CENTRE,RAIYA RD RAJKOT 360007"
SAHAJ PETROLEUM,22.37326796,70.79972324,,HP PETROL PUMP RAJKOT-MORBI HIGHWAY SH-24 GAURIDAD 360006
JAYNATH TRADERS,22.287837,70.826066,,HP PETROL PUMP BHAVNAGAR ROAD RAJKOT 360003
JANATA SERVICE STATION,17.334509,78.442213,,"HP PETROL PUMP, H NO8-13-96, SY NO.49/A Opp National Police Academy, HASANNAGAR DIST RANGAREDDY 500264"
MS/HSD HABEEB SERVICE STATION,17.378015,78.420522,,"HP PETROL PUMP, DO. NO.9-1-45/3 LANGER HOUSE HYDERABAD 500008"
SAINATH FILLING STATION,17.466302,78.505163,,"HP PETROL PUMP, SURVEY NO. 54/1 SECUNDERABAD THIRUMALGIRI ROAD TRIMULGHERRY, SECUNDERABAD 500015"
K V S SERVICE STATION,17.473578,78.473796,,"HP PETROL PUMP, SURVEY NO. GLR 516 (PT) BOWENPALLY KOMPALLY ROAD BOWENPALLY, SECUNDERABAD CANT 500011"
SAI NIKHIL SERVICE STATION,17.349147,78.513355,,"HP PETROL PUMP, H NO. 9-6-1, S NO. 1-7 CHAMPAPET, KANCHANBHAG HYDERABAD 500060"
HYTECH FUEL STATION,17.359026,78.442747,,"HP Petrol Pump, SY. No.19-5-482/A/7&8 NANDIMUSALAIGUDA 19-5-482/A/9/10/2 500264"
BHARGAVI FILLING STATION,17.486932,78.599969,,"HP PETROL PUMP, SURVEY NO. 358(P) NAGARAM VILLAGE, RAMPALLY X ROADS KEESARA MANDAL 500083"
YOGITHA FLG STN BACHUPALLY,17.539026,78.359261,,"HP PETROL PUMP, SURVEY NO. 500(P) GANDIMAISAMMA BACHUPALLY ROAD BACHUPALLY VILLAGE, QUTHBULLAPUR MANDAL 500072"
SHAMSHABAD AIRPORT FILLING STATION,17.249387,78.474035,,"HP PETROL PUMP, DO. NO. 9-4-112 KANCHAIMARAT, SIRSAILAM HIGHWAY 500031"
CHAKRA FILLING STATION-NAMPALLY,17.388724,78.474313,,"HP PETROL PUMP, SY NO. 5-8-699/8 NAMPALLY HYDERABAD 500001"
RAYYAN FUELS,17.344311,78.493879,,"HP PETROL PUMP, H NO 18-8-244/C/23/1 MOINBAGH, EDIBAZAR HYDERABAD 502220"
TOTABAI SOHANLAL SERVICE STATION,17.339136,78.317952,,"HP PETROL PUMP,SY NO : 51(P) & 56(P) HIMAYATHNAGAR VILLAGE MOINABAD MANDAL 500075"
GAJANAN AGENCIES,18.126351,76.761559,,"HP PETROL PUMP, SUR NO. 27/A LATUR NILANGA ROAD, SH 165 VILLAGE/TOWN-NILANGA, TALUKA-NILANGA, DI 413521"
UMAMAHESH AUTO SERVICE CENTRE,18.35959,77.130453,,"HP PETROL PUMP, SURVEY  NO. 108 UDGIR BIDAR ROAD, SH 217 VILLAGE-NIDEBAN, TALUKA-UDGIR, DIST-LATU 413517"
"JAYASH PETROLEUM, TULJAPUR",17.993868,76.083309,,"HP PETROL PUMP, SURVEY NO.207/4 TULJAPUR - NALDURG RD. SH-153 TALUKA TULJAPUR 413601"
"ABHINAV PETROLEUM, DHANGARWADI",17.80214729,76.19787373,,"HP PETROL PUMP, GUT NO. 91/2/4, VILLAGE DHANGARWADI, TAL. TULJAPUR SOLAPUR HYDRABAD ROAD (NH 65) 413603"
MANTRI PETROLEUM,18.41647672,76.5926739,,"HP PETROL PUMP, GUT NO. 5 & 4(P) RING ROAD VILLAGE/TOWN-MAHARANA PRATAP NAGAR, LATU 413512"
SONA PETROLEUM,25.29888151,74.63513777,,HP PETROL PUMP CHITTOR ROAD BHILWARA 311001
MANISH HP STATION,23.93679853,73.57106283,,"HP PETROL PUMP NH-8,UDAIPUR AHMEDABAD ROAD VILL- BHUWALI 314011"
SUDARSHAN PETROLEUM CENTRE,16.649288,74.274141,,"HP PETROL PUMP,GAT NO- 217 PUNE BANGLORE ROAD,NH48 VILLAGE/TOWN-GOKULSHIRGAON,TALUKA-KARVEE 416234"
SAMARTH TRADERS,17.214263,73.546225,,"HP PETROL PUMP,PLOT NO- 832 GOA-MUMBAI HIGHWAY,NH66 VILLAGE/TOWN-DHAMANI,TALUKA-SANGAMESHWAR 415611"
SHRI DATTAPRASAD S STATION,15.629301,73.825708,,"HP PETROL PUMP,CHALTA NO-20 & 20A OF PT GOA-MUMBAI HIGHWAY,NH66 VILLAGE/TOWN- COLVALE,TALUKA-BARDEZ 403513"
DEEPRAJ PETROLEUM,16.8005,74.148936,,"HP PETROL PUMP, GAT NO- 64 KOLHAPUR RATNAGIRI ROAD,NH166 VILLAGE/TOWN-DANEWADI,TALUKA-PANHALA 416205"
MANGAVE AUTOMOBILES,16.781569,74.558447,,"HP PETROL PUMP,GAT NO- 147/1-A KOLHAPUR SANGLI ROAD,NH166 VILLAGE/TOWN-KONDIGRE,TALUKA-SHIROL 416101"
PRATIBHA AUTOMOBILES,16.374343,73.788982,,"HP PETROL PUMP,SURVEY NO- 337 A/5B DEVGAD-NIPANI RD,SH181 VILLAGE/TOWN-PHONDA GHAT,TALUKA-KANKAVAL 416601"
KAVLEKARS FUEL STATION,15.377176,73.906784,,"HP PETROL PUMP, ""SUNDOEM"",SURVEY NO-64/3 AIRPORT ROAD,NH566, VILLAGE/TOWN-SANCOALE,TALUKA-MORMUGAO 403726"
DEOKAR AUTOMOBILES,16.682442,74.214415,,"HP PETROL PUMP, A WARD , R S NO- 722/4 KOLHAPUR RADHANAGARI ROAD,SH121 VILLAGE/TOWN-KOLHAPUR,TALUKA-KARVEER 416002"
DEVGIRI AUTOLINES,16.813267,74.29774,,"HP PETROL PUMP,SURVEY NO- 250 TOAP VADGAON ROAD,SH151 VILLAGE/TOWN-KASABA VADGAON,TALUKA-HATHK 416112"
KRUPA FUEL CENTER,15.871089,73.646223,,"HP PETROL PUMP,SURVEY NO- 168,BHATWADI VENGURLA-SAWANTWADI RD,SH180 VILLAGE/TOWN-VENGURLA ,TALUKA-VENGURLA 416516"
NOBLE AUTO,17.980546,73.255791,,"HP PETROL PUMP,SURVEY NO- 38, HISSA NO- MANDANGAD-BANKOT ROAD,SH102 VILLAGE/TOWN-MANDANGAD,TALUKA-MANDANGAD 415203"
GAIKWAD PETROLINKS,16.82525,74.286793,,"HP PETROL PUMP,GAT NO- 355, (PART) 130 PUNE BANGLORE ROAD,NH48 VILLAGE/TOWN-PETH VADGAON,TALUKA-HATHKAN 416112"
DISHA PETROLINKS,16.744562,74.32339077,,"HP PETROL PUMP, GAT NO 1086(K), VILLAGE - HERLE, SH-3, TALUKA - HATKANANGALE 416005"
SAHIL - SHANTI PETROLEUM,17.033751,73.415072,,"HP PETROL PUMP,SURVEY NO- 5/6 & 7 GOA-MUMBAI HIGHWAY,NH66 VILLAGE/TOWN-TARVEWADI,TALUKA-RATNAGIRI 415619"
ZARAP PETROLEUM,15.937446,73.751375,,"HP PETROL PUMP,GAT NO- 57, 959, HISSA NO GOA-MUMBAI HIGHWAY,NH66 VILLAGE/TOWN-ZARAP,TALUKA-KUDAL 416520"
SANSHORA AUTOMOBILES,17.614614,73.479532,,"HP PETROL PUMP,SURVEY NO- 98, HISSA NO- 1 A + 9A,GOA-MUMBAI HIGHWAY,NH66 VILLAGE/TOWN-LOTE ,TALUKA-KHED 415722"
HP HIGHWAY SERVICES,16.816372,74.285118,,"HP PETROL PUMP,GAT NO- 299 PUNE BANGLORE ROAD,NH48 VILLAGE/TOWN-VADGAON,TALUKA-HATHKANANGAL 416112"
SHRI MARLESHWAR PETROLEUM,17.06872,73.614815,,"HP PETROL PUMP,GAT NO- 76 A, 1/G DEVRUKH-SAKARPA RD, VILLAGE/TOWN-DEVRUKH,TALUKA-SANGAMESHWAR 415804"
R K PETROLEUM,22.646926,72.207155,,"HP PETROL PUMP, SURVEY NO. 292/2/3 SONARPADA, KALYAN MURBAD ROAD NH-222 VILLAGE - MURBAD TAL - MURBAD 421401"
KRISHNA PETROLEUM,22.37951,73.19154,,"HP PETROL PUMP, S NO 220 MUMBAI NASIK HIGHWAY, NH3 KHATIWALI 421601"
ARBUDA PETROLEUM,23.402818,72.649378,,"HP PETROL PUMP, SURVEY NO. 1732/1 & 2 SH71, MANSA-GANDHINAGAR HIGHWAY SIDE OF PANJARA POLE, POST/TALUKA MANSA 382845"
CBW ENTERPRISES,13.0918933,77.63596559,,"HP Petrol Pump THANISANDRA MAIN ROAD THIRUMENAHALLI VILLAGE, YELAHANKA 560077"
BYRAVESHWARA SERVICE STATION,12.990701,77.468934,,"HP Petrol Pump,SY.NO.40/2 MAGADI MAIN ROAD KACHOHALLI VILLAGE 560091"
SHAKTI PETROLEUM,21.14216153,72.8816887,,"HPCL PETROL PUMP, SURVEY NO.183 DINDOLI SACHIN ROAD DINDOLI, TALUKA CHORYASI, SURAT 394210"
"FILLING STATION, GWALIOR",26.262492,78.217383,,"HP PETROL PUMP KH NO. 81/1 MIN & 82, PH NO 94/53, MAHARAJPURA, OPP. D D NAGAR 474003"
HSD KHANPUR FARM FUEL CENTRE,23.011607,88.048602,,HP Petrol Pump POKHANPUR PO KHANPUR 712308
RAJ AND COMPANY,25.199653,75.83968,,"HP PETROL PUMP, Khasra No. 268 & 269 BUNDI ROAD Kunhadi 324002"
MADUMOOLE PETROLEUMS,12.80014437,74.96701581,,MUDIPU INFOSYS NEAR INFOSYS BUNTWAL TALUK 574153
HAWWA PETROLEUM,12.83645,74.97421266,,"HPCL DEALERS SY NO:179/6A, BOLIYAR PANCHAYAT MANGALORE TALUK 574153"
KONAJEKAR FUELS,12.92628124,74.84117634,,KULUR KAVOOR ROAD POST PANJIMUGERU MANGALORE 575013
S K Petroleum,12.95787437,75.19858664,,HPC DEALERS ARTHILA (NH234) MALADY VILLAGE 574224
BATRA OIL COMPANY,28.854638,77.124552,,"HP PETROL PUMP PANIPAT-DELHI ROAD, NH-44 GANNAUR 131301"
SHRI GURUKRUPA PETROLEUM,17.65528789,75.93059668,,"HP PETROL PUMP, GAT NO. 23/1(P), VILLAGE MAJREWADI, OLD KUMBHARI ROAD, MIDC ROAD, TALUKA NORTH SOLAPUR 413006"
GAUTAM FILLING STATION,30.26226153,76.71339594,,HP PETROL PUMP NH 152 (AMBALA-HISSAR ROAD) VILLAGE SAKHRAON 134003
LONDHE & COMPANY,16.212373,74.35214,,"HP PETROL PUMP,SURVEY NO- 27, HISSA NO- GADHINGLUJ NESARI ROAD,SH189 VILLAGE/TOWN-GADHINGLAJ,TALUKA-GADHINGLU 416502"
KVM KAMATH,13.594191,74.695687,,HPC DEALER KOTESHWAR COONDAPUR 576222
MOHISIN & COMPANY,25.166158,75.851725,,"HP PETROL PUMP, Plot No. 3 JHALAWAR ROAD AERODRAM 324002"
PETROLEUM,21.572961,73.161662,,"HP PETROL PUMP JALARAM SOCIETY, ANKLESHWAR-NETRANG SH TALUKA VALIA 393135"
JAIN HP PETRO,29.70369,75.239043,,"HP PETROL PUMP MANSA SIRSA ROAD, NH703 SARDULGARH 151507"
MAHADEVI FILLING STATION,29.0625229,77.01555961,,HP PETROL PUMP KAMI-GANNAUR ROAD VILLAGE BHURI 131101
PATIL PETROLEUM,18.669918,73.918946,,"GAT NO. 147, ALANDI MARKAL ROAD VILLAGE DHNORE TALUKA KHED 412105"
CHOWDESHWARI FUEL STATION,12.87070585,77.43916991,,"HP Petrol Pump,SY.NO.48,Plot no.31-A, NH275(Bangalore Mysore rd) KUMBALGODU VILLAGE 560074"
CNG DREAM PETROLEUM,20.629535,73.099042,,HPC PETROL PUMP SURVEY/BLOCK NO 30/PAIKI 1 VILLAGE KHERGAM 396040
PURANDAR MILK & AGRO PRODUCT LTD,18.327963,74.06369,,At Khalad On Jejuri-Saswad Rd SH 64 412301
SUJATA PETROLEUM,18.22597277,74.84512968,,"VARKUTE BK., DALAJ NO-3 NH-65, PUNE-SOLAPUR HIGHWAY  413132"
TATYA PETROLEUM,18.686367,76.949284,,"HP PETROL PUMP,GUT NO. 126 LATUR NANDED ROAD, NH 361 VILLAGE/TOWN-AHMEDPUR, TALUKA-AHMEDPUR, 413515"
ADHOC J RASIKLAL AND COMP SHAHPUR,23.027046,72.570915,,OPP.NEHRU BRIDGE ASHRAM ROAD  380009
GANGA FILLING STATION,29.01929396,77.07634427,,"HP PETROL PUMP PANIPAT-DELHI ROAD, NH-44 NANGALKHURD 131027"
MAHALAKSHMI SERVICE STATION,12.88935754,77.43791702,,"HP PETROL PUMP, SY.NO.189/1, DODDA  ALADMARA ROAD 1STMILE,KUMBALGODU VILLAGE,KENGERI HOBLI 560074"
SRI SAI RANGANATHA SERVICE STN,12.92951652,77.50397626,,"HP Petrol Pump,Sy.no.22 Mysore rd (RRnagar to Kengeri) KENCHANAHALLI VILLAGE,KENGERI HOBLI 560098"
KARMA FILLING STATION,28.203981,76.772818,,M-STN-74 DELHI JAIPR HIWAY DHARUHERA DT REWARI HRYNA 123414
GATI CORPORATION,22.778042,75.903329,,AGRA MUMBAI ROAD LASUDIA INDORE 452010
ADHOC AKASH FILLING STATION,22.84030397,75.94396365,,"HPC RO HPCL LPG PLANT, NH-3 VILL RAHUKHEDI, TEH SANWER 453771"
SRINIVASA SERVICE STATION,13.37180932,77.11168901,,"Survey No. 101/3D , Antharasanahalli Tumkur 572101"
BALAJI FUELS,16.169218,75.647842,,"HPC  DEALERS P  B  11, AUTONAGAR NAVANAGAR 583227"
B.M.M FUEL STATION,14.737875,78.547892,,"SY.NO. 542/1 , SOMULAVARIPALLI VILLAGE, PRODUTTUR BYE PASS ROAD, PRODDUTUR MANDL TIN NO: 37661301104 516361"
SHRI DURGA FUELS,13.1744183,74.90086218,,"SY NO 40/1 & 40/2, KEDINJE VILLAGE  KARKALA TALUK 574110"
SHRIJI PETROLEUM,23.64684831,68.8976821,,HP PETROL PUMP SURVEY NO. 287 DAYAPAR LAKHPAT ROAD 370630
PRABHAT PETROLEUM,23.51932,69.047124,,"HP PETROL PUMP , PLOT NO.- 126/2 BHUJ LAKHAPAT ROAD SH 42 RAVAPAR 370625"
SHIVSHAKTI PETROLEUM,23.43946821,72.51189277,,"HP PETROL PUMP, PLOT NO5 SURVEY NO 90 1P F P NO 2 T P S NO 12 GHOGHA ROAD SHIVAJI CIRCLE TARSAMIYA, BHAVNAGAR 364002"
KANAN PETROLEUM,18.60290718,74.6840012,,"HP PETROL PUMP,PLOT NO.2192 PART KASHTI SHRIGONDA ROAD SHRIGONDA 413701"
HP AUTO CARE CENTER-OSMANIA,17.41956129,78.52376168,,"HPCL OUTLET  , OSMANIA UNIVESITY   500020"
SEHRAWAT FILLING STATION,28.9242512,77.09862297,,HP PETROL PUMP NH1 TO JATHERI KHARKHAUDA ROAD VILLAGE BADHMALIK 131029
KRIPA HARILEELA FUEL,26.21665971,78.14831777,,"HP PETROL PUMP BAHODAPUR ROAD RAMAJI KA PURA, PANCHAWATI COLONY 474001"
BHANDARI PETROLEUM,22.758876,74.595964,,RANAPUR ROAD JHABUA  457661
HP VIKAS FILLING STATION,29.455715,76.197284,,"HP PETROL PUMP JIND- NARWANA ROAD, NH352 UCHANA 126115"
AZAD PETROLEUM,29.375086,76.33787,,HP PETROL PUMP VILLAGE - KANDELA JIND ASANDH ROAD 126125
SUPER SERVICE STATION,13.040237,80.246885,,"NO. 529, ANNA SALAI, TEYNAMPET, 600018"
KRISHNARAJ AND COMPANY,12.994924,80.187932,,"HP PETROL PUMP , NO.355/B GST ROAD ALANDUR 600016"
M R AGENCIES,12.840028,80.227221,,"HP PETROL PUMP , NO.34 RAJIV GANDHI IT EXPRESSWAY EGATHUR 603103"
SRI AMBAL AGENCY,13.123581,79.424598,,HP Petrol Pump Pallipet Sholinghur Road Sholinghur 631102
SHRI SIDDESHWAR PETROLEUM,16.878641,75.721389,,"HP PETROL PUMP, SY NO. 108/8 SOLAPUR ROAD, NH-52 BHUTNAL CROSS 586103"
SHANTHA SERVICE STATON,13.861086,75.715977,,"HPCL PETROL PUMP C J BAGE,KANAKATTE VILLAGE CHENNAGIRI ROAD, BHADRAVATHI 577301"
EKTA PETROLEUM,23.05358306,73.96669616,,"HP PETROl PUMP, S.NO. 32 STATE HIGHWAY NO. 154 PRATAPURA TALUKA SANJELI 389175"
J N PETROLEUM,20.37779891,72.93060136,,"HPC PETROL PUMP, SURVEY NO.189, GUNJAN TO RATA/PENDOR ROAD CHHARWADA, GUNJAN, VAPI 396145"
RAHUL PETROLEUM,21.9530258,70.77886169,,HP PETROL PUMP RAJKOT-PORBANDAR HIGHWAY NH-27 GONDAL 360311
JOSHI BROTHER,23.252492,69.676635,,"HP PETROL PUMP , PLOT NO. -1089 STATION ROAD BHUJ 370001"
BALAJI FUEL POINT,22.706409,71.619636,,"HP PETROL PUMP, SURVEY NO. 143/P SURENDRANAGAR-RAJKOT ROAD SH17 RATANPAR, WADHWAN 363001"
NATIONAL PETROL BUNK,13.17530888,75.88165988,,"HPCL DEALER SURVEY 160/1B, MUNCIPAL KHATA 6627/110 NH234, BELUR HALEBEEDU ROAD 573115"
SHREE SIDDESHWARA FUELS& SER.STN,12.446015,75.929164,,"HPCL DEALERS SY.NO.41, BOLLUR VILLAGE, KUSHALANAGARA 571234"
NARESH KUMAR AUTO,28.368884,75.966594,,M'GARH-SATNALI ROAD VPO-SATNALI DIST-M'GARH 123024
MOHINDER FILLING STATION,30.460675,76.787508,,NH 22 VILL SARSINI DIST-PATIALA 140501
ANTONY FUEL STATION,13.09303558,80.10860225,,"PARUTHIPATTU VILLAGE, POONAMALLEE TALUK,  600071"
OM SAI FILLING STATION,29.16321405,77.03282146,,"HP PETROL PUMP DELHI-AMBALA ROAD, NH-44 VILLAGE CHIRASMI 131101"
SHRI KRISHAN FILLING STATION,29.33162817,76.37067698,,"HP PETROL PUMP VILLAGE - NIRJAN JIND - SAFIDON ROAD, SH 14 126102"
SHROFF BROTHERS,22.599071,88.227884,,MOHIARI NH 6 KOLKATA MUMBAI WEST BENGAL 711302
SHIVAM SERVICE STATION,22.569183,88.012786,,AMTA BETAI BRIDGE APPCH ROAD AMTA PO AMTA HOWRAH 711401
SANT RAM SURI & SONS,28.985929,77.154341,,"HP PETROL PUMP BAHALGARH-MERUT ROAD, NH-334 B VILLAGE PALRI 131021"
NILKANTH PETROLEUM,21.053517,73.271486,,HP PETROL PUMP SURVEY NO. 880/1 AND 875/P VILLAGE KUCHHADI 360579
LAMBA FUEL POINT,28.413451,76.49894,,VILL KOSLI KOSLI JHAJJAR ROAD VPO KOSLI 123302
RANDHAWA AUTO CARE,30.818216,75.912243,,"KHANPUR, LUDHIANA- DORAHA SOUTHERN BYPASS,LUDHIANA 141007"
CHAWLA FILLING STATION,30.702478,76.729228,,S A S NAGAR MOHALI S A S NAGAR DISTT ROPAR 160051
KAUSHALYA AUTO,28.562368,77.265248,,"HP PETROL PUMP FRIENDS COLONY, DELHI MATHURA ROAD NH19 110065"
SHREE SHYAM FILLING STATION,27.682742,76.906421,,VILLAGE DOHA DELHI - ALWAR ROAD TEHSIL FEROZPUR JHIRKA 122104
VISHWA PETROLEUM,22.70166143,73.29109817,,"HP PETROL PUMP, AT SURVEY NO. 434 SH-63, SAVLI- TIMBA ROAD VILL. & TALUKA DESAR 391774"
YOGIRAJ PETROLEUM,22.19421973,73.53981132,,"HP PETROl PUMP, S.NO.7 STATE HIGHWAY NO. 11 GOLA GAMDI TALUKA SANKHEDA 391125"
SHIVAM PETROLEUM,22.07511893,73.25204163,,"HP PETROL PUMP, SURVEY NO 301&302 VILL KAYAVAROHAN TA. DABHOI 391220"
STUTI PETROLEUM,21.10369006,72.86441854,,"Survey no. 133,137,139, Block no. 180 Opp Hotel Aashish Hotel Village Unn 395006"
RUXMANI PETROLEUM,22.963703,73.628728,,"HP PETROL PUMP, SURVEY 29/P STATE HIGHWAY NO 5 PALIKHANDA TALUKA SHEHERA 389210"
SHREE UMIYA PETROLEUM,23.19218886,73.470776,,"H.P. PETROL PUMP, PLOT NO. 255/1/1 STATE HIGHWAY NO. 191 VILLAGE VIRPUR TALUKA VIRPUR 388260"
SHREEJI AUTO SERVICE,23.006464,72.534264,,"HP PUMP PLOT#543/551 VJLPR,NR.JIVRAJ PARK, AHMEDABAD 380051"
ROYAL SERVICE STATION,13.101207,80.160174,,"D-21, AMBATTUR INDUSTRIAL ESTATE AMBATTUR  600058"
ADHOC SRI MURUGAN AGENCIES SIRUSERI,12.83081153,80.22382845,,"HP PETROL PUMP, SURVEY NO:76 PART 1 SIPCOT SIRUSERI ROAD EGATTUR VILLAGE 603103"
S T ARASU &CO,13.09497,80.29275,,HPC DEALERS NO 8 RAJAJI SALAI MADRAS 600001
THILLAI NATRAJA AGENCIES,13.046587,80.119588,,S NO  219  LOORDUPURAM CHENNAI CHITTOOR BANGALORE  RAOD TIRUVALLUR 600056
SREE HARIKRISHNA,13.0839684,79.6084742,,HP Petrol Pump Arakkonam Sholinghur Road Arakkonam 631003
JANATA SERVICE STATION,17.334509,78.442213,,THALASSERY COORG ROAD KUTHUPARAMBA  670643
SHALIVAHANA FUELS,12.83989108,75.286142,,HPC DEALER NH75 HASSAN ROAD UPPINANGADI 574241
NAVAMI PETRO PRODUCTS,13.06960813,74.99061609,,MUDABIDRI BYPASS MUDABIDRI JUNCTION MUDABIDRI 574227
RAKTHESWARI PETRO POINT,12.858884,75.410056,,HPC DEALER KOKKADA VILLAGE BELTHANGADI-SUBRAMANYA RD 574198
SRI LAKSHMINARASIMHA AGENCY,13.939134,75.584183,,"HPCL PETROL PUMP WARD NO 9,SHANKAR MATT ROAD SHIMOGA 577201"
MF FUELS,13.12128051,77.48336692,,"HP Petrol Pump, SY.NO 70/3, HESARGHATTA MAIN ROAD Kodige Thirumalapura,Hesarghatta Hobli 560089"
MEMBER ENERGY CENTRE,26.193551,78.219339,,HP PETROL PUMP SIROL MORAR ROAD VILLAGE SIROL 474006
BHAGWAN ACHLESHWAR FUELS,26.18872515,78.17404832,,"HP PETROL PUMP OPP JHANSI ROAD POLICE THANA VILLAGE-MEHALGAON,LASHKAR 474001"
GIRIRAJ DHARAN PETROL PUMP. BIJORI,23.231243,77.074207,,"HP PETROL PUMP, PLOT NO 499/3 VILLAGE BIJORI VILLAGE BIJORI 466001"
G.D. GAUTAM ENERGY STATION,23.06345715,76.80324986,,"HP PETROL PUMP, PLOT NO 74/3 ASHTA SEHORE ROAD VILLAGE BEDAKHEDI 466114"
LANDMARK FILLING STATION,22.74201111,75.9776645,,HP PETROL PUMP SURVEY NO 1193/3/2 P.H.NO.49 VILLAGE KANADIA INDORE 452016
DEVSARA FILLING STATION,23.167707,75.799047,,"B-5, SHREE VISHALA KSHETRA RISHI NAGAR, DEWAS ROAD UJJAIN 456010"
NAHARSHAH PETROLEUM,22.73659426,75.9302368,,HP PETROL PUMP GUT NO MR 9 ROAD JUNI INDORE 452016
VAKRATUNDA FUELS,16.421046,74.093818,,"HP PETROL PUMP,GAT NO- 11 & 12 KOLHAPUR RADHANAGARI ROAD,SH121 VILLAGE/TOWN-SARAWADE,TALUKA-RADHANAGARI 416212"
BEHERJI PETROLEUM,16.401083,74.185352,,"HP PETROL PUMP,GAT NO- 130/1 MURGUD NIPANI ROAD,SH121 VILLAGE/TOWN-MURGUD,TALUKA-KAGAL 416219"
SUSHANT TRANSPORT,16.125421,74.206874,,"HP PETROL PUMP,GAT NO- 433 GADHINGLUJ AAJRA ROAD,SH188 VILLAGE/TOWN-AJRA,TALUKA-AJRA 416505"
SHRI. VENKATESHWARA PETROLEUM,18.545086,73.935396,,"SURVEY NO 23/1, KHARADI MUNDHWA BYPASS MAGARPATTA ROAD 411014"
PRIYADARSHINI PETROLEUM AGENCIES,12.926552,79.264476,,HPC DEALERS NANDIYALAM VILLAGE MELVISHARAM 632517
ADHOC VGN AGENCY,12.9124226,79.36487606,,HPC Dealer Chennai Bangalore Highway Walajahpet 632513
 LAKSHMI RANGANATHA FUEL STATION,12.958147,76.593737,,"HPC DEALERS, NH - 48, TOBINAKERE VILLAGE, HIRISAVE HOBLI CHENARAYAPATNA TALUK 573124"
KASYAP & SONS,23.318706,75.061804,,MAHATMA GANDHI ROAD RATLAM MADHYA PRADESH 457001
SRI SAI SHEEL GAJANAN F/S,23.231382,76.032066,,"HPC R/O DEALER UJJAIN MAXI ROAD, KAYATHA 456663"
SINHAGAD PETROLEUM,18.413697,73.763313,,"GAT NO. 245, GORHE BUDRUK, PANSHET ROAD, TAL HAVELI 412108"
SRI MORRAYA PETROLEUM,18.277538,74.307116,,AT MORGAON ON MORGAON JEJURI RD SH 65 412304
MAITREYA PETROEUM,18.809748,74.344483,,"GAT NO 1337, 1338 VILLAGE SHIRUR PUNE NAGAR ROAD (SH60) 412210"
MSHSD SOLAPUR SHAHAR POLICE PETROL PUMP ,17.66629481,75.92127566,,"HP PETROL PUMP, CTS NO.10393, FP NO 36, NEAR ASHOK CHOWK, NEW PACCHA PETH, SOLAPUR CITY 413006"
MSHSD SIDDHI PETRO OASIS                ,17.684559,75.291201,,"HP PETROL PUMP, GAT NO : 407/1 A/P WAKHARI, PANDHARPUR-PUNE RD, NH965 VILLAGE: WAKHARI, TALUKA: PANDHARPUR, DI 413304"
G-LINE FUEL POINT,30.36407073,76.99904617,,"HP PETROL PUMP YAMUNANAGAR PANCHKULA ROAD, NH 344 VPO MAGHARPURA 133103"
OM SAI FILLING STATION,29.16321405,77.03282146,,"VILLAGE-SHIVPUR THANA & TEHSIL-MARIAHU ON BHADOHI-JAUNPUR ROAD,SH5 222161"
AMAR FILLING STATION,28.85739825,76.90305421,,HP PETROL PUMP KHARKHAUDA-ASAUDHA ROAD VILLAGE BARONA 131402
AKSHAY FILLING STATION,29.939403,76.543487,,HP PETROL PUMP HISSAR AMBALA ROAD VILLAGE GHUMTHALA 136128
GAJAPATHY AGENCIES,13.06094,80.140061,,"No. 52B, PH ROAD VELAPANCHAVADI TIRUVALLUR-600077 600072"
JYOTI FILLING STATION,23.37507684,76.22171026,,HPC RO OPERATOR VILLAGE NAINAWAD TEHSIL TARANA 456770
MILLENNIUM AHMEDABAD GOTA,23.10379447,72.53995423,,"HINDUSTAN PETROLEUM CORPORATION LIMITED T.P.S.NO- 32 (GOTA), F.P.NO- 165 (S.F.C) GOTA ROAD , GOTA, GHATLODIYA 382481"
DAHIYA FUEL STATION,28.812515,76.942837,,HP PETROL PUMP NAHARA-BAHADURGARH ROAD VILLAGE SHOTI 131402
"NARSINGH PETROLEUM, DHOKI",18.37458182,76.11414072,,"HP PETROL PUMP, GUT NO. 238, VILLAGE DHOKI, TALUKA OSMANABAD YEDASHI LATUR ROAD 413508"
 LAXMI PETROLEUM,16.936484,73.908693,,"HP PETROL PUMP,GAT NO- 903 KOLHAPUR RATNAGIRI ROAD,NH166 VILLAGE/TOWN-YELUR ,TALUKA-SHAHUWADI 415101"
 HAJARE PETROLEUM,16.642529,74.179368,,"HP PETROL PUMP,SURVEY NO -248 KOLHAPUR RADHANAGARI ROAD,SH134 VILLAGE/TOWN-VASHI,TALUKA-KARVEER 416011"
YASH PETRONET,28.049326,76.350482,,"HPCL RETAIL OUTLET, VPO. KHERI ATELI - BEHROR ROAD  123021"
G.M PATEL,21.22945,72.89462805,,Block No. 42 Survey no. 28/1 Nana Varachha Surat 395006
ANNAPOORNESHWARI FUEL STATION,12.477431,77.034903,,"HP Petrol Pump , S. No: 30/4 & 30/2 A Mellahalli Village & Gram Panchayath KM Doddi 571422"
K VINAYAGAM,12.899846,79.134918,,14 ARNI TRUNK ROAD HP DEALERS VELLORE NA DT 632001
NAVA SAKTHI AUTO FUELS,12.869933,79.975639,,"HP PETROL PUMP, SURVEY NO. 33/1 & 34 VANDALUR TO WALAJABAD ROAD KARANAITHANGAL VILLAGE 602105"
R J FILLING STATION,30.17550869,76.77048179,,HP PETROL PUMP THOL SHAHABAD ROAD NALVI 136135
RATHI SERVICES STATION,26.900452,75.76919,,"HP PETROL PUMP, SODALA, AJMER ROAD JAIPUR RAJASTHAN 302001"
SHREE MANE,18.07687437,74.85445805,,GAT NO 114 VILLAGE HAGAREWADI TALUKA INDAPUR 413114
SADHANA HP,27.11601,77.168739,,"HP Petrol Pump, Plot No. 1584/574, 1585/ NH11 VILLAGE HALENA, TEHSIL WEIR 321601"
GOMATI FILLING STATION,25.26107287,75.76908,,"Khasra no. 363/104, Kota Road Near Shriram Automall Kota Govindpur Bavdi, Taleda 323021"
NAVBHARAT FILLING STATION,30.18204642,76.93317275,,"HP Petrol Pump Shahbad Barara Road Village Padlu, Kurukshetrs 136135"
SIDHU ENERGY STATION,30.10842604,76.67600727,,HP PETROL PUMP HISSAR AMBALA ROAD NH152 VILLAGE ISMAILABAD 136129
BHADOURIYA FUEL STATION,22.708252,75.76455438,,VILLAGE BISNAVDA INODRE PITHAMPUR ROAD INDORE 453112
MAHALAKSHMI ENERGY SERVICES,18.65397334,73.733592,,"HPCL RETAIL OUTLET SURVEY NO 61(P),RAVET MUMBAI TOWARDS PUNE 412101"
SURESH PETROLEUM,17.709605,75.997104,,"HP PETROL PUMP, GAT NO. 182/1/1, VILLAGE DODDI, TALUKA SOUTH SOLAPUR, ON SOLAPUR HYDRABAD ROAD (NH 650 413216"
LANS SERVICES STATION,13.018471,80.261388,,"HPC DEALERS NO. 26, GREENWAYS ROAD RAJA ANNAMALAI PURAM 600028"
PANDIAN AGENCIES,12.895201,80.049821,,"HP PETROL PUMP, SURVEY NO. 183 VANDALUR - WALAJABAD ROAD KARSANGAL VILLAGE, SRIPERUMBUDUR TALUKA 601301"
MANAVA PETROLEUM,23.263641,72.641797,,"HP PETROL PUMP, SURVEY NO. 1028 MANSA-GANDHINAGAR HWY, NEAR GSPL VILLAGE PETHAPUR, TALUKA GANDHINAGAR 382610"
SRI MANJUNATHA SERVICE STATION,13.031517,77.08162,,"HPC Petrol Pump,SY.NO.94, PLOT NO.96 KUNIGAL INDUSTRIAL AREA, UTTIDURGA HOBLI KALLANAYAKANAHALLI 572126"
THAKOR PETROLEUM,21.12464505,72.87677302,,"HPCL PETROL PUMP, SURVEY NO. 60 EKLERA SACHIN ROAD VILLAGE EKLERA, TAL-CHORYASI, SURAT 394210"
KUDALSANGAM FUELS,16.182397,75.998047,,HPCL DEALERS 182 KM STONE NH 13 KUDALSANGAM CROSS 587116
MATESHREE PETROLEUM,14.328948,74.428725,,"HPCL DEALER NH17, SALIKERI HALDIPUR, TAL-HONAVAR 581327"
 HIGHWAY POINT,14.725136,75.473259,,"HIGHWAY POINT HUBLI - RANEBENNUR , NH4 MOTEBENNUR, HAVERI DIST 581106 581106"
SUNDER SERVICE STATION,13.054032,80.234399,,"HPC DEALERS NO. 97, KODAMBAKKAM HIGH ROAD MADRAS-34 600034"
 MRK AGENCIES                      ,13.061168,80.24682,,HP PETROL PUMP KUNDRATHUR KOVUR ROAD KOVUR VILLAGE 600128
VIJAY SERVICE STATION,13.16897,80.200652,,HPC DEALERS G N T ROAD POZAL MADRAS 600066
SHRI RADHEY HP FILLING STATION,27.904718,77.433082,,HODAL-HASANPUR ROAD VILLAGE KHIRBI TEHSIL HODAL 121106
BALAJI FILLING STATION,28.723488,77.16506,,"HP PETROL PUMP JIND- SAFIDON ROAD, SH14 VILLAGE- JAIPUR 126112"
VARDHMAN PETROLEUM,23.167309,75.701024,,"NEAR TOLL PLAZA, CHANDUKHEDI BADNAGAR ROAD UJJAIN 456006"
VIRMAT FILLING PETROLEUM,22.897094,75.856961,,"HPCL Petrol Pump Opposite Rama Phosphate Indore Ujjain Rd Post Rajoda, Dharampuri 453551"
 SURINDER FILLING STATION,28.85817895,76.9931236,,HP PETROL PUMP NAHARA-BAHADURGARH ROAD VILLAGE HALALPUR 131103
VIR FILLING STATION,29.14958837,76.75927654,,HP PETROL PUMP GOHANA-KHANPUR ROAD VILLAGE GAMRI 131305
SHREE VISHWA PETROLEUM,18.48734217,74.14507895,,GAT NO 111 VILLAGE URULI KANCHAN  412202
APMC SUPE PETROLEUM,18.33937368,74.37815836,,GAT NO 74(P) AT VILLAGE SUPE BARAMATI MORGAON ROAD SUPE VILLAGE 412204
GURU MAULI PETROLEUM,18.26157652,77.09273417,,"HP PETROL PUMP, GAT NO 169/181 NILANGA UDGIR ROAD, SH 166 VILLAGE/TOWN-DEONI, TALUKA-DEONI, DIST-L 413519"
KESARKAR PETROLEUM,16.23456741,74.26145867,,"HP PETROL PUMP,SURVEY NO- 867/2 UTTUR AAJRA ROAD,SH198 VILLAGE/TOWN-UTTUR,TALUKA-AJRA 416220"
PANCHAGANGA S S K LTD,16.71122,74.44805,,"HP PETROL PUMP,GAT NO - 28/A ICHALKARANJI STATION ROAD,SH192 VILLAGE/TOWN-KABNUR,TALUKA-HATHKANANGALE 416116"
ADHOC KAMALA RAMSONS,26.202887,78.224505,,"HP PETROL PUMP HORAWALI ROAD VILLAGE HURAWALI, TAHSIL MORAR 474006"
DEV MANGAL BABA FILLING CENTRE,26.18154843,78.13275407,,"HP PETROL PUMP KH NO.1140/1, 1141 & 1142/1, PH NO 62 IMLI NAKA, SIKANDAR KAMPOO CHORAHA RD 474001"
MAA PETROLEUM & SONS,26.218473,78.226108,,"HP PETROL PUMP SURVEY NO. 2355, SINGHPUR ROAD,KASHIPURA PATEL NAGAR, MORAR 474006"
SHIV SHAKTI MOTOR,30.369955,76.768682,,"HP PETROL PUMP HISSAR ROAD, NH 65 HISSAR ROAD, AMBALA CITY 134003"
RISHI MARKANDA FILLING STATION,30.42453065,77.14801514,,HP PETROL PUMP ON SH-1 (NARAINGARH-RAIPURANI ROAD) VILLAGE DEHAR 134203
SHREE RAM PETROLEUM,25.21882482,74.36735738,,HP PETROL PUMP NH 758 VILLAGE BHUNASH 311001
CADELL AUTO SERVICE,19.026095,72.835941,,NR SHIVAJI PARK CADELL ROAD  400028
TARE FUELS,16.746681,74.605916,,"HP PETROL PUMP,SURVEY NO- 3101 (P) SHIROL ARJUNWAD ROAD,SH137 VILLAGE/TOWN-SHIROL,TALUKA-SHIROL 416103"
HARI HARA FUELS,12.89754114,77.62127217,,"SY NO. 104/1 & 104/2 Beside SBI Bank, Hongasandra Village Begur Hobli, Bangalore South 560068"
AIVALLI & CO.,15.909752,75.686206,,"HPC DEALERS BADAMI BANSHANKARI  ROAD, TQ BADAMI,  BADAMI, 587201"
KANAKAM SERVICE STATION,17.679831,78.595297,,"S.NO 19, RAJEEV RAHADARI TURKAPALLY SHAMEERPET MANDAL 500078"
TONK ROAD SERVICE STATION,26.865824,75.796847,,"HP RETAIL OUTLET TONK ROAD NEAR KAMAL & CO., JAIPUR 302001"
SAKTHI AUTO SERVICE ,13.036877,80.255562,,HPCL DEALERS 400 TTK SALAI ALWARPET 600018
SUNRISE HP CENTRE,29.448465,76.375521,,"HP PETROL PUMP JIND-KAITHAL ROAD, SH 11A NAGURAN 126125"
HINDUSTAN FUEL,28.427438,77.034197,,SECTOR-48 SUBHASH CHOWK TO HERO HONDA CHOWK ROAD GURGAON 122002
AJAY FILLING STATION,29.600466,75.935665,,HP PETROL PUMP UKLANA-TOHANA ROAD VILLAGE- SAMAIN 125120
C.F. SHAH & COMPANY,20.761897,73.063018,,H P PETROL PUMP NH 8 CHIKHLI 396521
AMOL PETROLEUM,18.03473547,75.20480938,,"HP PETROL PUMP, GAT NO : 829 A/P TEMBHURNI, PUNE-SOLAPUR RD,NH65 VILLAGE: TEMBHURNI, TALUKA: MADHA, DIST: 413211"
 BHARADIYA PETROLEUM,18.236567,75.665407,,"HP PETROL PUMP, GUT NO 949/2/2 BARSHI PARANDA ROAD (NH 150E) TALUKA BARSHI 413401"
KESHAV FILLING STATION,29.243923,76.269585,,"HP PETROL PUMP JIND - BHIWANI ROAD, NH709A VILLAGE- BIBIPUR 126102"
MSHSD KRISHI UTPANNA BAZAR SAMITI AKLUJ ,17.89284863,75.00926418,,"HP PETROL PUMP, GAT NO: 122/1/A/1 AND 12 A/P AKLUJ, BYPASS RAOD VILLAGE: AKLUJ, TALUKA: MALSHIRAS, DIST: 413101"
SHUBHAM FUEL CENTRE,27.48051,77.321915,,"HP Petrol Pump, Plot No. 787 DEEG KAMAN ROAD NEAR AMAR CINEMA, DEEG 321203"
K T FILLING STATION,24.65448763,73.71932833,,"HP PETROL PUMP OPP ZOHRA MARBLE, AMBERI AMBERI 313004"
SRI MURIGAN AGENCIES,13.088697,80.174418,,G-10 INDUSTRIAL ESTATE ROAD MUGAPPAIR VILLAGE AMBATTUR 600053
BHAVANA ENTERPRISES,13.348281,74.70666,,HPC DEALERS MAIN ROAD-MALPE MALPE TALUK 576108
UJALA FILLING STATION,29.41078928,76.2352166,,"HP PETROL PUMP VILLAGE - KHATKATR JIND - NARWANA ROAD, NH 352 126115"
ARIHANT AUTOMOBILES,23.835807,73.696757,,HP PETROL PUMP SYNTEX CHAURAHA CITY DUNGARPUR 314001
SHRI BALAJI FILLING STATION,22.661592,76.758048,,NEMAWAR ROAD NH-59A KANNOD 455332
SHAAN PETROLEUM,13.408438,77.084981,,"HP Petrol Pump,SY NO 180/2, TUMKUR-SIRA ROAD,NH 4, LHS OORUKERE POST 572106"
 DASOT SERVICE CENTRE,26.906959,75.84586,,HPC DEALERS AGRA ROAD TRUCK STAND JAIPUR RAJ 302003
J B PETROLINKS,16.70863419,74.4662162,,"HP PETROL PUMP, GAT NO. 456, VILLAGE - SHAHAPUR, TALUKA - HATKANANGLE ICHALKARANJI - SHAHAPUR ROAD, 416115"
ASHWANI SIDDHARTH YADAV FUEL POINT,28.03595411,76.50463442,,"HP PETROL PUMP, MUSTIL NO -52 KILA NO - 2/1/2,10/1/2,9/2/2/2,11/2,12/1 VILLAGE- JAISINGHPUR KHERA, TEH. - BAWAL 123501"
 BADHWAR FILLING STATION,28.725027,76.73054,,HPCL RETAIL OUTLET VILLAGE BHAPRODA JHAJJAR -SAMPLA ROAD SH20 124507