name,latitude,longitude,phone,address
VENKATA LAKSHMI AGENCIES,17.393765,82.664275,9866176119,NH-5 NAKKAPALLI MANDAL-LOCK NO.T1 VEMPADU VISAKHA DIST ANDHRA PRADESH
GAYATRI AGENCIES,28.59705,77.1356,9837015258,GOPINATH BAZAR DELHI CANTT. NEW DELHI
AJIT MOTORS,17.681131,82.982275,9394431313,INDIAN OIL DEALERS -LOCK NO.T1 21 ANAKAPALLI ANDHRA PRADESH
SRI SATYAMAMBA FILLING STATION,28.54315,77.066567,9312272457,VILLAGE BHARTHAL F-28 PUSHPANJALI DWARKA LINK ROAD NEW DELHI.
BADUS PETRO,27.1962667,77.523425,9414225743,JATOLI GHANA VILLAGE JATOLI GHANA DISTT. BHARATPUR RAJASTHAN
BANSAL SERVICE STATION,27.231339,78.167616,9219610576,NH-2 AGRA FIROZABAD ROAD ETMADPUR AGRA AGRA
BHAGWAN FILLING STATION,28.854299,77.124594,9312832339,SINGHU BORDER G.T. KARNAL ROAD DELHI-110040 DELHI
BHARAT SERVICE STATION,28.57078333,77.16345,9.19E+11,SECTOR 8 R.K. PURAM NEW DELHI-22 R.K. PURAM New Delhi
CAR CARE,28.666963,77.09199,9899123771,OUTER RING ROAD ROAD NO.26 PACHIM VIHAR DELHI
CHANAKYAPURI SERVICE STATION,28.622736,77.095593,9811044233,JANAKPURI OPP.-VIRENDER NAGAR NEAR BHARATI COLLEGE NEW DELHI
CITI FUELS,28.71625,77.117604,9810218885,PLOT NO. 1-A-3 DISTT CENTRE-I SECTOR-10 ROHINI DELHI - 110085
CITY AUTO,16.101259,80.169035,9440264771,CHILAKALURIPET lock T2- 231/2 DNO:189 ANDHRA PRADESH
JANATHA FILLING STN (C'PET),17.636652,82.89715,8857242701,285/1 285/2 285/5 UGGINIPALEM (V KASIMKOTA (M) TALLAPALEM 531048 ANDHRA PRADESH
GVK Fuel Station,16.51661,80.641551,8106352502,INDIAN OIL DELEARS NIDAMANUR lock T1-50/1/2/3/4 D.NO:18 ANDHRA PRADESH
KDLOMACS (NDMNR),19.160061,72.858471,022-22661814,INDIAN OIL DEALERS SURVEY NO: 589(A) VILLAGE PAHADI GOREGAON(W)
FORT MOTOR EQUIPMENT CO,28.727378,77.142789,9811314040,SEC 19 ROHINI NEW DELHI. LOCK CODE - I - 374
FORTUNE SERVICE STATION - ROHINI,16.797456,81.595662,9441554665,INDIAN OIL DEALERS ALAMPURAM LOCK NO. 22031 / 544 ANDHRA PRADESH
G.S.R.FILLING STATION,28.57917,77.055404,9810440007,SECTOR 10 DWARKA NEW DELHI DELHI
GANGA PETRO,28.703433,77.181085,9810154076,GT KARNAL ROAD INDL.AREA AZADPURDELHI TELE.7139349 Opp. Hans Cinema
GAY SERVICE STATION,17.358621,82.540871,9848190362,INDIAN OIL DEALERS VELAMKOTHURU ANDHRA PRADESH
PALURI VENKATARAMANA,29.2362337,77.7236943,9761582200,KHASRA NO 142 VILLAGE BHAYANGI Block Khatauli
GURU GOBIND SINGH SERVICE STN,28.591123,77.037605,9811057170,SECTOR 12 DWARKA NEW DELHI NEW DELHI
GURU SERVICE STATION,21.2708,72.8465,9879382228,INDIAN OIL DEALER SURVEY NO.978-979B. NO 926 Variav- Surat City
GURUASHISH PETROLEUM,17.68395585,83.19008374,9989881731,NH.5 CHINNAGANTYADA-LOCK NO.T1 78 GAJUWAKA ANDHRA PRADESH
HANUMAN PETROLEUMS,28.578699,77.059527,8826886999,SECTOR-9 OPP. NHAI OFFICE DWARKA NEW DELHI. LOCK NO 330
HUNDRED PERCENT,19.102837,72.873855,9821054977,IOC DEALERS SAHAR MUMBAI.
I CARPORT,27.876553,78.075668,9872260043,ASHIANA COLONYNEAR POLICE STATION BANGLA BAZAR LUCKNOW
INDRA AUTOMOBILES,28.587063,77.241387,9.20E+11,JUNG PURA NEW DELHI LINK ROAD NEW DELHI
IOC COCO JUNGPURA,26.257044,85.186795,9931623672,INDIAN OIL RETAIL OUTLET AT: RATANPURA PO+PS:MOTIPUR DIST: MUZAFFARPUR
JAI BABA GARIBNATH FUEL CENTRE,19.044839,72.916371,9821052147,SION TROMBAY ROAD OPP. TELECOM FACTORY DEONAR MUMBAI.
JOAQUIM PETROLEUM,11.652495,78.131729,9843052252,INDIANOIL DEALER NO.449 NARASHIMMAN STREET SHEVAPET
K.M.B. FUELS AND OILS,24.79678,85.53927,9.19E+11,INDIAN OIL RETAIL OUTLET AT-MAKHAR ANCHAL- AKBARPUR DIST-NAWADA
KAPIL DEV AUTOMOBILES,28.62495,77.30533333,9212155886,EAST OF VINOD NAGAR lok no 336 PATPARGANJSOCIETY AREA DELHI- LOCK ID NO. I 336
KAPUR AUTO SERVICE STATION,23.2426,77.2451,9.19E+11,INDIAN OIL DEALER VILLAGE KHAJURI BHOPAL INDORE RD BHOPAL (RTD-FDZ)
KHAJURI HIGHWAY SER.STN.,23.499449,91.339464,9436133836,P.O.- MELAGHAR WEST TRIPURA SIPAHIJALA
KIRON PETROLEUM AGENCY (MELAGHAR),10.091487,76.345389,9447498230,INDIAN OIL DEALER N.H-47 ALWAYE ERNAKULAM DISTRICT
M.A.MOOPAN AND BROTHERS,19.30219,77.26578,9890062630,GUT NO 19 VILLAGE MALEGAON TALUKA ARDHAPUR Distrcit Nanded
M/S SHRI SAI SERVO CARE,18.758936,73.828704,9822064488,Survey No.251/1(part) SH No.55 KharabwadiChakan TAL KHED DIST-PUNE
MAHADEVI PETROL DEPOT,28.6618,77.30036667,9899940004,CBD SHAHDARA NEAR SURAJMAL PARK CBD SHANDRA NEAR SURAJ MALL PARK DELHI.
MAHENDRA,27.610919,74.792832,9982066905,INDIAN OIL PETROL PUMP VILLAGE KUMASJAGIR State Highway 20
MARUDHAR FILLING STATION,16.230502,80.509817,8985298243,INDIAN OIL PETROL PUMP 4-124 GUNTUR PONNUR ROAD NARAKODURU VIL GUNTUR DISTRICT
MUNEER PETROLEUM,23.802019,91.272901,9436503298,NH-44 BADHARGHAT TRIPURA (WEST) BADARGHAT
N. G. SAHA,27.2111815,78.0030202,9760048161,NEAR TULSI CINEMA AGRA AGRA - 282 002 (U.P.)
NEW AGRA SERVICE STATION,17.373876,82.586522,9848026734,NAMAVARAM VILLAGE PLOT NO.120 PAYAKARAOPET MANDAL LOCK NO.T1 42 ANDHRA PRADESH
SREE DEVI PRASAD SERVICES,17.732397,83.317739,9848503187,Indian Oil Dealers-LOCK NO.T1 71 Resapuvanipalem ANDHRA PRADESH
SIVAJYOTHI ENTERPRISES,28.531431,77.062644,9891050302,"""VILLAGE BIJWASAN"" KAPASHERA - BIJWASAN ROAD ND DELHI"
PARAS AUTOMOBILES,18.790611,73.299609,9820954554,MUMBAI-PUNE EXPRESSWAY SANJGAON TALUKA KHALAPUR DISTT.RAIGAD.
PRAKASH EXPRESSWAY FILLING STATION,28.583255,77.191744,9811080862,OPP. CHANAKYA CINEME YASHWANT PLACE NEW DELHI
R K SERVICE STATION,26.16905,85.3601,8877774610,INDIAN OIL RETIAL OUTLET AT:KOLHUA PAIGAMBARPUR P.S:AHIYAPURBLOCK:KANTI
RAJ AUTOMOBILE,28.52475,77.101001,9599414443,NATIONAL HIGHWAY NO.8SAMALKHA N DELHI. LOCK NO 349
RAJASTHAN RAJPATH FILLING STATION,28.541034,77.153783,9818369369,VASANT KUNJ OPP GRAND HYATT NEW DELHI
RAM MURTEE FUELS,12.7135,77.7052,8792216876,INDIAN OIL DEALERS SY.NO.72/6HALDENAHALI VILLAGE ANENKAL TALUK BANGALORE
RANJITH SERVICE STATION,28.732709,77.198521,9899249866,VILLAGE JHARODA MAJRA OPP STA TPT AUTHORITYBURARI ROADNEW DELHI DELHI
RISAL PETRO,28.56495,77.1776,9718393560,R K PURAM NEW DELHI SECTOR V
SABARWAL SERVICE STATION,21.0753,72.8884,9726133366,"""BLOCK NO.243/2/P VIL. LAJPORE"" NAVSARI ROAD DIST. SURAT NAVSARI ROAD DIST. SURAT"
SAHYOG PETROLEUM,18.748339,79.435964,8341439268,INDIAN OIL DEALERS KUNDANPALLY LOCK NO T3-208 A-5-4 RAMAGUNDAM TELANGANA
SAI LEELA A/S. KUNDANPALLY,10.908044,77.008995,9003955330,SF NO 395 MALUMICHAMPATTI VILLAGE MADUKKARAI
SAKTHIVEL FUEL STATION,28.533834,77.107049,9811066601,IGI AIRPORT NH-8 DELHI JAIPUR ROAD RANGPURI N.DELHI
SATBIR FILLING STATION,28.544977,77.121947,9.20E+11,NH8 MAHIPALPUR DELHI NH8 MAHIPALPUR DELHI DELHI
SETHI AUTO S/STN,27.161015,77.936302,9760604358,NH-11VILLAGE PATHOLI AGRA-FATEHPUR SIKRI ROAD DISTT. AGRA
SHAHEED HARINDER SINGH FILLING STN,25.21805,86.99783,8877745111,VILL-KOHRAPO-MIRJANHAT PS-LODIPUR DIST-BHAGALPUR
SHIVAM ARYAN FUEL SERVICES,28.418935,76.997956,9350819030,NARSINGHPUR NH-8 GURGOAN NARSINGHPUR NH-8 GURGOAN DISTT GURGAON
SHREE SHYAM PETRO CARE,22.2063,69.5571,9426204380,SURVEY NO-186 VILLAGE HANSTHAL TAL:Khambhaliya
SHRI RADHESHYAM PETROLEUM,16.315413,80.349551,9440802050,D.NO. 477 NEAR FLYOVER PERECHERLA VILLAGE & MEDIKONDUR MA GUNTUR DISTRICT
SIVA FILLING STATION,15.53611,79.988426,9.20E+11,SY.NO.435 KURNOOL ROAD PERNAMITTA PRAKASAM DISTRICT
SREE LAKSHMI NARAYANA FILLING STATI,17.394296,82.66317,9.19E+11,ADHOC ASHOK ENTERPRISES NAKKAPALLI VISAKHAPATNAM
COCO NAKKAPALLI ADHOC ASHOK ENTERPR,17.32988,78.55328,9848023030,S.NO.58/1/G BAIRAMALGUDA HASTINAPUR COLONY RANGA REDDY TELANAGANA
SRI BALAJI KAILASH F/S HASTINAPUR,16.547964,80.816952,9985003219,INDIAN OIL DELEARS GANNAVARAM GANNAVARAM VILLAGE & MANDAL KRISHNA DIST ANDHRA PRADESH
SRI BALAJI TRACTOR SERVICE STATION,27.235258,77.870453,9837036258,NH-2 RUNKUTA MATHURA AGRA ROAD KM STONE 18-8 RUNUKTA DISTT. AGRA
SUDHIR FILING STATION,21.7422,72.15,9825206096,NR TALAJA OCTROI TOLL NAKA Indian Oil Dealer ADHEWADA BHAVNAGAR
SWASTIK AUTO SERVICE (TALAJA),25.019739,74.637594,9414110429,CHITTOR-BHILWARA ROAD (NH-48) P.O. & TEHSIL - GANGRAR DISTT- CHITTORGARH (RAJ)
TOP VALUE INDIAN OIL,28.61928,77.483833,9810074210,GT ROAD CHAPRAULA-201302 GAUTAM BUDH NAGAR
TYAGI BROS. FILLING STN.(IBP RO),21.3002,72.9541,9428743881,NH-8 AMBOLIAMBOLI PO. KATHOR TA SURAT. SURAT.
V.D.PATEL & COMPANY,28.77142,78.097691,8923200195,GARHMUKTESHWAR NH - 24 DELHI ROAD GARH PANCHSHEEL NAGAR
VIBHOR SERVICE STATION,27.20156,78.027678,9412256589,JEEVANI MANDI AGRA JEEVANI MANDI
Kunde Service Station,15.276966,73.958381,,"Madgaon, Goa"
Pereira Auto,15.36132,73.927668,,"Verna, Goa"
Kavlekar Fuel Station,15.377176,73.906784,,"Sangoale, Goa"
Auto Care Centre,19.064766,72.860791,,Bandra BKC
"HPCL COCO, Taje",18.749888,73.517471,,"Taje, Mumbai Pune Expressway"
Mega Fuel Station,13.127116,80.295324,,"PLOT NO . 90-B,FISHING HARBOUR,RAYAPURAM, CHENNAI"
HSD-SHREE RAGHAVENDRA FUELS,13.033597,77.530716,,"HP DEALER , C A SITE, 2ND STAGE PEENYA BDA INDUSTRIAL SUBURB, NH4, PEENYA BANGALORE - 58 560058"
Auto care centre. Old Airport road,12.959191,77.653331,,Bangalore
Shann Petroleum,13.408438,77.084981,,"TUMKUR-SIRA ROAD, LHS SY NO 180/2, NH -4 OORUKERE POST 572106"
"HSD Anand filling station,",13.163865,77.566282,,"SY.NO.11/4, RAJANKUNTE YELLHANKA-DODDBALLAPUR MAIN ROAD RAJUNKUNTE POST 560064"
Mallikarjuna Service Station,12.959191,77.653331,,Ramchandra Puram Hyderabad
Auto Care Centre,28.599465,77.195884,,Niti Marg
HPCL Bedi Motor,28.596284,77.204475,,"Race Course Road, New Delhi"
HPCL Batra Car care Centre,28.602175,77.230023,,"Humayun Road, new Delhi"
HPCL Anand Service station,28.544743,77.121463,,Mahipalpur Delhi
"HPCL Om Service station, Singhu Border, Delhi",28.853682,77.124803,,"Singhu Border, Delhi"
MS Associated Service station,28.670024,77.226365,,"Near Kashmiri gate,Alipur road"
"Servicircle, Ashram Chowk",28.571214,77.25976,,Delhi
Hindustan Fuels,28.427438,77.034197,,"Sector-48, Gurgaon, Adjacent Central Park II, Near Aricent building"
Bhole Shankar Filling Station,28.423869,77.147923,,Faridabad - Gurgaon Rd
SAINIK FLG STN - GURGAON,28.309312,76.883357,,"DELHI -JAIPUR ROAD, BINOLA, DIST. GURGAON"
BANSAL PETRO,28.304391,76.877337,,"DELHI -JAIPUR ROAD, BINOLA, DIST. GURGAON"
Malwa Automobiles Pvt. Limited,28.874731,77.121824,,"NH 1 31 KM Stone GT Road, Sonipat, Phase IV, Kundli, Haryana 131028"
Balaji Service Station,29.102671,77.051004,,"Plot NO 102 1 Vill Bari Dist Sonepat, Haryana 131101"
Kaushalya Petro Junction,29.253822,77.008577,,"TEH. & PO: Samalkha Dist:, Haryana 132101"
Balaji Filling Station,30.111596,76.872162,,"Teora, Haryana 136135"
"COMCO- Grand Millenium, Satellite",23.017733,72.518767,,"Satellite, Ahmedabad"
COMCO- Chandkheda,23.10398527,72.57607857,,"Near ONGC Colony,Chandkheda"
COMCO- Nikol,23.03487579,72.67582522,,"Plot.no.85/1,F.P.no.85,T.P.S No.111,Nikol,Ahmedabad"
HPCL COCO Rander,21.220858,72.790517,,"Rander, Surat city"
HP COCO Nizampura,22.340739,73.178151,,"Nizampura, Baroda City"
Coco Karelibagh,22.320662,73.203927,,"Karelibagh, Baroda City"
City Light,21.169113,72.794814,,Surat City
Highway Service Station,27.001626,75.875975,,"NH-08, Amer Jaipur-Delhi Highway"
Shri Balaji Filling Station,27.5672732,76.0729333,,"Jaipur-Delhi road, Paota (LHS)"
Tirupati Fuel Centre,27.5719633,76.0739579,,"Jaipur-Delhi road, Paota (RHS)"
Dev Kiran Petro Services,26.998492,76.839957,,"Jaipur-Agra road, Pipal Kheda Dausa (RHS)"
"HP Auto Care, Bilouchi LHS",27.145909,75.858482,,Jaipur- Delhi Highway
Rambagh Service Station,26.895939,75.809259,,Jaipur- Delhi Highway
"HP Auto Care, Bilouchi RHS",27.149671,75.858444,,Jaipur- Delhi Highway
Raj Automobiles,27.216517,78.090392,,"Chalesar, on NH2, Agra"
Friends Auto Service,27.131485,78.007094,,"Sewla Jaat phatk, Agra"
M/s Bahri Goods,26.914087,75.829135,,"Agra Road, Jaipur City"
M/s Agra Roads,26.913906,75.831902,,"Agra Road, Jaipur City"
Adhoc- Kay S S,28.540799,77.116802,,Rangpuri
RAJ AUTO SERVICE,28.377316,77.301376,,Faridabad
HP SHIV SHAKTI PETROLEUM,28.304687,77.067174,,Gurgaon (NH-248)
HP KALRA FILLING STATION,28.381419,77.337121,,Faridabad
HP S S FILLING STATION,28.472688,77.030894,,Gurgaon
HP B S FILLING STATION,28.363271,76.809606,,BETWEEN KM ST 22 AND 24 LHS ON PATAUDI-GURGAON ROAD (JAURI KALAN)
MTB S/S,13.02082759,77.7114574,,Avulahalli
Dinesh Filling Station,17.424225,78.379351,,Gachibowli
Adhoc Sri Murugan Agencies,12.83081153,80.22382845,,"OMR ROAD,SIRUSERI IT PARK,EGATTUR VILLAGE"
HP AUTO CARE CENTER (COMCO SHOOLAGIRI),12.666399,78.002946,,"HP JUNCTION COMCO,BANGALORE MAIN ROAD,SHOOLAGIRI, HOSUR"
Adhoc M Nagarajan,13.042346,80.267894,,"NO:186,RAYAPETTAI HIGH ROAD,MYLAPORE, CHENNAI"
HP Auto Care Center,18.62321565,73.80711934,,"HAL-2, Pune"
HP Auto Care Center,18.62321565,73.80711934,,Nagpur
Jyoto filling station,23.37507684,76.22171026,,"Village Nainavad, A.B. Road NH-52 (Old NH-3), Tehsil Tarana, District Ujjain (M.P.) Pin 456770"
HP Autocare HAL-3,18.62475866,73.81741972,,Pimpri
TRK Walke Petroleum,18.61741804,73.87098434,,Dighi
Nirmal fuel station,23.96229404,72.369124,,AHMEDABAD
Shree Gajanand petroleum,22.71765247,72.42619003,,AHMEDABAD
Krishav Fuel station,23.53423302,72.75077718,,AHMEDABAD
Shri Ashapura petroleum,23.01150332,71.45834165,,AHMEDABAD
Ramdevkrupa petroleum,22.74690795,72.35390432,,AHMEDABAD
"NILAKANTHA PETROLIUM,MEGHRAJ",23.50979406,73.51290016,,AHMEDABAD
DASHMAA PETROLEUM,22.97413222,73.70086906,,BARODA
SHYAM PETROLEUM,20.65718267,72.914628,,BARODA
SHREE MOHANESHWAR GASOLINE,20.51731654,72.89757793,,BARODA
JOHAR PETROLEUM,22.89651793,73.00678814,,BARODA
EKTA PETROLEUM,23.05358306,73.96669616,,BARODA
MSHSD SHRI RAM FUEL STATION,22.48388064,73.06656593,,BARODA
MSHSD SAMRAT PETROLEUM,21.91628878,73.03797637,,BARODA
MSHSD POONAM PETROLEUM,20.15740411,72.74670527,,BARODA
MSHSD RONAK PETROLEUM,21.81521792,73.36209559,,BARODA
MS/HSD JAY SHREE CHAMUNDA PETROLEUM,23.3997556,69.69271677,,Rajkot
MS/HSD MAA PETROLEUM,21.73525213,70.43138332,,Rajkot
"SHREE JALARAM PETROLEUM, RAPAR",23.57816279,70.65588899,,Rajkot
"SHIVKRUPA PETROLEUM, KHARACHIYA",21.8214715,70.16562332,,Rajkot
MILLENNIUM KOTA,25.15387673,75.87576054,,Kota
PREM FILLING STATION,25.35663266,75.4981218,,Kota
VISHWAKARMA FILLING STATION,26.32798187,74.73588474,,Kota
SHREE BHAGWAT FILLING STATION,25.81560126,75.19980438,,Kota
Gojer Service Station,12.84274114,77.64004984,,Electronic City
Swayam Jyothi Service Station,13.34652117,77.1255439,,Kuvempunagar
MS/HSD SRI KANAKADURGA FILLING STATION,17.65979467,78.175816,,PALPANOOR
MS/HSD RAMA DEVI FILLING STATION,17.69809853,78.20747027,,MUCHERLA VILLAGE
VIHAANA FUELS,12.88378861,80.15411634,,"207/2,AGARAM MAIN ROAD,AGARAM THEN VILLAGE,TAMBARAM,CHENGALPATTU, TAMBARAM"
YOGEES SERVICE STATION,12.91072762,80.16856719,,"S.NO,96/2,VENGAIVASAL MAIN ROAD,VENGAIVASAL VILLAGE,TAMBARAM"
ARUNA AGENCIES,12.80772968,79.68334488,,"NO-477,200 FT INNER RING ROAD,JAWAHARLAL NEHRU SALAI, MADHAVARAM, CHENNAI"
MS/HSD SWAMY AGENCY,13.221944,79.641739,,"NO-22,REDHILLS ROAD,EAST BALAJI NAGAR, ThALAVEDU, AMBATTUR CHENNAI"
NST Fuels,13.15739885,80.13106606,,Arikkambedu
M/S BHAWNA FILLING STATION,26.84924433,77.55231442,,BHARA TEHSIL KHERAGARH AGRA TANTPUR ROAD 283115
MS/HSD SHRI KUNJ BIHARI FILLIN,27.38059706,77.60991721,,"KOSI KHURD MATHURA BHARATPUR ROAD SH 33, TESHIL GOVERDHAN 281121"
Arth Petroleum,23.14737493,73.21520464,,AHMEDABAD
Kamdhenu Petroleum,22.74020247,72.29099426,,AHMEDABAD
Rameshwar Petroleum,22.46531931,71.48253811,,AHMEDABAD
Somnath Petroleum,23.35113493,72.94085531,,AHMEDABAD
"RAJ PETROLEUM, KHADOL",22.415822,72.03740868,,AHMEDABAD
"D M PETROLEUM, KAMRODA",23.45386659,73.50337037,,AHMEDABAD
VIKAS PETROLEUM,24.3762618,71.57438487,,AHMEDABAD
URJA PETROLEUM,23.45306754,72.72323732,,AHMEDABAD
AMRUTDHARA PETROLEUM,23.49654492,72.64565032,,AHMEDABAD
"CHIRAG PETROLEUM, TINTOI",23.5994977,73.32000032,,AHMEDABAD
"GAJANAND PETROLEUM,KADA BUS STAND",23.62954816,72.56304781,,AHMEDABAD
"SHREE HARIHAR PETROLEUM, MAVSARI",24.60806722,71.36422818,,AHMEDABAD
"SHRRE OGADJI ENERGY, RAMPURA",24.28447241,72.06175318,,AHMEDABAD
JAY LAXMI PETROLEUM,20.91756369,73.33674602,,BARODA
SHREE KANSARI PETROLEUM,21.18486459,73.78143743,,BARODA
BHAGYALAXMI PETROLRUM,21.12610507,73.41714716,,BARODA
MSHSD RIDDHI PETROLEUM,22.32596445,73.83562248,,BARODA
MSHSD SHREE KUNJ PETROLEUM,20.79237427,73.22878694,,BARODA
"SAI PETROLEUM, MANABA",23.05768905,70.85380938,,Rajkot
Sankalp HP Center Ramchandrapura,26.7721743,75.8588282,,Jaipur
Nirmala India Petroleum,26.5929942,75.5365536,,Jaipur
Maa Phitalamata Filling Station,26.9828684,75.4312183,,Jaipur
Shanti HP Centre,24.45915456,73.59245564,,UDAIPUR
PANDIT FS,24.56222678,73.7015405,,UDAIPUR
Mangal Murti FS,24.89602058,74.30055684,,UDAIPUR
MSHSD SRI SENDHUR MURUGAN AGEN,12.62843305,79.91408581,,"CHENGALPATTU,,UTHIRAMERUR ROAD|PUKKATHURAI, KODITHANDALAM"
Sri Venkateshwara Fuels,12.79797239,78.00817083,,"HPCL DEALER,SF.NO :62/1B, MUDUGURIKAI POST,PANNAPALLI"
THAKOR PETROLEUM,21.12464505,72.87677302,,BARODA
"YADUNANDAN PETROLEUM, MITANA",22.57245937,70.74589746,,Rajkot
"NYALKARAN PETROLEUM, SAMATRA",23.19565484,69.50375718,,Rajkot
"JAY VILNATH PETROLEUM, MOKHANA",23.28694749,70.00584542,,Rajkot
Shivaay Fuel Station,22.18390667,70.83891332,,Rajkot
KU & CO,21.74936658,73.01973535,,BARODA
MEGA PETROLEUM,21.577325,72.998354,,BARODA
Kamal Filling Station,30.01605156,74.85520432,,"Village - Pakka Kalan, Bathinda"
Gagan Filling Station,29.94678598,75.59169868,,"Village: - Baochhana, District Mansa"
Ganpati Petro,30.21516554,74.91499344,,Bathinda WML
Bakshiwala HP Filling Station,30.39840706,76.3126394,,"VILLAGE - BAKSHIWALA, PATIALA"
"Auto Care Centre, Pitampura",28.696139,77.155107,,Pitampura
SUHAG ENTERPRISES,28.879696,76.58398825,,"SUNARIA CHOWK ROHTAK,"
MOHAN PETRO STATION,28.90432607,76.59729286,,Rohtak
RADHEY KRISHNA FILLING STN,28.52026548,76.85756248,,"Badsa,Jhajhar"
Shri Radha FS,28.15516598,77.32869308,,palwal
MAA AZADKAUR FILLING STATION,28.93599836,76.520293,,ROHTAK
NIRANJAN HP CENTRE,29.27983585,76.355347,,"BIROLI, JIND"
YUVRAJ PETROCITY,29.79631671,76.1230788,,JIND
MS HSD RP FUELS,13.20555932,80.11953725,,"ANAIKATTUCHERI VILLAGE,POONAMALLE TO PATTABIRAM HIGHWAY,THIR"
MSHSD SRI PADMAM FILLLING POIN,12.94414971,79.8673282,,"SARASWATHI NAGAR,CHENNAI,THIRUVALLUR|AVADI, SOGANDY"
MS/HSD RADHIKA FILLING STATION,13.30743464,79.44270863,,"NO-233/3,KUMARAJAPETTAI VILLAGE,KUMARAJAPETTAI (POST)"
MSHSD ANNAMALAI AGENCY,12.45325066,79.57050986,,Illangadu
MSHSD JEMIX HP STATION,22.71552268,88.22242773,,KALACHARA
M/s. Sree Anjaneya Filling Station,17.20008814,80.56018803,,Kallur
M/s. Sri Venkateswara Quality Fuels,17.30124319,80.38567084,,Gubbagurthi
Coastal Filling Station,16.92576017,81.67347534,,Nidadavolu
"KALKA Filling station,Mahuwakalan",25.46489615,74.7856172,,Mahuwakalan-Bhilwara
"Bherunath HP Filling station,Rased",25.48724782,74.93042394,,Rased-Bhilwara
Amar Filling Station-Satta Bazar,30.522792,75.878433,,Village Malerkotla
Shamsher Sing Grewal Petro,30.9301346,75.81662964,,VILLAGE - JASSIAN
RAGHAV FS,28.18025575,76.71274188,,REWARI
SRI CHANDAN FS,27.9022964,77.37235955,,HODALPATTI PALWAL
SURAKSHA FUEL PT,28.17060527,77.27233847,,GUGHERA PALWAL
SHRI SHIVLAL FS,28.03985088,76.50894741,,JAISINGHPURKHEDA REWARI
SHIV FILLING STN,28.17764356,76.59524592,,JATUWAS
MSHSD BASANT FILLING STATION,29.01088797,76.00358356,,"BHIWANI HANSI ROAD, VILLAGE JITAKHERI 127035"
MSHSD PRITAM ENERGY STATION,25.07845863,76.78529746,,"HANSI BARWALA ROAD, NH148B"
MSHSD SIVA SAKTHI AGENCY,13.10374546,80.0587356,,"ANAIKATTUCHERI VILLAGE,POONAMALLE TO PATTABIRAM HIGHWAY,THIRUVALLUR"
KhatuShayam Petroleum,26.6351654,76.1057354,,Jaipur
COMCO BODAKDEV,23.033165,72.513802,,AHMEDABAD
COMCO SOLA,23.063126,72.531773,,AHMEDABAD
Amloh Filling Station,30.60895621,76.22672986,,Amloh
Badarpur SS,28.585801,77.240473,,badarpur
Deep Fuel,28.567956,77.223711,,Delhi
MSHSD TIRATH FUELS,29.58505868,76.11774917,,HP PETROL PUMP NARWANA GAUSHALA ROAD 126116
MS/HSD BUDDHA PETRO STATION,29.41846205,76.22917595,,HPCL PETROL PUMP VILLAGE - KHATKAR 126115
MS/HSD CH. RAI SINGH SAHARAN PETRO CITY,29.767128,74.477038,,CHAUTALA CHAUTALA HANUMANGARH ROAD SIRSA 125101
Bhoria fs,29.117,77.10443487,,Umedgarh
Rishi markanda fs,30.42453065,77.14801514,,Dehar
Jimidara fs,30.2567238,76.8536501,,Mohra
CNV ENTERPRISES,12.96543225,77.73321163,,SY.No 65/20 Nallurahalli Road White Field 560066
MSHSD SLN SERVICE STATION,13.227398,77.688798,,"Sy.No.58, NH44 (Hyderabad to Bengaluru Rd), CHIKKASONNE VILLAGE,DEVANHALLI TALUK 562110"
Prakash Petroleum,15.684557,74.717717,,Kadroli
Shivaparvati Petroleum,14.74717557,75.45345933,,Kadamanhalli
Maharath Petroleum,17.17542562,75.79695325,,Kapanimbargi
MSHSD SRI MURUGAN AGENCY,12.68745981,79.27284898,,Sevoor
MSHSD MRL HP PETROLEUM AGENCY,13.05966332,79.2784388,,Melpadi
MSHSD K.S.P.A. AGENCY,12.34826557,78.97925244,,"14/1A, GENGAMPATTU,GENGAMPATTU VILLAGE,VELLORE|CHENGAM"
MSHSD RASEE ENTERPRISES,12.47886497,79.2924731,,"KUDALUR VILLAGE,NO-5/4B,TIRUVANNAMALAI|VANDAVASI"
MSHSD SRI PARUCHURI AGENCY,13.28065576,80.15001386,,"G.N.T. ROAD,PANJETTY VILLAGE,176/3B,THIRUVALLUR|PONNERI"
Dakshata Petrol Pump,20.11801256,77.1354988,,Washim
APMC Akole Kotul,19.44233809,73.96299042,,Kotul
APMC Lasur,19.92249671,75.01427832,,Sawangi
Mehar Fuel Charger,20.68543044,76.78712008,,kashtkhed
Amruteshwar Petroleum,20.5185571,75.35598309,,varthan
Date Petroleum,19.27930924,74.35705054,,Khadakwadi
Adhira Petroleum,20.00987229,75.14158401,,Mambapur
Paras Petroleum,19.88169058,75.907284,,Panshendra
APMC Rahuri,19.43543714,74.61388588,,Rahuri
"SHRI LALA RAM FUEL STATION, BAJHERA",26.00240179,78.25053116,,BAJHERA
"KALYAN HARILEELA MOTORS, PARSEN",26.31315898,78.36847355,,PARSEN
"MSHSD M BALAJI FUEL, VILLAGE- BHARROLI",25.96888656,78.39894988,,VILLAGE- BHARROLI
"MSHSD SHREE BALDEV MURLIDHAR SHARDA FUEL, MORENA",26.49676658,77.99224591,,MORENA
"MSHSD RADHA CHATURVEDI FUELS, KASBA BHIND",26.55759367,78.79406878,,KASBA BHIND
"SAHU FUEL POINT, JAMONIA TALAB",23.2251935,77.09188468,,JAMONIA TALAB
"MSHSD ANIL TRANSPORT CO., BALODI",23.58911068,76.47203632,,BALODI
"DHUMESHWAR FILLING STATION, SAKHINI",25.7752834,78.18401683,,SAKHINI
B L SOLANKI AUTO FUEL,26.37679015,77.93451716,,VILLAGE -SUMAOLI
SHRI BANKE BEHARI FILLING STATION,26.02475469,78.12741423,,VILLAGE-AMROL
MSHSD KRIPA HARILEELA FUEL,26.21665971,78.14831777,,GWALIOR
MSHSD DEVCHAND DHAPANI FILLINGS,23.88011809,76.64098234,,VILLAGE-GURADIA
MSHSD DEV MANGAL BABA FILLING CENTER,26.18154843,78.13275407,,SAIKANDAR KAMPOO CHAURAHA
MSHSD SHRI RADHE JAI DAU JI FILLING,26.33863199,77.75250351,,VILLAGE- AGROTA
MSHSD SHRI GIRRAJ DHARAN FILLING CENTER,26.52802281,78.04558155,,VILLAGE-JIGNI
MSHSD MONIKA MEENA FILLING STATION,25.6697642,76.57090372,,VILLAGE-PREMSAR
SHRI SIDDARTH PETROL PUMP,23.26269215,76.14785666,,VILLAGE JHOKAR
JIGISHA FUELS,22.88583595,76.1398496,,SIROLIYA
SHRI GOVERDHAN FUEL STATION,22.872333,76.24504215,,NEORI
SHRI SANWARIYA FUELS,23.09798127,76.33309675,,CHOBARADHIRA
GOURAV PETROLEUM,21.71912571,75.89666214,,KARANIYA
MARIA FUEL STATION,22.04142222,75.0453773,,ANJAD
LANDMARK FILLING STATION,22.74201111,75.9776645,,BURANAKHEDI
GIRIRAJ FUELS,22.6600905,76.13570297,,SHIWNI
VISHWAMANGAL FUELS OZAR,21.82154046,75.21104921,,OJHAR
SAGAR FUELS & ENERGY,22.82177489,75.85044117,,BAROLI
SHRI RAM PETROLEUM,23.3968851,75.49370673,,HATAI
MAKDONE MIDWAY FUEL STATION,23.49957203,76.08276654,,DELCHI
VIJAY LAXMI FILLING STATION,22.77164359,76.11976272,,SANNOD
BALAJI PETRO SERVICES,22.46229739,75.736113,,BADGONDA
Vanita Petroleum,21.15228413,78.33470127,,"Village -Sawali, Taluka - Karanja, NH-06 (New NH 53) Nagpur- Talegaon Road , Dist- Wardha"
XPRESSWAY AUTO SERVICES,21.18614918,79.26567767,,NEERI
KHUSHI PETROLEUM,20.91357006,74.77997339,,"Ekvira Devi Road, Near Musu Bhai Kapat Wala, S.No.116/2,P.No.37, 38, Deopur, Dhule, Maharashtra 424002"
HIRAEE PEROLEUM,20.55594489,74.285653,,"Malegaon - Satana Rd, Brahmangaon, Maharashtra 423213"
GANGALAKSHMI PEROLEUM,20.54393293,74.348466,,"Lakhmapur, Satana - Malegaon RD, Satana ( Baglan ) , Dist. Nashik, Maharashtra 423213"
SHRI KRUSHNA PETROLEUM,19.96690287,73.74039403,,"Ambad Kamathwade, link Road, Krishna Nagar, MIDC Ambad, Nashik, Maharashtra 422010"
SHRI DATTKRUPA PETROLEUM,20.08889316,74.24851821,,"At Hanuman Nagar, Aurangabad Highway, Vinchur, Niphad, Nashik"
KANSARA PETROLEUM,20.53763653,73.90891983,,"Pimpala Road, Kanashi, Tal. Kalwan, Dist, Nashik Maharashtra Pincode 423502"
INGAWALE PETROLEUM,18.50054528,73.75518836,,BHUGAON
NAYANA PETROLEUM,17.59148445,74.04339997,,BHARATGAONWADI
KRUSHNAI PETROLEUM,17.84760543,73.95280845,,PANCHWAD
BANGANGA PETROLEUM,17.91028758,74.3986288,,MANDAVKHADAK
"PRATIK PETROLEUM, PARLI",18.88676906,76.55771403,,Parli
"BHOSLE-PATIL HIGHWAY SER, PENNUR",17.77514443,75.50931747,,Pennur
"SWARAJ PETROLEUM SERVICE, MASSAJOG",18.75364374,75.94654196,,Massajog
"SHREE GURUDEV DUTTA PET, MALKAPUR",18.39329275,77.09775073,,Malkapur
"GURU MAULI PETROLEUM, Deoni",18.26157652,77.09273417,,Deoni
KRISHI UTPANNA BAZAR SAMITI AKLUJ,17.89284863,75.00926418,,Akluj
R L DESHMUKH PETROLEUM,18.32774691,76.54474414,,Peth
PATIL PETROLEUM SOLAPUR,17.68724756,75.91787291,,Solapur
RSD FILLING STATION,28.56202827,76.21008226,,"VILLAGE KALIYANA, BHIWANI"
RJ filling Statiom,30.17550869,76.77048179,,Nalvi
HP Naggal,30.26554668,76.7128985,,Sakhraon
Shiv Hari filling Station,29.23053607,77.01508473,,Samalkha
Shri Balaji Petro fuels,29.19721744,77.02409168,,Pattikalyana
HP 8 fuels,30.36271293,76.77206394,,Ambala
ADHOC SIVARAGINI FILLING STATION,13.47072404,80.10920634,,"HPCL DEALER,CHENNAI - KOLKATA HIGHWAY,ELAVOOR"
MSHSD SRI VENKATESWARA AGENCY,13.1272045,79.24697,,"NO-291,THANIGAI NAGAR, PULLILYON,MADHAVARAM HIGH ROAD"
MSHSD P.D.N FILLING STATION,13.32096856,80.18292203,,"THACHOOR-PONNERI ROAD,KRISHNAPURAM VILLAGE,THIRUVALLUR|PONNE"
MSHSD ADHOC SRI KALAIVANI AGEN,12.551389,78.448557,,"NO-291,THANIGAI NAGAR, PULLILYON,MADHAVARAM HIGH ROAD"
MSHSD RR FUELS,12.62815507,79.2971941,,Nesal
LAKSHMI ANAND PETROLEUM,16.29164805,74.23042308,,Pangire
ARADHYA PETROLEUM,17.22948193,74.40141563,,Wangi
RAJMANE PETROLEUM,16.83539869,74.66737664,,Miraj
FURTADO FUEL CENTRE,15.24931684,73.96891797,,Navelim
NRO APMC SUPA,18.33937368,74.37815836,,Supa
MSHSD SHREE SUMUKHA FUEL STATION,13.42703,76.62741091,,"SY. NO.69/1A1 AT HOSAHALLI TO MDR OF CHIKKANAYAKANAHALLI VILLAGE , TUMKUR DISTRICT"
MSHSD KALGUDI FUELS,12.58967762,76.93793392,,"HP PETROL PUMP , SY NO 213/16,KEELARA VILLAGE ,MANDYA KEELARA ROAD-571450"
MSHSD SRI TC NARASIMHAYA & SONS,13.81183395,77.31321717,,"SY NO2/3 OF I.D HALLI VILLAGE, I.D HALLI HOBLI,MADHUGIRI TALUK, TUMKUR DISTRICT, KARNATAKA STATE PINCODE-572124"
B M M FILLING STATION,14.737875,78.547892,,PRODDUTUR
MSHSD R R PETROLEUMS-EDARA,15.91181432,79.818084,,EDARA
OMKAR PETROLEUM,23.105409,72.63088,,AHMEDABAD
"MSHSD HP Service Centre, Oran",23.21595,72.639791,,AHMEDABAD
DHARTI FUEL CENTRE,23.604875,73.169709,,AHMEDABAD
Kuvadva Petroleum,22.34943827,70.95370056,,Rajkot
Khodalraj Petroleum,22.06378897,70.78277822,,Rajkot
Vishwanath Petroleum,22.17338706,71.35304338,,Rajkot
Matrukrupa HP,22.97985646,71.19449258,,Rajkot
HAMARA PUMP KIARA FILLING STATION,27.17715124,77.79298143,,"HAMARA PUMP KIARA FILLING STATION,VILLAGE RAIBHA, AGRA ACHNERA ROAD, DISTT AGRA-283101,9557846324"
North Star Petroleum,22.57749036,70.98151353,,Rajkot
Shree Bahuchar Petroleum,22.8518997,70.72690627,,Rajkot
ARJUN FUEL STATION,23.185175,70.179095,,Rajkot
GAJANAND PETROLEUM,22.60801,70.93984576,,Rajkot
Shree Shakti Petroleum,22.10336943,71.02482571,,Rajkot
Shree Neelkant Petroleum,24.01230232,73.49845502,,UDAIPUR
SONA PETROLEUM,25.29888151,74.63513777,,UDAIPUR
YASH FILLING STATION,25.56604597,75.29916093,,UDAIPUR
MSHSD SHRI DATA HP,25.37895633,74.57823202,,UDAIPUR
MSHSD Jiteen HP FS,23.72290418,73.8834686,,UDAIPUR
Shiv Mani,23.83947261,73.7488727,,UDAIPUR
MS HSD KAMAL FILLING STATION,23.985166,73.606248,,UDAIPUR
MS HSD JAI KRISHNA ENTERPRISES,23.776849,73.509844,,UDAIPUR
"Maa Petroleum, Orwad",20.45188759,72.91989979,,BARODA
"Sahil Petroleum, Daheli",20.27178184,72.88639563,,BARODA
BAPA SITARAM FUEL STATION,23.28133533,72.75961342,,AHMEDABAD
VIJAY AUTOMOBILES GANDHINAGAR,23.21517,72.648664,,AHMEDABAD
ANMOL PETROLEUM,23.70504638,73.39140137,,AHMEDABAD
COCO Vasna,22.295027,73.152555,,BARODA
"Batra Oil Co , Singu Border",28.854638,77.124552,,Delhi
Usha Fuels,16.98653906,81.74378003,,Kovvur
ADHOC Sri Padmavathi FS,16.32884743,79.94699705,,Vipparla
Addanki Filling Station,17.15667142,80.17488647,,Pandillapalli
Janatha Filling Point,17.05506218,80.12084663,,Banapuram
SHASTY FUELS,12.68561733,78.00996141,,"SF NO. 176/1E,176/2C,ANNASANDHIRAM,KARUDHANDAPALLI,,KRISHNAGIRI"
KALAIVANI FUELS,11.96144612,77.82062414,,"HPCL DEALERS,SF NO:790/1, KARADIKUNDU,,MANGARAHALLI (POST)"
SRI HARISH AGENCY,11.95039814,79.18639053,,"HPCL NEW BYPASS ROAD,,SANDAPET, TIRUKOVILUR,KALLAKURICHI"
MSHSD MLSJ AGENCIES,12.71668908,79.30006617,,Arni to Timari
MSHSD KANIYAN POONGUNDRAN AGENCY,12.61402791,79.33218023,,Agaram
HP AUTO CENTRE-IRCON REST AREA,24.87066243,77.47679622,,"VILLAGE-TAKNERA, MIANA, GUNA"
AARAMBH FILLING STATION,22.9923139,76.54407051,,"VILLAGE GURADIA MANDA, SEHORE"
MSHSD OM SHIVSHAMBHU PETROLEUM SERVICES,18.67393938,73.80392234,,Chikli CC
MSHSD DHEERAJ PETROLEUM,21.03274513,73.44880571,,BARODA
Raghuvanshi Petroleum,23.36350009,69.24678761,,Gandhidham
Adhoc Ram Petroleum,22.862831,69.688952,,Rajkot
Lilavanti Petroleum,23.21503021,69.29450733,,Rajkot
Shree Jaliyan Petroleum,23.33167552,70.33256827,,Rajkot
Adhoc Khawda Petroleum,22.9886977,69.84274228,,Gandhidham
Jay Jalaram Petrol Point,23.230761,69.6404,,Rajkot
SAI FILLING STATION,26.897064,75.958909,,Jaipur - B
HP HINDOLI,25.56885244,75.50318475,,Kota
SANVI FILLING STATION,25.44913144,75.60426138,,Kota
DEEPAK FILLING STATION,25.10393741,76.50020126,,Jhalawar
DARSHAN FILLING STATION,24.56577598,76.12082707,,Jhalawar
SUREKA PETROLEUM,24.40890449,75.84546241,,Jhalawar
R C LODWAL FILLING STATION,26.54332602,76.56451519,,Sawai Madhopur
PARSHWANATH FILLING STATION,24.33552191,76.00849602,,Jhalawar
THE UNIVERSAL PETROLEUM,26.35220837,75.922523,,Kota
RAJILWAR FILLING STATION,26.56409118,76.80347689,,Kota
BHAGWATI FILLING STATION,27.6630892,76.1273257,,Jaipur - C
REYANSH FUELS,25.34971088,76.35397298,,Jhalawar
URMILA FILLING STATION,24.59654005,75.89288852,,Kota
Puran SS,28.653858,77.14739,,kirtinagar
AMAR SS,30.741138,76.724524,,Chandigarh
MS/HSD SRI SAI RAM PETROLEUMS,17.41996369,78.57816398,,BODUPPAL
Sri Rama Kotaiah Fuel Point,17.25506099,80.1615848,,Khammam
MS/HSD GRR FUEL PARK,12.88575553,77.5568578,,"Survey No. 83/1A Doddakallasandra Village, Uttarahalli near Konanakunte Cross, Kanakpura Road 560078"
CHAKRA AGENCY,12.10512101,79.73941602,,"104/16A2,Kiliyanur Village,,Villupuram|Tindivanam"
SWAMI RAJ PETROLEUM,19.02798058,73.95332667,,EKLAHARE
HEERKANIL REAL ESTATE,18.20696723,74.60582178,,MIDC BARAMATI
Virendra FS,29.02717971,75.89360995,,Hisar
DHRUVIKA PETRO,28.39618238,76.93320166,,"SECTOR 86, GURGAON"
MS/HSD SM FILLING CENTRE,22.6273398,88.29195973,,EKSARA
NAVKAR FILLING STATION,25.96055675,74.44956738,,Kota
SHRI BALAJI PETROLEUM,26.26675364,74.76161669,,Kota
SHREE NARSINGH FILLING STATION,26.54245,77.19013375,,Kota
MSHSD JAI HIND FILLING STATION,24.818241,76.19735273,,Kota
MSHSD SHRI MAHADEV PETROLEUM,21.46275988,73.47597094,,BARODA
MSHSD MAHISAGAR FUEL STATION,23.19186193,73.60051236,,BARODA
MSHSD AMI PETROLEUM,20.74233997,73.14032758,,BARODA
HM Petroleum,20.69730927,72.97943973,,Sonwada
CPS Eco Friendly,21.156199,72.832531,,Udhna
"New Hem Motors, Dharampur Road",20.603719,72.929345,,Valsad
"Vihal Petroleum, Ajwa Road",22.313891,73.241526,,Vadodara
"SAGAR PETROLEUM, Lingda",22.68963073,73.06653236,,Anand
DHULEV PETROL PUMP,23.774193,73.508246,,Bichiwara
Hemkunt SS,28.585801,77.240473,,Jangpura Ex
Batra Brothers-,28.567956,77.223711,,South Ex
Vishal SS,30.705817,76.78752,,Chandigarh
Pick & drive,28.656213,77.089564,,Paschim Vihar
BST PETROMART,28.41847828,77.15683346,,GURGAON
HP SARLANAND,28.18299673,77.31620715,,GURGAON
BABA BHAJLERAM,28.26212865,76.82800164,,GURGAON
NAIN SINGH TYAGI,28.39297349,77.06270527,,GURGAON
SADHURAM & SONS,28.39959269,77.00258937,,GURGAON
KRISHIDEV PETROLEUM,17.90491882,74.355505,,WAKHARI
R K FILLING STATION,30.14961599,76.18058373,,SAMANA
ACC Manesar,28.364525,76.918591,,Gurgaon
SHRI DWARKESH AUTO FUELS,23.00569636,72.75813545,,AHMEDABAD
Esha Filling Station,26.830677,75.2704666,,Jaipur
HP BHAWANIMANDI,24.41189765,75.8312547,,Kota
HP FILLING STATION,26.01737259,75.69066846,,Kota
ANKIT FILLING STATION,23.95275966,75.85382688,,Kota
MSHSD SHRI SAINATH PETROLEUM,22.97855067,73.89060829,,BARODA
MSHSD SAGAR PETROLEUM,21.764998,73.023102,,BARODA
MSHSD SAFARI PETROLEUM,22.6943251,73.92527463,,BARODA
Adhoc Lakshmi,12.611855,79.924226,,Pukkathurai
Adhoc VGN,12.9124226,79.36487606,,Walajabad
MULLAI AGENCIES - Resitement,12.70681444,78.64847868,,Ambur
MSHSD TONDIARPET SERVICE STATION resitement,13.18024777,80.20975542,,PULILIYON
MS HSD PSR Fuel station,13.16138932,80.22739391,,MFL Junction
CHAKRA AGENCY,12.10512101,79.73941602,,"104/16A2,Kiliyanur Village,,Villupuram|Tindivanam"
KRT FUELS,12.35871376,78.21420426,,Paiyur
KALAIVANI FUELS,11.96144612,77.82062414,,Karadikundu
ASHA FUELS,12.34103253,78.46465024,,Antheripatti
MG BROTHERS-I,15.829428,78.040024,,KURNOOL
MS/HSD SRI SAI RAM PETROLEUMS,17.41996369,78.57816398,,BODUPPAL
MSHSD RAJATHADRI FUELLING STATION,13.30804929,77.14777608,,"SY.NO. 98/6 KYATHSANDRA VILLAGE,URDIGERE HOBLI,TUMKUR TALUK, TUMKUR DISTRICT- 572104"
MSHSD MARUTI FUEL STATION,13.04726869,77.14109934,,"Sy. No.41/1, Khata No.15, Raghunathapura Village, Thippasandra Hobli, Magadi Taluk, Ramanagara District -562131"
MS/HSD KAMAL SERVICE STATION,13.13017017,77.35899475,,"SY. NO:49/3 OF BUDIHAL VILLAGE, KASABA HOBLI, NELAMANGALA TALUK, BANGALORE URBAN DISTRICT, STATE: KARNATAKA, PIN CODE NO: 562123"
MSHSD SHREE SAI SHIVA FUEL STATION,12.99796744,76.939456,,"Sy.No.35/1, Siddapura Village, Yediyur Hobli, Kunigal Taluk, Tumkur District- 572130"
MSHSD SRI ANNAPURNESHWARI FILLING STATION,12.87696744,77.6477743,,"HP PETROL PUMP, SY. NO. 193/191/192/189,SINGASANDRA,HOSUR MAIN ROAD, BEGUR HOBLI,BANGALORE URBAN-560068"
MSHSD SRI SAI HARIHARAN FILLING STATION,16.03686456,80.66428346,,Arumbaka / Guntur District
MSHSD COCO KONDAYAPALEM,16.19254954,79.81731225,,KONDAYAPALEM / Guntur District
MSHSD DHIYA FILLING STATION,15.90086004,80.77095994,,ADAVULADEEVI / Guntur District
